using System.Collections.Generic;

namespace DutchVACCATISGenerator.Test.Helpers
{
    public static class METARHelper
    {
        //Single line ([\d]{12}.)(.*)=
        //2 lines ([\d]{12}.)(.*)(\r\n\s*)(.*)=                                             replace with            \1\2 \4=
        //3 lines ([\d]{12}.)(.*)(\r\n\s*)(.*)(\r\n\s*)(.*)=                                replace with            \1\2 \4 \6=
        //4 lines ([\d]{12}.)(.*)(\r\n\s*)(.*)(\r\n\s*)(.*)(\r\n\s*)(.*)=                   replace with            \1\2 \4 \6 \8=

        public static List<string> EHAMMETARs = new List<string>()
            {
                "EHAM 312225Z 27015KT 9999 FEW022TCU 04/M00 Q0998 NOSIG",
                "EHAM 311825Z 26010KT 9999 FEW025 04/00 Q0998 NOSIG",
                "EHAM 311625Z 27015KT 9999 FEW031 06/02 Q0998 NOSIG",
                "EHAM 311525Z 24013KT 9999 FEW028 06/02 Q0999 NOSIG",
                "EHAM 311455Z 24012KT 9999 FEW018 06/02 Q0999 NOSIG",
                "EHAM 302355Z 18010KT 9999 FEW032 04/03 Q1015 NOSIG",
                "EHAM 302225Z 17008KT 9999 FEW035 03/02 Q1018 NOSIG",
                "EHAM 302155Z 17007KT CAVOK 03/02 Q1019 NOSIG",
                "EHAM 302125Z 17007KT CAVOK 03/02 Q1019 NOSIG",
                "EHAM 302055Z 17008KT CAVOK 03/02 Q1020 NOSIG",
                "EHAM 302025Z 17007KT CAVOK 04/02 Q1020 NOSIG",
                "EHAM 301955Z 19007KT CAVOK 03/02 Q1021 NOSIG",
                "EHAM 301925Z 19008KT CAVOK 03/02 Q1022 NOSIG",
                "EHAM 301855Z 18008KT CAVOK 03/01 Q1022 NOSIG",
                "EHAM 301825Z 20008KT CAVOK 03/01 Q1023 NOSIG",
                "EHAM 301755Z 19006KT CAVOK 02/00 Q1023 NOSIG",
                "EHAM 301725Z 21005KT CAVOK 03/01 Q1023 NOSIG",
                "EHAM 301655Z 22006KT CAVOK 03/01 Q1024 NOSIG",
                "EHAM 301625Z 23006KT CAVOK 04/02 Q1024 NOSIG",
                "EHAM 301525Z 23011KT 9999 FEW018 06/03 Q1025 NOSIG",
                "EHAM 301455Z 23011KT 9999 FEW018 07/03 Q1026 NOSIG",
                "EHAM 301425Z 25012KT 9999 FEW018 07/03 Q1026 NOSIG",
                "EHAM 301355Z 24011KT 9999 FEW018 07/03 Q1026 NOSIG",
                "EHAM 301155Z 24013KT 9999 FEW016 07/04 Q1028 NOSIG",
                "EHAM 301055Z 25011KT 9999 FEW015 07/04 Q1029 NOSIG",
                "EHAM 300855Z 24008KT 9999 FEW017 05/03 Q1029 NOSIG",
                "EHAM 300825Z 24010KT 9999 FEW017 05/03 Q1028 NOSIG",
                "EHAM 300755Z 24009KT 9999 FEW017 04/03 Q1029 NOSIG",
                "EHAM 300725Z 24008KT 9999 FEW017 05/03 Q1028 NOSIG",
                "EHAM 300655Z 25008KT 9999 FEW016 05/03 Q1029 NOSIG",
                "EHAM 300625Z 23007KT 9999 FEW015 04/03 Q1029 NOSIG",
                "EHAM 300525Z 23006KT 9999 FEW018 03/02 Q1029 NOSIG",
                "EHAM 300455Z 22006KT 9999 FEW016 03/02 Q1029 NOSIG",
                "EHAM 300425Z 22006KT 9999 FEW016 03/02 Q1028 NOSIG",
                "EHAM 300325Z 25007KT 9999 FEW018 03/02 Q1029 NOSIG",
                "EHAM 300255Z 25007KT 9999 FEW018 03/02 Q1029 NOSIG",
                "EHAM 300225Z 26007KT 9999 FEW018 03/02 Q1029 NOSIG",
                "EHAM 300155Z 27006KT 9999 FEW018 03/02 Q1029 NOSIG",
                "EHAM 300125Z 26006KT 9999 FEW018 03/02 Q1028 NOSIG",
                "EHAM 300055Z 27007KT 9999 FEW025 03/02 Q1028 NOSIG",
                "EHAM 300025Z 29006KT 9999 FEW025 03/02 Q1028 NOSIG",
                "EHAM 292355Z 29008KT 9999 FEW025 04/03 Q1028 NOSIG",
                "EHAM 292325Z 27009KT 9999 FEW025 04/03 Q1028 NOSIG",
                "EHAM 292255Z 28008KT 9999 FEW025 04/02 Q1028 NOSIG",
                "EHAM 292225Z 28010KT 9999 FEW025 05/03 Q1027 NOSIG",
                "EHAM 292155Z 28008KT 9999 FEW025 05/03 Q1027 NOSIG",
                "EHAM 292125Z 29010KT 9999 FEW025 06/03 Q1027 NOSIG",
                "EHAM 292055Z 29009KT 9999 FEW025 06/03 Q1026 NOSIG",
                "EHAM 292025Z 29011KT 9999 FEW025 06/03 Q1026 NOSIG",
                "EHAM 291955Z 31009KT 9999 FEW025 06/03 Q1026 NOSIG",
                "EHAM 291925Z 30012KT 9999 FEW017 07/04 Q1025 NOSIG",
                "EHAM 291855Z 29014KT 9999 FEW017 07/05 Q1024 NOSIG",
                "EHAM 291825Z 30015KT 9999 FEW017 07/05 Q1024 NOSIG",
                "EHAM 281825Z 24018KT 9999 FEW008 11/09 Q1028 NOSIG",
                "EHAM 281055Z 24016KT 9999 FEW010 10/08 Q1028 NOSIG",
                "EHAM 281025Z 25017KT 9999 FEW010 10/08 Q1028 NOSIG",
                "EHAM 280855Z 25015KT 9999 FEW010 09/07 Q1028 NOSIG",
                "EHAM 280825Z 24010KT 9999 FEW006 08/07 Q1028 NOSIG",
                "EHAM 280755Z 25015KT 9999 FEW006 08/07 Q1027 NOSIG",
                "EHAM 280555Z 27014KT 9999 SCT032 09/07 Q1026 NOSIG",
                "EHAM 280525Z 27015KT 240V300 CAVOK 09/07 Q1025 NOSIG",
                "EHAM 280455Z 26014KT 9999 FEW009 09/08 Q1025 NOSIG",
                "EHAM 280425Z 26017KT 9999 FEW006 09/08 Q1025 NOSIG",
                "EHAM 271425Z 19016KT 9999 FEW017 06/03 Q1027 NOSIG",
                "EHAM 271255Z 19016KT 9999 FEW020 07/03 Q1027 NOSIG",
                "EHAM 271225Z 20014KT 9999 FEW024 07/03 Q1028 NOSIG",
                "EHAM 271025Z 19011KT 9999 OVC026 06/03 Q1029 NOSIG",
                "EHAM 270325Z 19006KT CAVOK 01/01 Q1027 BECMG 6000 MIFG",
                "EHAM 270055Z 19003KT CAVOK 03/02 Q1026 BECMG 6000 MIFG",
                "EHAM 270025Z 25003KT CAVOK 04/02 Q1026 BECMG 6000 MIFG",
                "EHAM 260155Z 18008KT 7000 FEW044 04/04 Q1012 NOSIG",
                "EHAM 260125Z 16005KT 8000 NSC 03/03 Q1012 BECMG 6000",
                "EHAM 260055Z 17006KT 9000 NSC 04/04 Q1012 BECMG 6000",
                "EHAM 260025Z 15008KT 9000 NSC 05/04 Q1012 BECMG 6000",
                "EHAM 252355Z 17005KT 140V200 CAVOK 05/04 Q1011 NOSIG",
                "EHAM 252325Z 17006KT CAVOK 05/04 Q1011 NOSIG",
                "EHAM 252255Z 15004KT 8000 NSC 04/04 Q1011 NOSIG",
                "EHAM 252225Z 19006KT CAVOK 05/04 Q1011 NOSIG",
                "EHAM 252155Z 16007KT CAVOK 05/04 Q1011 NOSIG",
                "EHAM 252125Z 18008KT CAVOK 06/05 Q1011 NOSIG",
                "EHAM 252055Z 19008KT CAVOK 06/05 Q1011 NOSIG",
                "EHAM 252025Z 20008KT CAVOK 06/04 Q1010 NOSIG",
                "EHAM 251955Z 19007KT CAVOK 06/04 Q1010 NOSIG",
                "EHAM 251925Z 19008KT CAVOK 06/05 Q1010 NOSIG",
                "EHAM 251855Z 20007KT CAVOK 06/05 Q1010 NOSIG",
                "EHAM 251825Z 19007KT CAVOK 07/06 Q1010 NOSIG",
                "EHAM 251755Z 19008KT CAVOK 07/06 Q1010 NOSIG",
                "EHAM 251725Z 19007KT 9999 SCT045 08/06 Q1010 NOSIG",
                "EHAM 251655Z 19008KT 9999 FEW016 08/06 Q1010 NOSIG",
                "EHAM 251625Z 19008KT 9999 FEW016 08/06 Q1010 NOSIG",
                "EHAM 251555Z 20011KT 9999 FEW016 08/06 Q1009 NOSIG",
                "EHAM 251525Z 20011KT 9999 FEW017 08/06 Q1009 NOSIG",
                "EHAM 251425Z 21010KT 9999 FEW016 09/06 Q1009 NOSIG",
                "EHAM 251255Z 20012KT 9999 FEW017 09/07 Q1010 NOSIG",
                "EHAM 251155Z 21012KT 9999 FEW017 09/06 Q1010 NOSIG",
                "EHAM 251055Z 21013KT 9999 FEW018 09/07 Q1010 NOSIG",
                "EHAM 250955Z 20013KT 9999 FEW010 08/07 Q1010 NOSIG",
                "EHAM 250825Z 20012KT 9999 SCT015 08/06 Q1010 NOSIG",
                "EHAM 250755Z 20011KT 9999 FEW015 07/06 Q1010 NOSIG",
                "EHAM 250325Z 20011KT 9999 SCT016 07/05 Q1009 NOSIG",
                "EHAM 250155Z 23016KT 9999 FEW015 07/06 Q1009 NOSIG",
                "EHAM 250125Z 23015KT 9999 FEW015 07/05 Q1009 NOSIG",
                "EHAM 250055Z 23015KT 9999 FEW015 07/05 Q1008 NOSIG",
                "EHAM 250025Z 22014KT 9999 FEW015 07/05 Q1008 NOSIG",
                "EHAM 242355Z 22014KT 9999 FEW015 08/06 Q1008 NOSIG",
                "EHAM 242325Z 22014KT 9999 FEW030 08/06 Q1008 NOSIG",
                "EHAM 242225Z 22013KT 9999 -RA FEW012 07/07 Q1008 NOSIG",
                "EHAM 242155Z 20011KT 9999 -RA FEW025 07/06 Q1007 NOSIG",
                "EHAM 230955Z 19012KT 9999 BKN031 07/05 Q1019 NOSIG",
                "EHAM 230925Z 19013KT 9999 BKN032 07/05 Q1018 NOSIG",
                "EHAM 230825Z 19012KT 9999 OVC033 06/04 Q1019 NOSIG",
                "EHAM 230755Z 19012KT 9999 OVC031 06/04 Q1019 NOSIG",
                "EHAM 230725Z 18010KT 9999 OVC032 06/04 Q1018 NOSIG",
                "EHAM 230655Z 19008KT 9999 BKN034 05/04 Q1018 NOSIG",
                "EHAM 230625Z 20010KT 9999 BKN038 05/04 Q1018 NOSIG",
                "EHAM 230555Z 21010KT 9999 BKN040 05/04 Q1018 NOSIG",
                "EHAM 230525Z 20008KT 9999 BKN038 04/03 Q1019 NOSIG",
                "EHAM 230455Z 20007KT CAVOK 04/03 Q1019 NOSIG",
                "EHAM 230425Z 21007KT 9999 BKN037 05/04 Q1019 NOSIG",
                "EHAM 230355Z 20007KT 9999 BKN040 04/03 Q1018 NOSIG",
                "EHAM 230325Z 22006KT 9999 FEW045 05/03 Q1019 NOSIG",
                "EHAM 230255Z 25009KT 9999 BKN045 06/05 Q1018 NOSIG",
                "EHAM 230225Z 25009KT 9999 FEW045 06/04 Q1018 NOSIG",
                "EHAM 230155Z 25009KT 9999 BKN040 07/05 Q1018 NOSIG",
                "EHAM 230125Z 25009KT 9999 BKN043 06/05 Q1018 NOSIG",
                "EHAM 230055Z 25009KT CAVOK 06/04 Q1018 NOSIG",
                "EHAM 230025Z 26009KT CAVOK 06/04 Q1017 NOSIG",
                "EHAM 222355Z 27010KT CAVOK 06/04 Q1017 NOSIG",
                "EHAM 222325Z 27010KT 9999 FEW038 06/04 Q1017 NOSIG",
                "EHAM 222255Z 27010KT CAVOK 06/04 Q1017 NOSIG",
                "EHAM 222225Z 27010KT CAVOK 06/04 Q1016 NOSIG",
                "EHAM 222155Z 26009KT CAVOK 06/04 Q1016 NOSIG",
                "EHAM 222125Z 26008KT CAVOK 06/05 Q1015 NOSIG",
                "EHAM 222055Z 26009KT 9999 FEW022 06/04 Q1015 NOSIG",
                "EHAM 222025Z 26010KT 9999 FEW025 07/05 Q1015 NOSIG",
                "EHAM 221855Z 28011KT 9999 SCT035 07/05 Q1013 NOSIG",
                "EHAM 221755Z 29013KT 9999 FEW013 07/05 Q1013 NOSIG",
                "EHAM 221455Z 29011KT 9999 FEW014 08/05 Q1009 NOSIG",
                "EHAM 221425Z 29012KT 9999 FEW014 08/05 Q1009 NOSIG",
                "EHAM 221325Z 29013KT 9999 FEW014 08/06 Q1008 NOSIG",
                "EHAM 221225Z 29013KT 9999 FEW014 08/06 Q1007 NOSIG",
                "EHAM 211855Z 16010KT CAVOK 04/02 Q1012 NOSIG",
                "EHAM 211825Z 16009KT CAVOK 04/02 Q1013 NOSIG",
                "EHAM 211755Z 16009KT CAVOK 04/02 Q1013 NOSIG",
                "EHAM 211725Z 16008KT CAVOK 04/02 Q1013 NOSIG",
                "EHAM 211655Z 15007KT CAVOK 04/02 Q1013 NOSIG",
                "EHAM 211625Z 16007KT 9999 FEW023 03/01 Q1014 NOSIG",
                "EHAM 211555Z 17006KT 9999 FEW023 04/01 Q1014 NOSIG",
                "EHAM 211525Z 18006KT 9999 FEW023 05/02 Q1014 NOSIG",
                "EHAM 211255Z 25008KT 9999 FEW025 06/01 Q1015 NOSIG",
                "EHAM 211055Z 26005KT 9999 FEW025 06/02 Q1015 NOSIG",
                "EHAM 211025Z 26006KT 9999 FEW025 04/01 Q1015 NOSIG",
                "EHAM 210955Z 27005KT 9999 FEW025 04/01 Q1014 NOSIG",
                "EHAM 210825Z 27005KT 9999 FEW025 01/M01 Q1014 NOSIG",
                "EHAM 210725Z 30004KT 9999 FEW020CB 01/M01 Q1013 NOSIG",
                "EHAM 210625Z 30007KT 9999 FEW025 01/M01 Q1012 NOSIG",
                "EHAM 210555Z 29005KT 9999 FEW025 01/M01 Q1011 NOSIG",
                "EHAM 210525Z 29006KT 9999 FEW025 01/M01 Q1011 NOSIG",
                "EHAM 210455Z 29006KT 9999 FEW025 02/M01 Q1010 NOSIG",
                "EHAM 210425Z 31008KT 9999 FEW025 02/M00 Q1010 NOSIG",
                "EHAM 210355Z 32010KT 9999 FEW025 03/M00 Q1010 NOSIG",
                "EHAM 210325Z 32008KT 9999 FEW025 03/00 Q1009 NOSIG",
                "EHAM 210225Z 31010KT 9999 FEW022 02/M00 Q1008 NOSIG",
                "EHAM 210055Z 32009KT 9999 FEW025 02/M00 Q1006 NOSIG",
                "EHAM 210025Z 30007KT 9999 FEW025 01/M00 Q1006 NOSIG",
                "EHAM 202355Z 30005KT 9999 FEW022 01/M00 Q1005 NOSIG",
                "EHAM 202325Z 30004KT 9999 FEW022 01/M00 Q1005 NOSIG",
                "EHAM 201025Z 17007KT 9999 BKN007 02/01 Q1003 NOSIG",
                "EHAM 200755Z 19009KT 9999 FEW020 01/01 Q1004 NOSIG",
                "EHAM 200725Z 19006KT 9999 FEW022 00/M00 Q1004 NOSIG",
                "EHAM 200655Z 19009KT 9999 FEW020 00/M00 Q1004 NOSIG",
                "EHAM 200625Z 17007KT 9999 FEW020 00/M01 Q1004 NOSIG",
                "EHAM 200555Z 20006KT 9999 FEW020 M01/M02 Q1004 NOSIG",
                "EHAM 200525Z 19006KT 9999 FEW022 M00/M01 Q1004 NOSIG",
                "EHAM 191755Z 24012KT 9999 FEW022TCU 04/01 Q1007 NOSIG",
                "EHAM 191725Z 25012KT 9999 FEW022TCU 04/01 Q1007 NOSIG",
                "EHAM 191655Z 24009KT 9999 FEW023TCU 04/01 Q1007 NOSIG",
                "EHAM 191625Z 25010KT 9999 FEW023TCU 04/01 Q1007 NOSIG",
                "EHAM 191555Z 25013KT 9999 FEW023TCU 04/01 Q1007 NOSIG",
                "EHAM 191225Z 25015KT 9999 FEW020TCU 05/02 Q1007 NOSIG",
                "EHAM 191025Z 26011KT 9999 FEW020TCU 05/02 Q1007 NOSIG",
                "EHAM 190855Z 26010KT 9999 FEW018 04/01 Q1006 NOSIG",
                "EHAM 181755Z 27006KT 9999 FEW024 03/00 Q1000 NOSIG",
                "EHAM 181725Z 27009KT 9999 FEW022 04/01 Q1000 NOSIG",
                "EHAM 181625Z 27013KT 9999 SCT020 05/01 Q1000 NOSIG",
                "EHAM 180625Z 23036G46KT 9999 FEW015 10/07 Q0983 NOSIG",
                "EHAM 172355Z 22011KT 9999 FEW025 05/02 Q1002 NOSIG",
                "EHAM 172155Z 24014KT 9999 FEW030 06/01 Q1004 NOSIG",
                "EHAM 172125Z 25016KT 9999 SCT028 06/01 Q1004 NOSIG",
                "EHAM 172025Z 26018G28KT 9999 SCT030 06/01 Q1004 NOSIG",
                "EHAM 171655Z 27019KT 9999 SCT030 05/01 Q1004 NOSIG",
                "EHAM 171625Z 27021KT 9999 FEW030 05/01 Q1003 NOSIG",
                "EHAM 171555Z 28021KT 9999 FEW030 06/01 Q1003 NOSIG",
                "EHAM 170255Z 27021KT 9999 FEW024 04/M01 Q0991 NOSIG",
                "EHAM 170225Z 27023KT 9999 FEW024 03/M00 Q0991 NOSIG",
                "EHAM 170155Z 27018KT 9999 FEW027 04/M00 Q0990 NOSIG",
                "EHAM 170125Z 27019KT 9999 FEW025 04/M00 Q0990 NOSIG",
                "EHAM 170055Z 27018KT 9999 FEW025 04/M00 Q0990 NOSIG",
                "EHAM 161955Z 25017KT 9999 FEW036 05/00 Q0991 NOSIG",
                "EHAM 161825Z 25016KT 9999 FEW030 05/M00 Q0991 NOSIG",
                "EHAM 161755Z 26015KT 9999 FEW032 05/M00 Q0991 NOSIG",
                "EHAM 161725Z 25015KT 9999 VCSH FEW030 05/00 Q0992 NOSIG",
                "EHAM 161425Z 27019KT 9999 SCT027 06/01 Q0992 NOSIG",
                "EHAM 161355Z 27021KT 9999 SCT027 06/01 Q0992 NOSIG",
                "EHAM 160855Z 27019KT 9999 FEW022 05/02 Q0990 NOSIG",
                "EHAM 152225Z 26016KT 9999 FEW018 07/04 Q0990 NOSIG",
                "EHAM 152125Z 27013KT 9999 FEW019 07/05 Q0990 NOSIG",
                "COR EHAM 150155Z 17010KT 7000 OVC011 03/02 Q1013 NOSIG",
                "EHAM 150025Z 18010KT 7000 OVC010 02/01 Q1015 NOSIG",
                "EHAM 142125Z 14010KT CAVOK 01/M00 Q1017 NOSIG",
                "EHAM 142055Z 14009KT CAVOK 01/M00 Q1017 NOSIG",
                "EHAM 142025Z 13008KT CAVOK 01/M00 Q1017 NOSIG",
                "EHAM 141955Z 13008KT CAVOK 02/M00 Q1018 NOSIG",
                "EHAM 141925Z 13008KT CAVOK 02/M00 Q1018 NOSIG",
                "EHAM 141855Z 13008KT CAVOK 02/M00 Q1018 NOSIG",
                "EHAM 141825Z 14008KT CAVOK 02/M00 Q1018 NOSIG",
                "EHAM 141755Z 13008KT CAVOK 03/00 Q1018 NOSIG",
                "EHAM 141725Z 13009KT CAVOK 03/00 Q1018 NOSIG",
                "COR EHAM 141655Z 12009KT CAVOK 03/00 Q1018 NOSIG",
                "EHAM 141625Z 12009KT CAVOK 03/00 Q1018 NOSIG",
                "EHAM 141555Z 12007KT CAVOK 03/00 Q1019 NOSIG",
                "EHAM 141525Z 12007KT CAVOK 04/01 Q1019 NOSIG",
                "EHAM 141455Z 11009KT CAVOK 04/01 Q1019 NOSIG",
                "EHAM 141225Z 09008KT 9999 SCT017 04/01 Q1020 NOSIG",
                "EHAM 140855Z 09010KT 9999 BKN030 03/00 Q1021 NOSIG",
                "EHAM 140755Z 08011KT 9999 BKN030 02/00 Q1021 NOSIG",
                "EHAM 140725Z 08010KT 9999 BKN028 02/00 Q1021 NOSIG",
                "EHAM 140625Z 07011KT 9000 BKN027 03/00 Q1021 NOSIG",
                "EHAM 140555Z 07010KT 9000 BKN027 03/01 Q1021 NOSIG",
                "EHAM 140455Z 08010KT 9000 BKN027 03/01 Q1021 NOSIG",
                "EHAM 140425Z 08011KT 9000 BKN028 03/01 Q1021 NOSIG",
                "EHAM 140355Z 08010KT 9000 BKN030 03/01 Q1021 NOSIG",
                "EHAM 140325Z 08009KT 9000 BKN030 03/01 Q1021 NOSIG",
                "EHAM 140225Z 07010KT 9999 BKN032 03/01 Q1021 NOSIG",
                "EHAM 140155Z 07010KT 9999 BKN032 02/01 Q1022 NOSIG",
                "EHAM 140125Z 06010KT 9999 BKN032 03/01 Q1022 NOSIG",
                "EHAM 140055Z 07008KT 9999 BKN031 03/01 Q1022 NOSIG",
                "EHAM 140025Z 07007KT 9999 BKN030 04/01 Q1022 NOSIG",
                "EHAM 132355Z 09006KT 9999 BKN027 04/02 Q1022 NOSIG",
                "EHAM 132325Z 08007KT 9999 BKN027 04/02 Q1022 NOSIG",
                "EHAM 132255Z 09007KT 9999 BKN028 04/02 Q1022 NOSIG",
                "EHAM 132225Z 09007KT 9999 FEW032 03/01 Q1022 NOSIG",
                "EHAM 132155Z 10008KT 9999 BKN030 04/01 Q1023 NOSIG",
                "COR EHAM 132125Z 09008KT 9999 BKN030 04/01 Q1022 NOSIG",
                "COR EHAM 132055Z 09006KT 9999 FEW030 04/01 Q1023 NOSIG",
                "EHAM 132025Z 09007KT 9999 FEW030 03/01 Q1023 NOSIG",
                "EHAM 131955Z 09006KT 9999 FEW028 04/01 Q1023 NOSIG",
                "EHAM 131925Z 10007KT 9999 BKN028 04/01 Q1023 NOSIG",
                "EHAM 131855Z 12009KT 9999 BKN027 05/01 Q1023 NOSIG",
                "EHAM 131725Z 12008KT 9999 OVC025 05/02 Q1023 NOSIG",
                "EHAM 121425Z VRB02KT 9999 FEW016 06/04 Q1026 NOSIG",
                "EHAM 091855Z 15007KT 9999 OVC012 05/03 Q1008 NOSIG",
                "EHAM 091655Z 14008KT 9999 OVC014 05/03 Q1008 NOSIG",
                "EHAM 091355Z 12007KT 9999 BKN020 04/02 Q1008 NOSIG",
                "EHAM 091325Z 12006KT CAVOK 03/02 Q1008 NOSIG",
                "EHAM 091255Z 13006KT 9999 FEW012 03/01 Q1008 NOSIG",
                "EHAM 091155Z 12007KT 090V150 CAVOK 03/01 Q1009 NOSIG",
                "EHAM 091125Z 12010KT CAVOK 02/00 Q1009 NOSIG",
                "EHAM 091055Z 10009KT 060V120 CAVOK 02/00 Q1009 NOSIG",
                "EHAM 091025Z 08007KT 050V120 CAVOK 01/M00 Q1010 NOSIG",
                "EHAM 090955Z 10009KT 9999 FEW016 01/M01 Q1010 NOSIG",
                "EHAM 090925Z 10010KT 9999 FEW016 01/M01 Q1010 NOSIG",
                "EHAM 090855Z 09008KT 9999 SCT017 01/M01 Q1010 NOSIG",
                "EHAM 090825Z 08009KT 9999 FEW018 00/M01 Q1011 NOSIG",
                "EHAM 090755Z 08009KT 9999 FEW020 00/M01 Q1011 NOSIG",
                "EHAM 090725Z 09011KT 9999 FEW020 00/M01 Q1011 NOSIG",
                "EHAM 090655Z 08010KT 050V110 CAVOK 01/M01 Q1012 NOSIG",
                "EHAM 090625Z 07012KT 040V110 CAVOK 01/M01 Q1012 NOSIG",
                "EHAM 090555Z 06012KT 9999 FEW020 01/M01 Q1012 NOSIG",
                "EHAM 090525Z 07011KT CAVOK 00/M02 Q1013 NOSIG",
                "EHAM 090455Z 07009KT CAVOK 00/M02 Q1013 NOSIG",
                "EHAM 090425Z 08008KT CAVOK M00/M02 Q1014 NOSIG",
                "EHAM 090355Z 08007KT CAVOK M00/M02 Q1014 NOSIG",
                "EHAM 090325Z 07010KT CAVOK 00/M02 Q1014 NOSIG",
                "EHAM 090255Z 08010KT 050V110 CAVOK 01/M02 Q1014 NOSIG",
                "EHAM 090225Z 07014KT 040V100 CAVOK 01/M02 Q1015 NOSIG",
                "EHAM 090155Z 07013KT CAVOK 01/M02 Q1015 NOSIG",
                "EHAM 090125Z 07012KT 050V110 CAVOK 01/M02 Q1016 NOSIG",
                "EHAM 090055Z 08011KT 050V110 CAVOK 01/M02 Q1016 NOSIG",
                "EHAM 090025Z 08012KT CAVOK 01/M02 Q1017 NOSIG",
                "EHAM 082355Z 08010KT 050V110 CAVOK 01/M02 Q1017 NOSIG",
                "EHAM 082325Z 08010KT 050V110 CAVOK 01/M02 Q1018 NOSIG",
                "EHAM 082255Z 09009KT 060V120 CAVOK 01/M02 Q1018 NOSIG",
                "EHAM 082225Z 09010KT CAVOK 01/M03 Q1018 NOSIG",
                "EHAM 082155Z 08011KT CAVOK 01/M03 Q1019 NOSIG",
                "EHAM 082125Z 08012KT CAVOK 01/M03 Q1019 NOSIG",
                "EHAM 082055Z 08013KT CAVOK 01/M03 Q1019 NOSIG",
                "EHAM 082025Z 08012KT CAVOK 01/M03 Q1020 NOSIG",
                "EHAM 081955Z 08011KT 050V110 CAVOK 01/M03 Q1020 NOSIG",
                "EHAM 081925Z 08011KT CAVOK 01/M03 Q1021 NOSIG",
                "EHAM 081855Z 07010KT 050V110 CAVOK 02/M03 Q1021 NOSIG",
                "EHAM 081825Z 08011KT CAVOK 02/M03 Q1021 NOSIG",
                "EHAM 081755Z 08013KT 050V110 CAVOK 02/M03 Q1021 NOSIG",
                "EHAM 081725Z 08012KT 050V110 CAVOK 02/M03 Q1021 NOSIG",
                "EHAM 081655Z 08013KT 040V100 CAVOK 02/M02 Q1021 NOSIG",
                "EHAM 081625Z 08013KT CAVOK 02/M02 Q1021 NOSIG",
                "EHAM 081555Z 08012KT CAVOK 03/M02 Q1022 NOSIG",
                "EHAM 081525Z 08013KT CAVOK 03/M02 Q1022 NOSIG",
                "EHAM 081455Z 08012KT 050V110 CAVOK 03/M02 Q1022 NOSIG",
                "EHAM 081425Z 08013KT CAVOK 04/M01 Q1022 NOSIG",
                "EHAM 081355Z 08012KT 050V110 CAVOK 03/M01 Q1022 NOSIG",
                "EHAM 081325Z 08012KT 050V120 CAVOK 03/M01 Q1023 NOSIG",
                "EHAM 081255Z 08015KT CAVOK 03/M01 Q1023 NOSIG",
                "EHAM 081225Z 08013KT 050V120 CAVOK 03/M02 Q1023 NOSIG",
                "EHAM 081155Z 07014KT 040V110 CAVOK 02/M02 Q1024 NOSIG",
                "EHAM 081125Z 07015KT CAVOK 02/M02 Q1024 NOSIG",
                "EHAM 081055Z 07016KT CAVOK 01/M02 Q1025 NOSIG",
                "EHAM 081025Z 08015KT CAVOK 01/M02 Q1026 NOSIG",
                "EHAM 080955Z 07015KT CAVOK 01/M02 Q1026 NOSIG",
                "EHAM 080925Z 07014KT CAVOK 00/M03 Q1026 NOSIG",
                "EHAM 080855Z 08014KT CAVOK 00/M03 Q1026 NOSIG",
                "EHAM 080825Z 07015KT CAVOK M00/M03 Q1026 NOSIG",
                "EHAM 080625Z 07015KT 9999 BKN047 M00/M03 Q1026 NOSIG",
                "EHAM 080555Z 07016KT 9999 BKN045 M00/M04 Q1026 NOSIG",
                "EHAM 080455Z 07016KT 9999 BKN042 M01/M04 Q1027 NOSIG",
                "EHAM 080425Z 07015KT 9999 FEW040 M01/M04 Q1027 NOSIG",
                "EHAM 080325Z 07012KT 040V100 CAVOK M01/M04 Q1027 NOSIG",
                "EHAM 080255Z 07014KT CAVOK M01/M04 Q1027 NOSIG",
                "EHAM 080225Z 07014KT 040V100 CAVOK M01/M04 Q1027 NOSIG",
                "EHAM 080155Z 07014KT 030V090 CAVOK M01/M04 Q1027 NOSIG",
                "EHAM 080125Z 07013KT 040V100 CAVOK M01/M04 Q1027 NOSIG",
                "EHAM 080055Z 07015KT 030V100 CAVOK M01/M04 Q1028 NOSIG",
                "EHAM 080025Z 07013KT 040V110 CAVOK M01/M04 Q1028 NOSIG",
                "EHAM 072355Z 07016KT 040V100 CAVOK M01/M04 Q1028 NOSIG",
                "EHAM 072325Z 06016KT CAVOK M01/M04 Q1028 NOSIG",
                "EHAM 072255Z 06015KT CAVOK M00/M04 Q1028 NOSIG",
                "EHAM 072225Z 07014KT CAVOK M00/M04 Q1029 NOSIG",
                "EHAM 072155Z 06017KT 030V090 CAVOK 00/M04 Q1028 NOSIG",
                "EHAM 072125Z 06016KT 040V100 CAVOK 00/M04 Q1029 NOSIG",
                "EHAM 072055Z 06017KT 030V090 CAVOK 00/M04 Q1028 NOSIG",
                "EHAM 072025Z 06018KT 030V090 CAVOK 00/M04 Q1028 NOSIG",
                "EHAM 071955Z 07019KT 040V100 CAVOK 00/M04 Q1028 NOSIG",
                "EHAM 071925Z 07019KT 040V100 CAVOK 01/M04 Q1028 NOSIG",
                "EHAM 071855Z 06016KT 030V090 CAVOK 01/M03 Q1029 NOSIG",
                "EHAM 071825Z 06016KT 020V090 CAVOK 01/M03 Q1028 NOSIG",
                "EHAM 071755Z 06017KT 030V090 CAVOK 01/M03 Q1028 NOSIG",
                "EHAM 071725Z 06017KT 030V090 CAVOK 01/M03 Q1028 NOSIG",
                "EHAM 071655Z 06019KT 030V090 CAVOK 01/M03 Q1028 NOSIG",
                "EHAM 071625Z 06016KT 030V090 CAVOK 01/M03 Q1028 NOSIG",
                "EHAM 071555Z 06017KT 020V080 CAVOK 02/M03 Q1028 NOSIG",
                "EHAM 071525Z 06016KT 030V090 CAVOK 02/M02 Q1027 NOSIG",
                "EHAM 071455Z 06016KT CAVOK 02/M02 Q1027 NOSIG",
                "EHAM 071425Z 05017KT 030V090 CAVOK 02/M02 Q1027 NOSIG",
                "EHAM 071355Z 05017KT 010V080 CAVOK 02/M02 Q1027 NOSIG",
                "EHAM 071325Z 05016KT CAVOK 02/M02 Q1028 NOSIG",
                "EHAM 071255Z 05018KT 030V090 CAVOK 02/M02 Q1028 NOSIG",
                "EHAM 071225Z 05017KT 020V090 CAVOK 02/M02 Q1028 NOSIG",
                "EHAM 071155Z 05015KT 020V080 CAVOK 03/M02 Q1028 NOSIG",
                "EHAM 071125Z 06016KT 020V090 CAVOK 02/M02 Q1028 NOSIG",
                "EHAM 071055Z 06018KT 030V090 CAVOK 02/M02 Q1028 NOSIG",
                "EHAM 071025Z 06016KT CAVOK 02/M02 Q1028 NOSIG",
                "EHAM 070955Z 06017KT CAVOK 02/M02 Q1028 NOSIG",
                "EHAM 070925Z 05017KT CAVOK 02/M02 Q1027 NOSIG",
                "EHAM 070855Z 05016KT 9999 FEW017 01/M02 Q1027 NOSIG",
                "EHAM 070725Z 05017KT 9999 SCT017 02/M01 Q1026 NOSIG",
                "EHAM 070625Z 04017KT 9999 SCT016 02/M01 Q1025 NOSIG",
                "EHAM 070525Z 04015KT 9999 FEW017 02/M01 Q1024 NOSIG",
                "EHAM 070455Z 05015KT 9999 FEW021 02/M01 Q1024 NOSIG",
                "EHAM 070255Z 06013KT 9999 BKN016 03/M00 Q1022 NOSIG",
                "EHAM 062325Z 03007KT 9999 FEW022 03/01 Q1019 NOSIG",
                "EHAM 062255Z 04007KT 9999 SCT022 04/01 Q1019 NOSIG",
                "EHAM 062225Z 03008KT 9999 FEW022 04/01 Q1019 NOSIG",
                "EHAM 062155Z 03008KT 9999 FEW028 04/02 Q1018 NOSIG",
                "EHAM 062025Z 04008KT 9999 FEW025 04/02 Q1017 NOSIG",
                "EHAM 061955Z 03008KT 9999 FEW025 04/02 Q1016 NOSIG",
                "EHAM 061755Z 04010KT 010V070 CAVOK 05/02 Q1014 NOSIG",
                "EHAM 061725Z 04010KT 360V070 CAVOK 05/02 Q1013 NOSIG",
                "EHAM 061455Z 02010KT 9999 FEW014 06/04 Q1011 NOSIG",
                "EHAM 060655Z 16004KT 9999 BKN037 03/03 Q1004 NOSIG",
                "EHAM 060625Z 19005KT 9999 FEW039 03/02 Q1003 NOSIG",
                "EHAM 060555Z 19005KT 9999 FEW040 03/02 Q1003 NOSIG",
                "EHAM 060525Z 19009KT 9999 FEW018 04/03 Q1003 NOSIG",
                "EHAM 060455Z 20007KT 9999 FEW018 02/01 Q1002 NOSIG",
                "EHAM 060425Z 23004KT 9999 FEW035 03/02 Q1002 NOSIG",
                "EHAM 060355Z 25007KT 9999 FEW035 04/03 Q1002 NOSIG",
                "EHAM 060325Z 23009KT 9999 FEW035 05/03 Q1001 NOSIG",
                "EHAM 060255Z 22008KT 9999 FEW023 04/02 Q1001 NOSIG",
                "EHAM 052125Z 21014KT 9999 FEW032 06/04 Q0997 NOSIG",
                "EHAM 052055Z 20013KT 9999 FEW032 06/04 Q0997 NOSIG",
                "EHAM 051955Z 21012KT 9999 FEW040 06/04 Q0996 NOSIG",
                "EHAM 051925Z 20011KT 9999 FEW030 05/04 Q0996 NOSIG",
                "EHAM 051855Z 20011KT 9999 FEW022 05/04 Q0996 NOSIG",
                "EHAM 051825Z 19008KT 9999 FEW035 05/04 Q0995 NOSIG",
                "EHAM 051725Z 18008KT CAVOK 05/04 Q0995 NOSIG",
                "EHAM 051655Z 19008KT 9999 FEW030 04/03 Q0995 NOSIG",
                "EHAM 051625Z 18003KT 9999 FEW030 04/03 Q0995 NOSIG",
                "EHAM 050825Z 21007KT 9999 FEW015 05/04 Q0994 NOSIG",
                "EHAM 050755Z 22008KT 9999 FEW015 06/04 Q0994 NOSIG",
                "EHAM 050655Z 22010KT 9999 FEW013 05/04 Q0993 NOSIG",
                "EHAM 050555Z 22010KT 9999 FEW015 05/03 Q0993 NOSIG",
                "EHAM 050425Z 22013KT 9999 FEW025 06/03 Q0992 NOSIG",
                "EHAM 050355Z 23014KT 9999 FEW026 06/02 Q0992 NOSIG",
                "EHAM 050325Z 22015KT 9999 -RA FEW028 07/02 Q0992 NOSIG",
                "EHAM 050255Z 23017KT 9999 -RA FEW026 07/03 Q0992 NOSIG",
                "EHAM 050225Z 23015KT 9999 FEW030 08/04 Q0992 NOSIG",
                "EHAM 050155Z 24017KT 9999 FEW040 08/04 Q0992 NOSIG",
                "EHAM 050125Z 25018KT 9999 FEW030 08/03 Q0992 NOSIG",
                "EHAM 050055Z 25019KT 9999 FEW028 08/03 Q0992 NOSIG",
                "EHAM 042355Z 24021KT 9999 FEW028 08/03 Q0992 NOSIG",
                "EHAM 042225Z 25023G34KT 9999 SCT030 08/03 Q0991 NOSIG",
                "EHAM 042155Z 25024G35KT 9999 FEW030 07/03 Q0991 NOSIG",
                "EHAM 041855Z 25028G40KT 9999 FEW032 09/05 Q0988 NOSIG",
                "EHAM 041825Z 25024KT 9999 FEW032 10/06 Q0988 NOSIG",
                "EHAM 040725Z 24013KT 9999 FEW043 08/05 Q0995 NOSIG",
                "EHAM 040655Z 24014KT 9999 FEW033 08/05 Q0996 NOSIG",
                "EHAM 040625Z 25014KT 9999 FEW045 08/05 Q0996 NOSIG",
                "EHAM 040555Z 25013KT 9999 FEW045 08/05 Q0996 NOSIG",
                "EHAM 040525Z 25013KT 9999 FEW045 08/04 Q0996 NOSIG",
                "EHAM 040455Z 25017KT 9999 FEW045 08/04 Q0996 NOSIG",
                "EHAM 040425Z 25016KT 9999 FEW028 08/04 Q0996 NOSIG",
                "EHAM 031755Z 25021G31KT 9999 FEW034 09/05 Q0995 NOSIG",
                "EHAM 031725Z 26026G36KT 9999 FEW034 09/04 Q0994 NOSIG",
                "EHAM 031655Z 26027G40KT 9999 FEW030 09/04 Q0994 NOSIG",
                "EHAM 030625Z 26025KT 9999 FEW020 07/03 Q0983 NOSIG",
                "EHAM 021955Z 19017KT 9999 -DZ OVC006 06/06 Q1000 NOSIG",
                "EHAM 021625Z 18013KT 9999 FEW020 06/04 Q1006 NOSIG",
                "EHAM 021555Z 17010KT 9999 FEW045 06/03 Q1006 NOSIG",
                "EHAM 021525Z 19013KT CAVOK 06/03 Q1007 NOSIG",
                "EHAM 021455Z 20011KT 9999 FEW016 06/04 Q1007 NOSIG",
                "EHAM 021425Z 20013KT 9999 FEW016 07/04 Q1008 NOSIG",
                "EHAM 021355Z 20010KT 9999 FEW016 07/04 Q1008 NOSIG",
                "EHAM 021325Z 23012KT 9999 FEW015 07/04 Q1009 NOSIG",
                "EHAM 021255Z 23012KT 9999 FEW013 07/05 Q1009 NOSIG",
                "EHAM 020955Z 25015KT 9999 FEW041 07/04 Q1010 NOSIG",
                "EHAM 020925Z 26013KT 9999 FEW041 07/04 Q1009 NOSIG",
                "EHAM 020155Z 27008KT 9999 FEW025 05/04 Q1003 NOSIG",
                "EHAM 020125Z 25006KT 9999 FEW025 06/04 Q1002 NOSIG",
                "EHAM 020055Z 24005KT 9999 SCT021 05/04 Q1002 NOSIG",
                "EHAM 020025Z 28005KT 9999 VCSH FEW015 05/04 Q1001 NOSIG",
                "EHAM 012325Z 25010KT 9999 SCT016 07/05 Q1001 NOSIG",
                "EHAM 312355Z 25015KT 9999 FEW022TCU SCT028 05/00 Q0997 NOSIG",
                "EHAM 312325Z 25012KT 220V280 9999 VCSH FEW022TCU 05/00 Q0998 TEMPO 7000 -SHRA",
                "EHAM 312255Z 26013KT 9000 -SHRA FEW022TCU 05/M00 Q0998 TEMPO 7000",
                "EHAM 312155Z 25016KT 220V280 9999 VCSH FEW022CB 05/M00 Q0998 NOSIG",
                "EHAM 312125Z 26015KT 9999 FEW030 04/M01 Q0998 TEMPO 7000 -SHRA SCT020CB",
                "EHAM 312055Z 24014KT 210V270 9999 FEW030 04/M00 Q0998 TEMPO 7000 -SHRA SCT020CB",
                "EHAM 312025Z 23009KT 9999 VCSH FEW034 04/01 Q0998 TEMPO 7000 -SHRA SCT020CB",
                "EHAM 311955Z 25011KT 9999 VCSH FEW036 04/M00 Q0998 TEMPO 7000 -SHRA SCT020CB",
                "EHAM 311925Z 25009KT 9999 FEW033 04/00 Q0998 TEMPO 27014G25KT 6000 -SHRA FEW022CB",
                "EHAM 311855Z 25009KT 220V280 CAVOK 04/M00 Q0998 TEMPO 27014G25KT 6000 -SHRA FEW022CB",
                "EHAM 311755Z 30012KT 270V340 9999 FEW025 03/01 Q0999 NOSIG",
                "EHAM 311725Z 25014KT 9999 -SHRA FEW020CB SCT025 06/02 Q0998 TEMPO 7000",
                "EHAM 311655Z 26011KT 9999 FEW029 06/02 Q0998 TEMPO 7000 -SHRA SCT020CB",
                "EHAM 311555Z 25013KT 210V270 9999 SCT022 06/02 Q0998 NOSIG",
                "EHAM 311425Z 27012KT 230V320 9999 -SHRA FEW018TCU BKN028 06/03 Q1000 TEMPO 6000 SHRA",
                "EHAM 311355Z 27012KT 250V320 9999 -SHRA FEW018CB BKN045 06/04 Q1000 TEMPO 6000 SHRA",
                "EHAM 311155Z 22021KT 9999 FEW012 SCT045 08/05 Q1001 TEMPO 6000 SHRA SCT022CB",
                "EHAM 311125Z 22022KT 9999 -RA FEW012 SCT020 BKN045 08/05 Q1001 TEMPO 6000 SHRA SCT022CB",
                "EHAM 311055Z 23019KT 9999 FEW012 SCT026 BKN040 08/05 Q1002 TEMPO 6000 SHRA SCT022CB",
                "EHAM 311025Z 23018KT 9999 -RA FEW010 SCT030 BKN045 08/06 Q1003 NOSIG",
                "EHAM 310955Z 23024KT 9999 -RA FEW010 SCT025 BKN040 08/06 Q1003 RERA NOSIG",
                "EHAM 310855Z 23022KT 9999 FEW010 BKN015 BKN040 09/07 Q1004 TEMPO 6000 -DZRA",
                "EHAM 310825Z 23022KT 200V260 9999 SCT011 SCT016 BKN035 09/07 Q1004 TEMPO BKN012",
                "EHAM 310755Z 23023KT 9999 FEW012 SCT015 BKN044 09/07 Q1004 TEMPO BKN012",
                "EHAM 310725Z 23023G34KT 200V260 9000 FEW012 SCT017 BKN040 10/07 Q1005 NOSIG",
                "EHAM 310655Z 23022KT 200V260 9999 FEW012 SCT020 BKN032 10/07 Q1005 NOSIG",
                "EHAM 310625Z 23026KT 9999 FEW010 SCT016 BKN032 10/07 Q1005 NOSIG",
                "EHAM 310555Z 23024KT 9999 SCT009 BKN014 09/08 Q1006 BECMG BKN016",
                "EHAM 310525Z 23024G37KT 200V260 9999 FEW008 BKN012 10/08 Q1006 TEMPO 3000 DZ BKN008",
                "EHAM 310455Z 23024KT 4000 -RADZ SCT007 BKN010 09/08 Q1007 TEMPO 2500 DZ BKN008",
                "EHAM 310425Z 23024KT 9999 -RA SCT005 BKN007 10/09 Q1008 RERA REDZ TEMPO 3000 DZ",
                "EHAM 310355Z 23024KT 5000 -RA FEW005 BKN006 09/09 Q1008 TEMPO 3000",
                "EHAM 310325Z 22017KT 190V250 2500 RADZ BR SCT004 BKN006 09/08 Q1009 BECMG 4000",
                "EHAM 310255Z 19015KT 1800 DZ BR FEW002 BKN003 08/07 Q1010 BECMG 3000 BKN006",
                "EHAM 310225Z 18013KT 150V210 2000 DZ BR FEW002 BKN003 06/06 Q1010 BECMG 3000 BKN006",
                "EHAM 310155Z 17011KT 2000 DZ BR FEW003 BKN004 06/05 Q1011 NOSIG",
                "EHAM 310125Z 17010KT 4000 -DZ BR FEW006 BKN011 05/05 Q1012 TEMPO 2500 DZ BECMG BKN007",
                "EHAM 310055Z 17011KT 7000 -DZ FEW012 SCT018 BKN040 05/04 Q1013 TEMPO 4000 BKN015",
                "EHAM 310025Z 19011KT 9999 FEW032 BKN038 04/03 Q1015 TEMPO 4000 -DZ BKN015",
                "EHAM 302325Z 18010KT 150V210 9999 SCT015 SCT032 04/02 Q1016 TEMPO BKN015",
                "EHAM 302255Z 17009KT 9999 FEW028 BKN032 04/03 Q1017 TEMPO BKN015",
                "EHAM 301555Z 23010KT 200V260 9999 FEW018 06/02 Q1025 NOSIG",
                "EHAM 301325Z 24010KT 210V270 9999 FEW018 07/03 Q1027 NOSIG",
                "EHAM 301255Z 24012KT 210V270 9999 FEW018 07/03 Q1027 NOSIG",
                "EHAM 301225Z 25013KT 210V270 9999 FEW018 07/03 Q1027 NOSIG",
                "COR EHAM 301125Z 25012KT 220V280 9999 FEW017 07/04 Q1029 NOSIG",
                "EHAM 301025Z 25010KT 220V290 9999 FEW017 07/04 Q1029 NOSIG",
                "EHAM 300955Z 22007KT 190V250 9999 FEW017 06/04 Q1028 NOSIG",
                "EHAM 300925Z 23007KT 190V270 9999 FEW017 06/04 Q1029 NOSIG",
                "EHAM 300555Z 23007KT 200V270 9999 FEW020 04/03 Q1029 NOSIG",
                "EHAM 300355Z 22006KT 9999 SCT016 02/02 Q1029 TEMPO BKN016",
                "EHAM 291755Z 29012KT 260V320 9999 FEW012 07/05 Q1023 NOSIG",
                "EHAM 291725Z 30013KT 270V350 9999 FEW012 07/06 Q1023 NOSIG",
                "EHAM 291655Z 31016KT 280V360 9999 FEW007 SCT011 BKN042 08/06 Q1022 NOSIG",
                "EHAM 291625Z 30019KT 9999 SCT007 SCT012 BKN035 08/07 Q1021 NOSIG",
                "EHAM 291455Z 25026KT 7000 -RA FEW009 SCT013 BKN018 09/08 Q1019 TEMPO 4000 BKN012",
                "EHAM 291255Z 23026G41KT 9999 FEW025 OVC030 11/06 Q1020 NOSIG",
                "EHAM 291225Z 24025G35KT 9999 FEW025 OVC033 11/06 Q1021 NOSIG",
                "EHAM 291155Z 24025G42KT 9999 FEW025 OVC033 11/06 Q1021 NOSIG",
                "EHAM 291125Z 24025G35KT 210V270 9999 FEW025 OVC033 11/06 Q1022 NOSIG",
                "EHAM 291055Z 24024G35KT 210V270 9999 FEW020 BKN032 11/06 Q1022 NOSIG",
                "EHAM 291025Z 23026G37KT 9999 FEW020 BKN036 11/06 Q1023 NOSIG",
                "EHAM 290955Z 23024G35KT 9999 FEW020 SCT028 BKN040 11/07 Q1023 NOSIG",
                "EHAM 290925Z 23024KT 9999 FEW020 BKN040 11/07 Q1023 NOSIG",
                "EHAM 290855Z 23020G30KT 9999 FEW018 BKN040 10/07 Q1023 NOSIG",
                "EHAM 290825Z 23022G32KT 200V260 9999 FEW018 BKN029 10/07 Q1023 NOSIG",
                "EHAM 290755Z 23020G30KT 200V260 9999 FEW018 BKN029 10/07 Q1023 NOSIG",
                "EHAM 290725Z 23021G31KT 9999 FEW014 BKN028 10/07 Q1024 NOSIG",
                "EHAM 290655Z 23018G28KT 200V260 9999 FEW014 BKN027 10/07 Q1024 NOSIG",
                "EHAM 290625Z 23024G34KT 9999 FEW014 BKN027 10/07 Q1024 NOSIG",
                "EHAM 290555Z 24019G30KT 210V270 9999 FEW014 BKN027 10/07 Q1024 NOSIG",
                "EHAM 290525Z 23020KT 200V260 9999 FEW016 BKN026 10/07 Q1024 NOSIG",
                "EHAM 290455Z 23020KT 200V260 9999 FEW015 BKN025 10/07 Q1024 NOSIG",
                "EHAM 290425Z 23024KT 9999 FEW016 OVC023 10/07 Q1024 NOSIG",
                "EHAM 290355Z 24022KT 200V270 9999 FEW008 OVC025 10/07 Q1025 NOSIG",
                "EHAM 290325Z 23022KT 200V260 9999 FEW009 OVC024 10/08 Q1025 NOSIG",
                "EHAM 290255Z 23021KT 200V260 9999 FEW012 OVC024 10/08 Q1025 NOSIG",
                "EHAM 290225Z 24019KT 210V270 9999 FEW012 BKN024 11/08 Q1026 NOSIG",
                "EHAM 290155Z 23019KT 210V270 9999 OVC017 11/08 Q1026 NOSIG",
                "EHAM 290125Z 24023KT 210V270 9999 FEW014 OVC017 11/08 Q1026 NOSIG",
                "EHAM 290055Z 24021KT 210V270 9999 FEW012 OVC017 11/08 Q1026 NOSIG",
                "EHAM 290025Z 24020KT 210V270 9999 FEW012 OVC017 11/08 Q1027 NOSIG",
                "EHAM 282355Z 24019KT 210V270 9999 FEW010 BKN017 11/08 Q1027 NOSIG",
                "EHAM 282325Z 24015KT 210V270 9999 SCT009 BKN015 11/09 Q1027 NOSIG",
                "EHAM 282255Z 25017KT 220V280 9999 BKN008 BKN013 11/09 Q1027 BECMG BKN012",
                "EHAM 282225Z 24019KT 210V270 9999 BKN008 BKN013 11/09 Q1028 BECMG BKN012",
                "EHAM 282155Z 24019KT 210V270 9999 SCT008 BKN015 10/09 Q1027 TEMPO BKN008",
                "EHAM 282125Z 23019KT 9999 SCT007 BKN017 10/09 Q1028 TEMPO BKN008",
                "EHAM 282055Z 23018KT 9999 BKN007 BKN018 10/09 Q1028 BECMG BKN012",
                "EHAM 282025Z 23019KT 9999 FEW007 SCT010 BKN022 11/09 Q1028 BECMG BKN012",
                "EHAM 281955Z 23019KT 200V260 9999 FEW009 SCT012 BKN028 11/09 Q1028 NOSIG",
                "EHAM 281925Z 24019KT 9999 FEW009 SCT012 11/09 Q1028 NOSIG",
                "EHAM 281855Z 23020KT 200V260 9999 FEW008 SCT034 11/09 Q1028 NOSIG",
                "EHAM 281755Z 24019KT 220V280 9999 FEW007 SCT010 11/09 Q1027 NOSIG",
                "EHAM 281725Z 23019KT 9999 FEW007 SCT012 10/09 Q1027 NOSIG",
                "EHAM 281655Z 23021KT 9999 FEW007 SCT012 10/09 Q1027 NOSIG",
                "EHAM 281625Z 23021KT 9999 FEW007 SCT009 10/09 Q1027 NOSIG",
                "EHAM 281555Z 23020KT 200V260 9999 FEW007 BKN009 10/08 Q1027 BECMG BKN012",
                "EHAM 281525Z 24018KT 9999 FEW006 BKN008 10/08 Q1027 BECMG BKN012",
                "EHAM 281455Z 24018KT 200V270 9999 BKN008 10/08 Q1028 BECMG BKN012",
                "EHAM 281425Z 24022KT 210V270 9999 -DZ BKN009 10/09 Q1027 BECMG BKN012",
                "EHAM 281355Z 24020G30KT 210V270 9999 BKN009 BKN045 11/09 Q1027 BECMG BKN012",
                "EHAM 281325Z 24020KT 210V270 9999 SCT009 SCT037 11/08 Q1027 NOSIG",
                "EHAM 281255Z 24021KT 9999 SCT010 SCT035 11/08 Q1028 NOSIG",
                "EHAM 281225Z 24018KT 210V270 9999 FEW010 SCT036 11/08 Q1028 NOSIG",
                "EHAM 281155Z 23018KT 200V260 9999 FEW010 SCT040 10/08 Q1028 NOSIG",
                "EHAM 281125Z 24017KT 9999 FEW010 SCT048 10/08 Q1028 NOSIG",
                "EHAM 280955Z 24013KT 210V270 9999 FEW008 10/08 Q1028 NOSIG",
                "EHAM 280925Z 25016KT 220V280 9999 FEW009 10/07 Q1028 NOSIG",
                "EHAM 280725Z 25012KT 9999 FEW005 SCT006 08/08 Q1027 NOSIG",
                "EHAM 280655Z 25011KT 210V270 9999 FEW004 SCT005 08/08 Q1027 TEMPO BKN006",
                "EHAM 280625Z 23008KT 200V260 9999 SCT009 08/07 Q1027 NOSIG",
                "EHAM 280355Z 26018KT 9999 SCT006 SCT022 BKN042 09/09 Q1025 NOSIG",
                "EHAM 280325Z 25017KT 9000 SCT004 BKN008 10/09 Q1025 BECMG FEW018",
                "EHAM 280255Z 25019KT 220V280 9999 FEW005 BKN006 09/09 Q1024 BECMG FEW018",
                "EHAM 280225Z 25019KT 220V280 9000 BKN004 OVC006 10/09 Q1024 BECMG FEW018",
                "EHAM 280155Z 25018KT 220V280 9000 BKN004 OVC006 09/09 Q1024 NOSIG",
                "EHAM 280125Z 24019KT 210V270 9999 BKN004 OVC006 09/09 Q1024 NOSIG",
                "EHAM 280055Z 24020G31KT 210V280 9999 OVC005 09/08 Q1024 NOSIG",
                "EHAM 280025Z 24020KT 210V270 9999 BKN004 OVC009 09/08 Q1024 NOSIG",
                "EHAM 272355Z 23017KT 9999 -DZ BKN004 OVC007 08/07 Q1024 TEMPO 6000",
                "EHAM 272325Z 23019KT 200V260 9999 BKN005 OVC009 08/07 Q1024 TEMPO 4000 BKN004",
                "EHAM 272255Z 23023KT 9999 BKN006 OVC010 08/07 Q1023 TEMPO 4000 BKN004",
                "EHAM 272225Z 22020KT 190V250 9999 BKN007 OVC009 07/06 Q1023 TEMPO 4000",
                "COR EHAM 272155Z 23019KT 200V270 8000 BKN007 07/06 Q1023 REDZ TEMPO 4000",
                "EHAM 272125Z 22019KT 5000 -DZ SCT007 BKN009 06/06 Q1024 TEMPO 3000 BKN004",
                "EHAM 272055Z 22020KT 4000 DZ SCT007 BKN009 06/05 Q1024 TEMPO 5000 BKN004",
                "EHAM 272025Z 21021KT 8000 -DZ SCT007 BKN009 06/05 Q1024 REDZ TEMPO 3500",
                "EHAM 271955Z 21020KT 3000 DZ SCT007 SCT009 BKN011 06/05 Q1024 BECMG 7000 BKN009",
                "EHAM 271925Z 21021KT 5000 -DZ FEW012 BKN016 06/04 Q1023 BECMG BKN012 TEMPO 3500",
                "COR EHAM 271855Z 20022KT 9999 -DZ FEW014 SCT017 BKN022 06/04 Q1024 BECMG 6000 BKN015",
                "EHAM 271825Z 20021KT 9000 -RA FEW012 BKN025 05/04 Q1024 BECMG 6000",
                "EHAM 271755Z 20020KT 170V230 9000 -RA FEW014 BKN026 05/04 Q1025 BECMG 7000 TEMPO BKN014",
                "EHAM 271725Z 20019KT 9000 -RA FEW014 BKN032 05/03 Q1025 BECMG 7000 TEMPO BKN014",
                "EHAM 271655Z 20018KT 9000 -RA FEW014 05/03 Q1025 BECMG 7000 TEMPO BKN014",
                "EHAM 271625Z 20017KT 9999 FEW014 SCT017 05/03 Q1026 TEMPO BKN014",
                "EHAM 271555Z 20018KT 9999 FEW014 SCT017 05/03 Q1026 TEMPO BKN014",
                "EHAM 271525Z 20018KT 9999 FEW014 06/03 Q1026 BECMG BKN014",
                "EHAM 271455Z 19014KT 9999 FEW016 06/03 Q1027 BECMG BKN014",
                "EHAM 271355Z 19017KT 9999 FEW018 SCT022 06/03 Q1027 NOSIG",
                "EHAM 271325Z 19015KT 160V220 9999 FEW019 07/03 Q1027 NOSIG",
                "EHAM 271155Z 21014KT 9999 FEW021 SCT025 06/03 Q1028 NOSIG",
                "EHAM 271125Z 20014KT 9999 FEW020 BKN026 06/03 Q1028 NOSIG",
                "EHAM 271055Z 18011KT 160V220 9999 OVC029 06/03 Q1029 NOSIG",
                "EHAM 270955Z 19012KT 9999 FEW027 BKN028 06/03 Q1029 NOSIG",
                "EHAM 270925Z 19012KT 9999 FEW027 BKN029 06/03 Q1029 NOSIG",
                "EHAM 270855Z 20011KT 9999 FEW027 BKN028 06/03 Q1028 NOSIG",
                "EHAM 270825Z 19009KT 160V220 9999 FEW023 BKN027 05/03 Q1029 NOSIG",
                "EHAM 270755Z 18007KT 9999 FEW025 BKN028 05/03 Q1029 NOSIG",
                "EHAM 270725Z 18007KT 9999 FEW025 BKN029 05/03 Q1028 NOSIG",
                "EHAM 270655Z 19007KT 9999 FEW021 BKN028 05/04 Q1028 NOSIG",
                "EHAM 270625Z 19007KT 9999 FEW021 BKN023 04/04 Q1028 NOSIG",
                "EHAM 270555Z 21006KT 9999 FEW020 BKN027 04/04 Q1028 NOSIG",
                "EHAM 270525Z 21007KT 9999 FEW010 BKN027 04/04 Q1028 NOSIG",
                "EHAM 270455Z 20007KT 9999 FEW012 SCT026 03/03 Q1028 NOSIG",
                "EHAM 270425Z 19007KT 9000 FEW016 SCT030 02/02 Q1027 TEMPO 6000 MIFG",
                "EHAM 270355Z 19005KT 9999 FEW025 01/01 Q1027 TEMPO 6000 MIFG",
                "EHAM 270255Z 19005KT 9999 FEW015 02/01 Q1027 BECMG 6000 MIFG",
                "EHAM 270225Z 22005KT 9999 SCT016 02/02 Q1027 BECMG 6000 MIFG",
                "EHAM 270155Z 22006KT 9999 BKN016 02/02 Q1027 BECMG 6000 SCT016",
                "EHAM 270125Z 21004KT 9999 FEW020 02/02 Q1026 BECMG 6000 MIFG",
                "EHAM 262355Z 28006KT 240V310 9999 FEW018 06/03 Q1026 BECMG 6000",
                "EHAM 262325Z 26007KT 9999 BKN017 06/04 Q1026 BECMG 6000 SCT015",
                "EHAM 262255Z 26006KT 9999 FEW009 BKN020 06/04 Q1026 BECMG 6000",
                "EHAM 262225Z 26004KT 9999 BKN021 05/04 Q1026 BECMG 6000",
                "EHAM 262155Z VRB01KT 9999 BKN022 05/04 Q1025 BECMG 6000",
                "EHAM 262125Z 29004KT 9999 BKN021 05/05 Q1025 BECMG 6000",
                "EHAM 262055Z 27005KT 9999 BKN020 06/05 Q1025 BECMG 6000",
                "EHAM 262025Z 27005KT 9999 FEW016 04/04 Q1024 BECMG 6000",
                "EHAM 261955Z 27003KT 240V310 9999 FEW010 05/05 Q1024 BECMG 6000",
                "EHAM 261925Z 26004KT 4500 BR FEW008 BKN028 06/05 Q1024 BECMG 6000",
                "EHAM 261855Z 26006KT 4000 BR FEW008 BKN026 06/06 Q1023 NOSIG",
                "EHAM 261825Z 21004KT 3500 BR FEW004 BKN008 OVC025 06/06 Q1022 NOSIG",
                "EHAM 261755Z 19006KT 3500 BR FEW003 BKN008 OVC025 06/06 Q1022 BECMG 3500",
                "EHAM 261725Z 19007KT 7000 FEW004 BKN008 OVC019 06/06 Q1022 BECMG 3500 BR TEMPO BKN004",
                "EHAM 261655Z 24003KT 210V270 7000 -RA BKN007 BKN016 07/06 Q1021 NOSIG",
                "EHAM 261625Z 27005KT 6000 -RA BKN007 BKN020 07/06 Q1021 BECMG 3500",
                "EHAM 261555Z 28005KT 8000 BKN007 BKN018 07/06 Q1020 BECMG 6000",
                "EHAM 261525Z 28006KT 8000 FEW007 SCT016 BKN027 07/06 Q1020 BECMG 6000 BKN007",
                "COR EHAM 261455Z 28006KT 250V320 9999 FEW009 SCT014 BKN045 07/06 Q1019 NOSIG",
                "EHAM 261425Z 27006KT 230V310 9999 BKN009 07/06 Q1019 BECMG SCT010",
                "EHAM 261355Z 23005KT 180V310 9999 BKN010 08/06 Q1019 BECMG SCT010",
                "EHAM 261325Z 23003KT 190V280 9999 SCT008 BKN043 08/06 Q1018 NOSIG",
                "EHAM 261255Z VRB02KT 9000 SCT008 BKN041 08/06 Q1018 BECMG 9999",
                "EHAM 261225Z 22005KT 190V260 6000 SCT005 BKN007 07/06 Q1018 BECMG 8000 SCT007",
                "EHAM 261155Z 21004KT 180V240 4200 BR SCT001 BKN002 06/06 Q1018 BECMG 3000 BKN004",
                "EHAM 261125Z 22004KT 180V250 1800 BCFG BR SCT002 BKN003 06/06 Q1017 BECMG 3500 BR BKN004",
                "EHAM 260725Z 16006KT 0350 R18C/0700N R27/0450N R18R/0400N R06/0600N FG BKN001 03/03 Q1015 NOSIG",
                "EHAM 260655Z 17008KT 0400 R18C/0600N R27/0650N R18R/0450N R06/0650N FG BKN001 04/04 Q1014 NOSIG",
                "EHAM 260625Z 17006KT 0700 R18C/0750D R27/0650D R18R/1200D R06/0500N FG BKN001 04/04 Q1014 NOSIG",
                "EHAM 260455Z 16007KT 4500 BR NSC 03/03 Q1013 TEMPO 2000",
                "EHAM 260425Z 18007KT 5000 BR NSC 03/03 Q1013 BECMG 3000",
                "EHAM 260355Z 17007KT 5000 BR FEW030 04/04 Q1012 BECMG 4000 BR",
                "EHAM 260325Z 17006KT 6000 FEW030 04/03 Q1012 BECMG 4000 BR",
                "EHAM 260255Z 17007KT 7000 NSC 04/03 Q1012 BECMG 4000 BR",
                "EHAM 260225Z 17006KT 7000 FEW044 04/03 Q1012 BECMG 4000 BR",
                "EHAM 251455Z 20011KT 180V240 9999 FEW015 09/06 Q1009 NOSIG",
                "EHAM 251355Z 21012KT 170V230 9999 FEW016 09/06 Q1009 NOSIG",
                "EHAM 251325Z 21011KT 180V240 9999 FEW017 09/07 Q1010 NOSIG",
                "EHAM 251225Z 20012KT 170V230 9999 FEW017 09/06 Q1010 NOSIG",
                "EHAM 251125Z 20012KT 170V230 9999 FEW018 09/07 Q1010 NOSIG",
                "EHAM 251025Z 20012KT 160V220 9999 FEW015 08/07 Q1010 NOSIG",
                "EHAM 250925Z 19011KT 9999 FEW010 BKN015 08/07 Q1010 TEMPO SCT015",
                "EHAM 250855Z 19010KT 9999 FEW013 SCT015 07/06 Q1010 NOSIG",
                "EHAM 250725Z 20012KT 9999 FEW012 SCT015 07/06 Q1010 TEMPO BKN015",
                "EHAM 250655Z 20012KT 9999 FEW012 BKN015 07/06 Q1010 TEMPO SCT015",
                "EHAM 250625Z 21013KT 9999 FEW012 BKN017 07/06 Q1010 TEMPO SCT017",
                "EHAM 250555Z 21012KT 9999 FEW012 BKN016 07/06 Q1009 TEMPO SCT016",
                "EHAM 250525Z 21011KT 9999 SCT014 BKN016 07/06 Q1009 TEMPO SCT016",
                "EHAM 250455Z 20013KT 9999 SCT014 BKN016 07/06 Q1009 TEMPO SCT016",
                "EHAM 250425Z 21012KT 9999 SCT014 BKN016 07/06 Q1009 TEMPO SCT016",
                "EHAM 250355Z 21013KT 9999 SCT014 SCT016 FEW020TCU 07/06 Q1009 NOSIG",
                "EHAM 250255Z 20012KT 9999 FEW018 07/05 Q1009 TEMPO 7000 -SHRA FEW020CB",
                "EHAM 250225Z 22014KT 9999 FEW015 07/05 Q1009 TEMPO 7000 -SHRA FEW020CB",
                "EHAM 242255Z 22012KT 190V250 9999 -RA FEW030 07/07 Q1008 NOSIG",
                "EHAM 242125Z 22012KT 9999 -RA FEW009 BKN048 07/06 Q1007 TEMPO 5000",
                "EHAM 242055Z 23013KT 8000 -RA SCT007 BKN048 07/07 Q1007 TEMPO 5000",
                "EHAM 242025Z 24011KT 210V270 4000 DZ FEW006 BKN040 08/07 Q1007 BECMG 9999",
                "EHAM 241955Z 25009KT 220V280 5000 DZ FEW008 BKN040 07/07 Q1007 BECMG 9999",
                "EHAM 241925Z 28009KT 250V330 4000 -DZRA FEW005 SCT015 BKN024 07/07 Q1007 TEMPO 7000",
                "EHAM 241855Z 30011KT 280V340 6000 RA FEW006 SCT012 BKN024 07/07 Q1006 TEMPO 4500",
                "EHAM 241725Z 20022KT 8000 -DZRA SCT016 BKN024 12/09 Q1005 TEMPO 4000",
                "EHAM 241655Z 20022KT 170V230 5000 -RA FEW012 SCT024 BKN030 11/10 Q1006 TEMPO 4000 DZ",
                "EHAM 241625Z 21025KT 7000 -RADZ BKN018 12/10 Q1006 TEMPO 8000",
                "EHAM 241555Z 20022KT 170V230 9999 SCT018 BKN035 12/10 Q1006 TEMPO 7000 -DZ",
                "EHAM 241525Z 20023KT 170V230 9999 -DZ BKN016 12/10 Q1006 TEMPO 7000",
                "EHAM 241455Z 21025KT 180V240 9999 -DZ BKN017 13/10 Q1006 NOSIG",
                "EHAM 241425Z 20024KT 170V230 9999 SCT017 SCT047 13/10 Q1006 NOSIG",
                "EHAM 241355Z 20027KT 9999 FEW018 SCT025 13/11 Q1007 TEMPO 7000 -DZ",
                "EHAM 241325Z 20026G40KT 9999 -DZ FEW015 BKN022 13/10 Q1007 TEMPO 7000",
                "EHAM 241255Z 20026G40KT 9999 FEW015 BKN025 14/10 Q1007 TEMPO 7000 -DZ",
                "EHAM 241225Z 20024KT 9999 FEW014 BKN020 13/11 Q1008 TEMPO 7000 -DZ",
                "EHAM 241155Z 20025G36KT 9999 FEW012 BKN018 13/11 Q1008 TEMPO 7000 -DZ",
                "EHAM 241125Z 20024KT 9999 FEW011 BKN017 13/11 Q1009 TEMPO 7000 -DZ",
                "EHAM 241055Z 20023KT 9999 -DZ FEW008 SCT011 BKN018 12/11 Q1009 TEMPO 6000 BKN014",
                "EHAM 241025Z 20021KT 9999 -DZ FEW008 SCT012 BKN020 12/11 Q1010 TEMPO 6000 BKN014",
                "EHAM 240955Z 20022KT 9999 4500N -DZ FEW011 OVC015 12/11 Q1010 NOSIG",
                "EHAM 240925Z 20020KT 9999 -DZ FEW011 BKN016 BKN032 12/11 Q1010 NOSIG",
                "EHAM 240855Z 20022KT 9999 -DZ FEW012 BKN017 BKN032 12/10 Q1011 NOSIG",
                "EHAM 240825Z 20021KT 9999 FEW013 BKN017 BKN035 12/10 Q1011 NOSIG",
                "EHAM 240755Z 20018KT 180V240 9999 FEW011 BKN017 BKN030 12/10 Q1011 NOSIG",
                "EHAM 240725Z 20020KT 9999 FEW011 BKN017 BKN030 12/10 Q1012 NOSIG",
                "EHAM 240655Z 20017KT 9999 FEW011 SCT017 BKN035 12/10 Q1012 TEMPO BKN010",
                "EHAM 240625Z 21017KT 9999 FEW011 SCT017 BKN035 12/10 Q1012 TEMPO BKN010",
                "EHAM 240555Z 21018KT 9999 FEW010 SCT017 BKN024 12/11 Q1013 TEMPO BKN010",
                "EHAM 240525Z 20014KT 6000 -DZ BKN007 BKN010 11/11 Q1013 TEMPO 9999",
                "EHAM 240455Z 21017G27KT 9999 SCT011 BKN017 12/10 Q1013 TEMPO BKN012",
                "EHAM 240425Z 21017KT 9999 SCT011 BKN017 11/10 Q1013 TEMPO BKN012",
                "EHAM 240355Z 21017KT 9999 FEW008 SCT017 11/10 Q1014 TEMPO BKN012",
                "EHAM 240325Z 22020KT 9999 SCT005 BKN007 11/10 Q1014 TEMPO 4000 -DZ",
                "EHAM 240255Z 22017KT 9999 SCT008 BKN011 10/09 Q1014 TEMPO SCT011",
                "EHAM 240225Z 22015KT 9999 FEW008 BKN011 10/09 Q1015 TEMPO SCT011",
                "EHAM 240155Z 22014KT 9999 FEW006 10/09 Q1015 TEMPO BKN010",
                "EHAM 240125Z 22014KT 9999 FEW006 10/09 Q1015 TEMPO BKN010",
                "EHAM 240055Z 23017KT 9999 FEW006 11/09 Q1015 TEMPO BKN010",
                "EHAM 240025Z 23022KT 200V260 9999 FEW006 SCT013 11/09 Q1015 BECMG BKN010",
                "EHAM 232355Z 23020KT 9999 FEW005 SCT008 BKN024 11/10 Q1015 BECMG BKN010",
                "EHAM 232325Z 23018KT 9999 FEW005 SCT008 BKN010 11/10 Q1014 TEMPO 3000 BKN008",
                "EHAM 232255Z 22018KT 9999 -DZ SCT008 BKN010 11/10 Q1014 TEMPO 3000 BKN008",
                "EHAM 232225Z 22019KT 9000 FEW005 BKN007 BKN009 11/10 Q1014 TEMPO 3000",
                "EHAM 232155Z 22017KT 5000 -DZ FEW005 BKN007 BKN009 10/10 Q1014 TEMPO 3000",
                "EHAM 232125Z 22018KT 190V250 3000 -DZ FEW005 BKN006 BKN007 10/10 Q1014 TEMPO 6000",
                "EHAM 232055Z 22018KT 190V250 5000 -DZ FEW005 BKN006 OVC007 10/10 Q1014 TEMPO 3500",
                "EHAM 232025Z 21020KT 3000 -DZ FEW005 BKN006 OVC007 10/09 Q1014 TEMPO 6000",
                "EHAM 231955Z 21020KT 4500 -DZ FEW005 BKN006 OVC007 10/09 Q1014 TEMPO 6000",
                "EHAM 231925Z 21021KT 180V240 5000 -DZ FEW005 BKN006 OVC007 10/09 Q1014 TEMPO 3500",
                "EHAM 231855Z 21017KT 4000 -DZ FEW005 BKN006 BKN007 10/09 Q1014 NOSIG",
                "EHAM 231825Z 20018KT 3600 -DZ FEW005 SCT006 BKN007 09/09 Q1015 NOSIG",
                "EHAM 231755Z 20016KT 2700 -DZ FEW004 SCT005 BKN006 09/09 Q1015 BECMG 4000",
                "EHAM 231725Z 20018KT 2500 -DZ FEW005 BKN006 BKN007 09/09 Q1015 BECMG 6000",
                "EHAM 231655Z 20018KT 170V230 2600 -DZ FEW005 BKN006 OVC007 09/08 Q1015 BECMG 6000",
                "EHAM 231625Z 20016KT 8000 SCT006 OVC007 09/08 Q1015 TEMPO 4500",
                "EHAM 231555Z 20017KT 9999 SCT006 BKN007 OVC008 09/08 Q1015 TEMPO 4500",
                "EHAM 231525Z 20018KT 9999 SCT006 BKN007 OVC008 09/08 Q1015 TEMPO 4500",
                "EHAM 231455Z 19018KT 7000 -DZ FEW007 BKN009 OVC012 08/07 Q1015 BECMG 9999",
                "EHAM 231425Z 20018KT 7000 -DZ FEW008 BKN012 OVC015 08/07 Q1016 BECMG BKN008 TEMPO 4500",
                "EHAM 231355Z 19015KT 9999 FEW012 BKN015 OVC023 08/07 Q1016 BECMG BKN012",
                "EHAM 231325Z 19018KT 160V220 7000 -RA FEW015 BKN017 OVC023 08/07 Q1016 BECMG 5000 BKN012",
                "EHAM 231255Z 20016KT 9999 FEW012 SCT020 BKN026 09/07 Q1017 BECMG 5000 BKN015",
                "EHAM 231225Z 20017KT 9999 -RA FEW015 BKN032 09/06 Q1017 TEMPO 7000",
                "EHAM 231155Z 20016KT 170V230 9999 FEW015 SCT036 BKN045 09/06 Q1018 NOSIG",
                "EHAM 231125Z 19017KT 9999 FEW012 SCT027 BKN045 09/06 Q1018 NOSIG",
                "EHAM 231055Z 20016KT 9999 FEW013 BKN028 08/06 Q1018 NOSIG",
                "EHAM 231025Z 19013KT 9999 FEW025 BKN030 08/06 Q1019 NOSIG",
                "EHAM 230855Z 18009KT 160V220 9999 OVC032 07/04 Q1019 NOSIG",
                "EHAM 221955Z 26010KT 9999 SCT025 BKN038 07/05 Q1014 NOSIG",
                "EHAM 221925Z 28011KT 9999 FEW025 BKN035 07/05 Q1014 NOSIG",
                "EHAM 221825Z 29013KT 260V320 9999 FEW013 07/05 Q1013 NOSIG",
                "EHAM 221725Z 29012KT 260V320 9999 FEW013 07/05 Q1012 NOSIG",
                "EHAM 221655Z 29012KT 250V320 9999 FEW013 07/05 Q1012 NOSIG",
                "EHAM 221625Z 29013KT 260V320 9999 FEW013 07/05 Q1011 NOSIG",
                "EHAM 221555Z 29011KT 260V330 9999 FEW013 07/05 Q1011 NOSIG",
                "EHAM 221525Z 29012KT 260V330 9999 FEW012 07/05 Q1010 NOSIG",
                "EHAM 221355Z 29012KT 260V320 9999 FEW014 08/05 Q1008 NOSIG",
                "EHAM 221255Z 29012KT 260V320 9999 FEW014 08/06 Q1007 NOSIG",
                "EHAM 221155Z 29013KT 260V330 9999 FEW014 08/06 Q1007 NOSIG",
                "EHAM 221125Z 29011KT 260V320 9999 FEW032 08/06 Q1007 NOSIG",
                "EHAM 221055Z 28010KT 250V330 9999 FEW032 08/06 Q1007 NOSIG",
                "EHAM 221025Z 28009KT 250V310 9999 FEW030 08/06 Q1006 NOSIG",
                "EHAM 220955Z 29010KT 250V320 9999 FEW030 08/05 Q1006 NOSIG",
                "EHAM 220925Z 29010KT 250V330 9999 FEW030 BKN040 07/06 Q1006 NOSIG",
                "EHAM 220855Z 28010KT 250V310 9999 FEW030 BKN046 07/06 Q1005 NOSIG",
                "EHAM 220825Z 29009KT 250V330 9999 FEW016 BKN044 07/05 Q1005 NOSIG",
                "EHAM 220755Z 28011KT 9999 FEW024 BKN046 07/05 Q1005 NOSIG",
                "EHAM 220725Z 28010KT 9999 SCT013 BKN023 07/05 Q1004 NOSIG",
                "EHAM 220655Z 29012KT 9999 FEW010 SCT012 BKN023 07/06 Q1004 NOSIG",
                "EHAM 220625Z 27010KT 9999 FEW009 SCT013 BKN021 06/06 Q1004 NOSIG",
                "EHAM 220555Z 27011KT 8000 -DZ FEW006 SCT012 BKN037 06/06 Q1004 NOSIG",
                "EHAM 220455Z 19008KT 2700 BR SCT002 OVC003 04/04 Q1003 BECMG 27010KT 9999 NSW SCT015",
                "EHAM 220425Z 18007KT 3200 BR FEW002 OVC003 03/03 Q1003 BECMG 27010KT 7000 NSW BKN012",
                "EHAM 220355Z 17008KT 140V200 3500 -DZ BR FEW003 OVC004 03/03 Q1004 TEMPO 2500 BKN003",
                "EHAM 220325Z 18009KT 3700 -DZ BR FEW003 OVC004 03/02 Q1004 TEMPO 2500 BKN003",
                "EHAM 220255Z 18010KT 150V210 4000 -DZ BR FEW003 OVC004 03/02 Q1004 TEMPO 2500 BKN003",
                "EHAM 220225Z 17011KT 3700 -DZ BR FEW003 OVC004 03/02 Q1004 TEMPO 2500 BKN003",
                "EHAM 220155Z 17009KT 140V200 3700 -DZ BR SCT004 BKN005 OVC006 03/02 Q1005 TEMPO BKN004",
                "EHAM 220125Z 15014KT 6000 -DZ FEW004 BKN006 OVC008 03/02 Q1005 TEMPO 4000 BKN004",
                "EHAM 220055Z 15013KT 3200 -DZ BR FEW004 BKN006 OVC012 02/02 Q1006 TEMPO BKN004",
                "EHAM 220025Z 15013KT 4000 -DZ FEW005 BKN007 OVC009 02/02 Q1006 TEMPO BKN004",
                "EHAM 212355Z 14013KT 110V180 5000 -DZ FEW005 BKN007 OVC011 02/02 Q1006 TEMPO 4000",
                "EHAM 212325Z 14014KT 4500 -RADZ BKN007 BKN011 OVC015 02/02 Q1007 NOSIG",
                "EHAM 212255Z 13012KT 3800 -RADZ BKN007 OVC011 02/02 Q1008 NOSIG",
                "EHAM 212225Z 14013KT 110V170 6000 -RADZ SCT009 BKN017 OVC022 03/01 Q1008 BECMG BKN012",
                "EHAM 212155Z 15015KT 8000 -RADZ SCT009 BKN017 03/01 Q1009 BECMG 7000 BKN012",
                "EHAM 212125Z 17014KT 9999 -RADZ FEW009 BKN026 03/02 Q1010 BECMG 7000 BKN012",
                "EHAM 212055Z 16014KT 8000 -DZRA SCT009 SCT014 BKN021 03/02 Q1010 BECMG 7000 BKN008",
                "EHAM 212025Z 16011KT 8000 -DZRA FEW009 SCT014 BKN018 03/02 Q1011 BECMG 7000 BKN008",
                "EHAM 211955Z 16011KT 9999 -DZ FEW016 04/02 Q1011 BECMG 7000 BKN015",
                "EHAM 211925Z 15011KT 9999 FEW025 04/02 Q1012 BECMG 7000 -RA",
                "EHAM 211455Z 23005KT 200V260 9999 FEW023 SCT043 05/02 Q1014 NOSIG",
                "EHAM 211425Z 24008KT 210V270 9999 VCSH FEW023TCU SCT040 06/02 Q1015 BECMG CAVOK",
                "EHAM 211355Z 25005KT 220V280 9999 FEW023TCU 06/01 Q1015 NOSIG",
                "EHAM 211325Z 25006KT 210V280 9999 FEW025 06/01 Q1015 NOSIG",
                "EHAM 211225Z 22008KT 190V250 9999 FEW025 07/02 Q1015 NOSIG",
                "EHAM 211155Z 25004KT 200V300 9999 FEW025 07/02 Q1015 NOSIG",
                "EHAM 211125Z 27004KT 230V340 9999 FEW025 07/02 Q1015 NOSIG",
                "EHAM 210925Z 29004KT 270V010 9999 FEW025 03/01 Q1014 NOSIG",
                "EHAM 210855Z 28005KT 270V360 9999 FEW025 03/00 Q1014 NOSIG",
                "EHAM 210755Z 28003KT 9999 VCSH FEW020CB 01/M01 Q1013 NOSIG",
                "EHAM 210655Z 30007KT 9999 VCSH FEW020CB 01/M01 Q1012 NOSIG",
                "EHAM 210255Z 32010KT 9999 VCSH FEW022 02/M00 Q1009 NOSIG",
                "EHAM 210155Z 31009KT 290V010 9999 -SHRAGS FEW020 SCT045 02/M00 Q1008 NOSIG",
                "EHAM 210125Z 33011KT 9999 VCSH FEW025 03/M00 Q1007 NOSIG",
                "EHAM 202255Z VRB02KT 9999 VCSH FEW020CB 03/01 Q1004 NOSIG",
                "EHAM 202225Z 31005KT 290V360 9999 FEW017 FEW020CB 03/02 Q1004 TEMPO 6000 SHGSRA",
                "EHAM 202155Z 24004KT 200V270 9999 FEW017 FEW020CB 03/02 Q1003 TEMPO 6000 SHGSRA",
                "EHAM 202125Z 26005KT 9999 FEW017 FEW020CB 03/02 Q1003 TEMPO 6000 SHRA",
                "EHAM 202055Z 28006KT 250V320 8000 -SHRA FEW017 FEW020CB 03/02 Q1002 TEMPO 6000 SHRA",
                "COR EHAM 202025Z 28005KT 9999 FEW025 03/02 Q1002 TEMPO 6000 SHRA SCT012 SCT020CB",
                "EHAM 201955Z 27005KT 9999 -RADZ FEW025 03/02 Q1002 NOSIG",
                "EHAM 201925Z 28003KT 9999 -RADZ FEW012 SCT020 BKN040 02/02 Q1001 TEMPO 7000 RA BKN015",
                "EHAM 201855Z 30009KT 8000 -RADZ FEW006 SCT015 BKN029 03/02 Q1001 TEMPO 8000 BKN013",
                "EHAM 201825Z VRB02KT 5000 -RADZ FEW006 BKN009 BKN018 03/02 Q1000 TEMPO BKN014",
                "EHAM 201755Z 00000KT 7000 -RADZ FEW006 BKN012 03/02 Q1000 TEMPO RA BKN008",
                "EHAM 201725Z 16003KT 8000 -RADZ FEW009 SCT013 BKN024 03/02 Q1000 TEMPO -SHRA BKN012 FEW020TCU",
                "EHAM 201655Z 15005KT 9000 -DZ FEW012 SCT016 03/02 Q1000 TEMPO 7000",
                "EHAM 201625Z 14004KT 9000 -RA SCT014 SCT018 03/02 Q1000 TEMPO 7000 BKN012",
                "EHAM 201555Z 16005KT 9000 FEW009 SCT014 03/02 Q0999 TEMPO BKN012",
                "EHAM 201525Z 17006KT 9000 FEW007 SCT014 03/02 Q0999 TEMPO BKN012",
                "EHAM 201455Z 17006KT 9999 FEW008 SCT012 04/02 Q0999 TEMPO BKN012",
                "EHAM 201425Z 17008KT 9000 FEW006 SCT009 04/03 Q0999 TEMPO BKN012",
                "EHAM 201355Z 16008KT 9000 FEW006 BKN007 03/02 Q0999 TEMPO BKN012",
                "EHAM 201325Z 16006KT 8000 FEW007 SCT012 03/02 Q1000 NOSIG",
                "EHAM 201255Z 18007KT 8000 FEW006 BKN007 BKN009 03/02 Q1000 NOSIG",
                "EHAM 201225Z 17007KT 8000 FEW005 BKN006 OVC007 03/02 Q1000 NOSIG",
                "EHAM 201155Z 17008KT 9000 FEW006 BKN007 OVC008 02/02 Q1001 NOSIG",
                "EHAM 201125Z 18007KT 9000 SCT006 BKN007 OVC022 02/02 Q1002 NOSIG",
                "EHAM 201055Z 17007KT 140V200 9999 FEW005 OVC006 02/01 Q1003 NOSIG",
                "EHAM 200955Z 17009KT 9999 FEW007 01/01 Q1003 BECMG BKN007",
                "EHAM 200925Z 17008KT 9999 FEW007 01/01 Q1003 BECMG BKN007",
                "EHAM 200855Z 18007KT 9999 FEW007 01/01 Q1003 TEMPO 7000 BKN005",
                "EHAM 200825Z 19009KT 9999 FEW018 SCT045 01/01 Q1003 NOSIG",
                "EHAM 200455Z 19008KT 9999 FEW023 01/M00 Q1005 R18R/CLRD// NOSIG",
                "EHAM 200425Z 19006KT 9999 FEW023 01/M00 Q1005 R18R/1///95 NOSIG",
                "EHAM 200355Z 21008KT 9999 FEW025 01/M01 Q1005 R18R/1///95 NOSIG",
                "EHAM 200325Z 23008KT 9999 FEW025 02/00 Q1005 R18R/1///95 NOSIG",
                "EHAM 200255Z 22007KT 9999 FEW025 02/M00 Q1006 R18R/1///95 NOSIG",
                "EHAM 200225Z 24008KT 9999 FEW028 02/M00 Q1006 R18R/1///95 NOSIG",
                "EHAM 200155Z 24010KT 9999 FEW025 03/00 Q1006 R18R/1///95 NOSIG",
                "EHAM 200125Z 25009KT 9999 -SHRA FEW025TCU 03/00 Q1006 R18R/1///95 NOSIG",
                "EHAM 200055Z 25009KT 9999 VCSH FEW028 03/00 Q1006 R18R/1///95 NOSIG",
                "EHAM 200025Z 22006KT 200V260 9999 FEW028 02/00 Q1006 R18R/1///95 NOSIG",
                "EHAM 192355Z 21008KT 9999 FEW028 01/00 Q1007 R18R/1///95 NOSIG",
                "EHAM 192325Z 18007KT 9999 SCT028 02/00 Q1007 R18R/1///95 NOSIG",
                "EHAM 192255Z 16006KT 9999 FEW020CB 02/00 Q1007 RESHGS R18R/1///95 NOSIG",
                "EHAM 192155Z 26008KT 9999 -SHRA FEW013 FEW023CB 03/M00 Q1007 TEMPO 7000 -SHRAGS",
                "EHAM 192125Z 26015KT 220V300 9999 -SHRA FEW023CB SCT030 03/M00 Q1007 TEMPO 7000 -SHRAGS",
                "EHAM 192055Z 24008KT 9999 FEW030 03/00 Q1007 TEMPO 7000 -SHRAGS FEW020CB",
                "EHAM 192025Z 30003KT 230V010 9999 VCSH FEW030 03/00 Q1006 TEMPO 7000 -SHRAGS",
                "EHAM 191955Z VRB02KT 9999 FEW020CB SCT028 02/M00 Q1007 TEMPO 26015G25KT 7000 -SHRAGS",
                "EHAM 191855Z 24012KT 210V270 9999 SHGSRA SCT020CB 03/00 Q1007 RESHGSRA TEMPO 26015G25KT 7000",
                "EHAM 191825Z 24009KT 9999 VCSH FEW023CB 04/01 Q1007 TEMPO 26015G25KT 7000 -SHRAGS",
                "EHAM 191525Z 25014KT 9999 VCSH FEW023TCU 05/01 Q1007 NOSIG",
                "EHAM 191455Z 25012KT 9999 VCSH FEW023CB FEW025TCU 05/02 Q1007 NOSIG",
                "EHAM 191425Z 25015KT 9999 VCSH FEW020CB FEW022TCU 06/01 Q1007 NOSIG",
                "EHAM 191355Z 25016KT 220V280 9999 VCSH FEW020TCU SCT022 06/01 Q1007 NOSIG",
                "EHAM 191325Z 25014KT 220V280 9999 FEW020TCU SCT022 06/02 Q1007 NOSIG",
                "EHAM 191255Z 25012KT 220V280 9999 FEW020TCU 06/02 Q1007 NOSIG",
                "EHAM 191155Z 25014KT 9999 FEW020TCU SCT022 05/02 Q1007 NOSIG",
                "EHAM 191125Z 26013KT 230V290 9999 FEW020TCU 06/02 Q1007 NOSIG",
                "EHAM 191055Z 26012KT 230V290 9999 FEW020TCU 06/02 Q1007 NOSIG",
                "EHAM 190955Z 26012KT 9999 FEW020 BKN040 05/02 Q1007 NOSIG",
                "EHAM 190925Z 26011KT 230V290 9999 FEW019 05/02 Q1006 NOSIG",
                "EHAM 190825Z 27010KT 9999 VCSH FEW018CB SCT022 04/02 Q1006 NOSIG",
                "EHAM 190755Z 27011KT 9999 -SHRA FEW018CB SCT038 04/01 Q1005 NOSIG",
                "COR EHAM 190725Z 26009KT 9999 -SHRA FEW018CB BKN038 04/01 Q1005 NOSIG",
                "EHAM 190655Z 27011KT 240V300 9999 FEW018 BKN038 04/01 Q1005 NOSIG",
                "EHAM 190625Z 26014KT 9999 FEW018 BKN042 04/02 Q1004 NOSIG",
                "EHAM 190555Z 26012KT 9999 FEW020 SCT036 04/02 Q1004 NOSIG",
                "EHAM 190525Z 27011KT 9999 FEW015 SCT038 04/02 Q1004 NOSIG",
                "EHAM 190455Z 28009KT 250V310 9999 FEW015 SCT020 03/02 Q1004 NOSIG",
                "EHAM 190425Z 26012KT 9999 FEW015 SCT038CB 04/02 Q1003 NOSIG",
                "EHAM 190355Z 28010KT 250V310 9999 FEW015 FEW020CB BKN045 03/02 Q1003 NOSIG",
                "EHAM 190325Z 29007KT 9999 -SHRA FEW015 FEW020CB BKN040 03/02 Q1003 NOSIG",
                "COR EHAM 190255Z 28014KT 250V320 9999 -SHRA FEW015 FEW020CB BKN030 04/02 Q1003 NOSIG",
                "EHAM 190225Z 29011KT 9999 -SHRA FEW015 FEW020CB SCT030 04/02 Q1003 TEMPO 7000 SHRAGS",
                "EHAM 190155Z 28008KT 9999 FEW015 FEW020CB 03/02 Q1002 TEMPO 7000 SHRAGS",
                "EHAM 190125Z 27008KT 9999 FEW015 FEW018CB 03/02 Q1002 TEMPO 7000 SHRAGS",
                "EHAM 190055Z 24006KT 210V290 8000 -SHRA FEW015 FEW018CB SCT020 04/03 Q1002 TEMPO 7000 SHRAGS",
                "EHAM 190025Z 21008KT 9999 -SHRA FEW015 FEW018CB SCT040 02/01 Q1002 TEMPO 7000 SHRAGS",
                "EHAM 182355Z 23006KT 9999 FEW015 SCT038 03/02 Q1001 TEMPO 7000 SHRAGS",
                "EHAM 182325Z 19007KT 9999 -SHRA FEW012 FEW018TCU SCT032 02/01 Q1001 TEMPO 7000 SHRAGS",
                "EHAM 182255Z 20003KT 9999 FEW017 SCT025 03/02 Q1001 NOSIG",
                "EHAM 182225Z 30006KT 270V330 9999 -RA FEW008 BKN030 03/02 Q1001 NOSIG",
                "EHAM 182125Z 28003KT 9999 FEW020CB SCT022 03/02 Q1001 TEMPO 28015G25KT 6000 SHRAGS",
                "EHAM 182055Z 27008KT 9999 -SHRA FEW020CB SCT022 04/02 Q1001 TEMPO 28015G25KT 6000 SHRAGS",
                "EHAM 181955Z 25006KT 9999 FEW020CB SCT022 03/01 Q1000 TEMPO 28015G25KT 6000 SHRAGS",
                "EHAM 181925Z 24005KT 9999 FEW020CB 02/01 Q1000 TEMPO 28015G25KT 6000 SHRAGS",
                "EHAM 181855Z 27003KT 9999 FEW020CB 02/00 Q1000 TEMPO 28015G25KT 6000 SHRAGS",
                "EHAM 181825Z 28005KT 250V310 9999 FEW025 02/00 Q1000 NOSIG",
                "EHAM 181655Z 27011KT 9999 FEW020 SCT030 05/01 Q1000 NOSIG",
                "EHAM 181555Z 27014KT 9999 FEW020 SCT035 05/02 Q1000 NOSIG",
                "EHAM 181525Z 28015KT 250V310 9999 FEW020 SCT035 05/02 Q1000 NOSIG",
                "EHAM 181455Z 28015KT 9999 VCSH FEW012 FEW020TCU SCT035 05/03 Q0999 NOSIG",
                "EHAM 181425Z 27016KT 9999 VCSH FEW012 FEW018CB SCT035 05/03 Q0999 NOSIG",
                "EHAM 181355Z 29015KT 260V320 9999 -SHRA FEW012 FEW018CB SCT025 04/03 Q0999 TEMPO 6000",
                "EHAM 181325Z 30016G27KT 260V340 9999 VCSH FEW012 FEW018CB SCT025 05/03 Q0998 TEMPO 5000 -SHRA",
                "COR EHAM 181225Z 29022KT 9999 -SHRA FEW015 FEW020CB 06/03 Q0997 TEMPO 5000",
                "EHAM 181155Z 29025G36KT 260V330 9999 VCSH FEW015 FEW020CB 06/03 Q0996 TEMPO 7000 -SHRA",
                "EHAM 181125Z 29026G39KT 9999 -SHRA FEW013 FEW018CB SCT035 06/02 Q0995 TEMPO 7000",
                "EHAM 181055Z 30031G44KT 270V330 9999 FEW018 SCT025 06/02 Q0993 BECMG 29026G39KT",
                "EHAM 181025Z 30040G53KT 270V330 9999 FEW018 SCT022 BKN038 06/02 Q0991 BECMG 30030G43KT",
                "EHAM 180955Z 29041G54KT 270V330 8000 FEW015 BKN022 05/02 Q0988 BECMG 30037G50KT",
                "EHAM 180925Z 28049G65KT 6000 -RA SCT013 BKN018 05/02 Q0984 NOSIG",
                "EHAM 180855Z 26049G62KT 7000 FEW013 BKN018 06/03 Q0983 NOSIG",
                "EHAM 180825Z 25045G59KT 220V280 9000 FEW025 SCT038 07/02 Q0983 NOSIG",
                "EHAM 180755Z 25037G51KT 220V280 9999 -RA FEW022 SCT047 09/03 Q0983 NOSIG",
                "EHAM 180725Z 24031G47KT 210V270 9999 FEW015 SCT047 10/05 Q0983 BECMG 25037G53KT",
                "EHAM 180655Z 23035G47KT 200V260 9999 FEW015 SCT047 10/07 Q0983 NOSIG",
                "EHAM 180555Z 23030G41KT 9999 FEW013 SCT022 09/07 Q0984 BECMG 24033G48KT",
                "EHAM 180455Z 19021KT 7000 -RA FEW005 BKN008 BKN015 05/04 Q0986 BECMG 9999 NSW BKN012",
                "EHAM 180425Z 17020KT 140V200 4500 -RA FEW005 BKN007 BKN012 04/03 Q0989 NOSIG",
                "EHAM 180355Z 17023G37KT 140V200 6000 -RA FEW006 SCT008 BKN012 03/02 Q0991 BECMG 4000 BKN008",
                "EHAM 180325Z 18019KT 140V210 5000 -RA FEW006 SCT008 BKN012 03/02 Q0993 BECMG 4000 BKN008",
                "EHAM 180255Z 19019KT 6000 -RA FEW006 SCT008 BKN012 03/02 Q0995 BECMG 4000 BKN008",
                "EHAM 180225Z 19016KT 9000 -RA FEW010 BKN015 BKN022 04/03 Q0997 BECMG 4000 SCT008 BKN012",
                "EHAM 180155Z 20014KT 9999 -RA FEW012 SCT020 BKN028 04/03 Q0998 BECMG 7000 BKN016",
                "EHAM 180125Z 22016KT 9999 -RA FEW015 SCT020 BKN040 04/02 Q0999 BECMG 7000",
                "EHAM 180055Z 23021KT 200V260 9999 -RA FEW012 SCT018 BKN040 05/02 Q1000 NOSIG",
                "EHAM 180025Z 22011KT 9999 -RA FEW025 SCT042 05/03 Q1001 NOSIG",
                "EHAM 172325Z 24013KT 9999 FEW025 SCT030 06/02 Q1003 NOSIG",
                "EHAM 172255Z 24012KT 200V270 9999 FEW025 SCT038 06/01 Q1003 NOSIG",
                "EHAM 172225Z 24015KT 220V280 9999 FEW027 06/01 Q1004 NOSIG",
                "EHAM 172055Z 25017KT 220V280 9999 SCT030 06/01 Q1004 NOSIG",
                "EHAM 171955Z 26017KT 9999 FEW028 BKN045 06/01 Q1004 NOSIG",
                "EHAM 171925Z 26016KT 9999 FEW032 BKN045 06/01 Q1004 NOSIG",
                "EHAM 171855Z 26016KT 9999 FEW032 BKN045 06/01 Q1004 NOSIG",
                "EHAM 171825Z 26018KT 9999 FEW032 SCT045 06/01 Q1004 NOSIG",
                "EHAM 171755Z 27018KT 9999 FEW030 SCT040 06/01 Q1004 NOSIG",
                "EHAM 171725Z 27020KT 9999 FEW028 SCT035 06/01 Q1004 NOSIG",
                "EHAM 171525Z 28022G34KT 250V310 9999 FEW030 SCT042 06/01 Q1003 NOSIG",
                "EHAM 171455Z 28023G34KT 240V320 9999 SCT030 06/01 Q1002 NOSIG",
                "EHAM 171425Z 28022G32KT 250V310 9999 SCT030 06/01 Q1001 NOSIG",
                "COR EHAM 171355Z 29022G32KT 250V320 9999 VCSH FEW026CB SCT048 06/01 Q1001 NOSIG",
                "EHAM 171325Z 28024G38KT 250V320 9999 VCSH FEW025CB SCT048 06/01 Q1000 NOSIG",
                "EHAM 171255Z 28025G38KT 250V310 9999 VCSH FEW024CB SCT048 05/01 Q1000 NOSIG",
                "EHAM 171225Z 28028KT 250V310 9999 FEW023CB SCT046 06/01 Q0999 NOSIG",
                "EHAM 171155Z 28029G39KT 240V310 9999 VCSH FEW020CB 06/02 Q0998 TEMPO 7000",
                "EHAM 171125Z 28022G32KT 9999 -SHRAGS SCT020CB 05/01 Q0998 TEMPO 7000",
                "EHAM 171055Z 27024G37KT 9999 VCSH FEW020CB SCT023 05/02 Q0998 TEMPO 7000 -SHRAGS",
                "EHAM 171025Z 27025G37KT 230V300 9999 VCSH FEW020CB SCT023 05/01 Q0997 TEMPO 7000 -SHRAGS",
                "EHAM 170955Z 27025KT 9999 FEW020CB SCT023 05/01 Q0997 TEMPO 7000 -SHRAGS",
                "EHAM 170925Z 28021KT 9999 FEW020CB SCT023 04/01 Q0997 TEMPO 7000 -SHGSRA",
                "EHAM 170855Z 27021KT 9999 FEW025CB 04/00 Q0996 RESHGS TEMPO 7000 -SHGSRA",
                "EHAM 170755Z 28020KT 9999 -SHGSRA SCT025CB 04/M00 Q0995 TEMPO 7000",
                "EHAM 170725Z 27020KT 9999 -SHGSRA SCT025CB 03/M00 Q0995 TEMPO 7000",
                "EHAM 170655Z 28017G27KT 250V310 9999 FEW020CB 03/M01 Q0994 TEMPO 7000 -SHRAGS",
                "EHAM 170625Z 27019G29KT 240V300 9999 VCSH FEW020CB SCT045 03/M01 Q0994 NOSIG",
                "EHAM 170555Z 28020KT 240V310 9999 VCSH FEW020CB 03/M00 Q0993 TEMPO 7000",
                "EHAM 170525Z 28022KT 9999 FEW024 SCT040 03/M01 Q0993 TEMPO 7000 -SHRA FEW020CB",
                "EHAM 170455Z 28022KT 9000 -SHRA FEW020CB SCT030 03/M01 Q0992 TEMPO 7000",
                "EHAM 170425Z 27023KT 9999 -SHRA FEW020CB SCT028 04/M01 Q0992 TEMPO 7000",
                "EHAM 170355Z 27021KT 9999 FEW020CB SCT030 03/M01 Q0991 TEMPO 7000 -SHRA",
                "EHAM 170325Z 27020KT 9999 FEW022TCU SCT027 03/M00 Q0991 NOSIG",
                "EHAM 170025Z 27018KT 9999 FEW025 SCT040CB 04/00 Q0990 NOSIG",
                "EHAM 162355Z 27017KT 9999 FEW025 04/00 Q0990 TEMPO 7000 -SHRA FEW020CB",
                "EHAM 162325Z 24011KT 210V270 9999 FEW025 03/01 Q0990 RETSRA TEMPO 7000 -SHRA FEW020CB",
                "EHAM 162255Z 27022KT 240V300 8000 TSRAGS FEW015 SCT020CB BKN035 04/00 Q0990 TEMPO 6000",
                "EHAM 162125Z 27017KT 9999 FEW020 SCT045 04/01 Q0990 TEMPO 6000 SHRAGS SCT025CB",
                "COR EHAM 162055Z 26012KT 230V290 9999 -RAGS RETS FEW026 SCT028CB 05/00 Q0991 TEMPO 6000",
                "EHAM 162025Z 27014KT 9999 FEW034 05/M00 Q0991 TEMPO 6000 SHRAGS SCT024CB",
                "EHAM 161925Z 25012KT 9999 -SHRAGS FEW034 SCT040TCU 06/00 Q0991 NOSIG",
                "EHAM 161855Z 25012KT 220V280 9999 FEW032 05/00 Q0991 NOSIG",
                "EHAM 161655Z 25015KT 9999 -SHRA FEW015 SCT022CB 06/00 Q0992 TEMPO 6000 SHRAGS",
                "EHAM 161625Z 27015KT 9999 VCSH FEW032 05/M00 Q0992 TEMPO 6000 SHRAGS SCT025CB",
                "EHAM 161555Z 26016KT 9999 -SHRA FEW022 SCT026TCU 06/00 Q0992 TEMPO 6000 SHRAGS",
                "EHAM 161525Z 27019KT 9999 FEW030 05/00 Q0992 TEMPO 6000 SHRAGS SCT025CB",
                "COR EHAM 161455Z 26021KT 9999 SCT029 06/00 Q0992 TEMPO 6000 SHRAGS SCT025CB",
                "EHAM 161325Z 27019KT 9999 VCSH FEW020CB 06/02 Q0992 NOSIG",
                "EHAM 161255Z 27023KT 240V300 9999 FEW020CB SCT025 06/01 Q0992 NOSIG",
                "EHAM 161225Z 27023KT 9999 FEW020CB SCT025 06/02 Q0991 NOSIG",
                "EHAM 161155Z 28023KT 250V310 9999 FEW020CB SCT025 06/01 Q0991 NOSIG",
                "EHAM 161125Z 28021KT 250V310 9999 -SHRA SCT025 06/01 Q0991 NOSIG",
                "EHAM 161055Z 27023KT 250V320 9999 BKN025 06/01 Q0991 NOSIG",
                "EHAM 161025Z 27020KT 240V300 9999 FEW020CB 06/02 Q0991 TEMPO 7000 -SHRA",
                "EHAM 160955Z 27020KT 9999 FEW020CB 06/02 Q0991 TEMPO 7000 -SHRA",
                "EHAM 160925Z 28018KT 9999 VCSH FEW018CB SCT022 05/01 Q0990 NOSIG",
                "EHAM 160825Z 28020KT 9999 FEW012 FEW018CB 05/02 Q0989 NOSIG",
                "EHAM 160755Z 24019KT 210V270 9999 -SHRA FEW012 SCT018CB BKN035 05/02 Q0989 TEMPO 7000",
                "EHAM 160725Z 27020KT 240V300 9999 -SHRA FEW012 FEW018CB SCT032 06/03 Q0988 TEMPO 7000",
                "EHAM 160655Z 26014KT 9999 -SHRA FEW018CB SCT027 06/04 Q0988 TEMPO 7000 -SHRAGS",
                "EHAM 160625Z 26021G33KT 230V300 9000 -SHRA FEW017CB SCT025 05/02 Q0988 TEMPO 7000 -SHRAGS",
                "EHAM 160555Z 26016KT 9999 FEW020 SCT026 07/04 Q0988 TEMPO 7000 -SHRAGS FEW015CB",
                "EHAM 160525Z 26018KT 9999 FEW018 SCT025 06/03 Q0988 TEMPO 7000 -SHRAGS FEW015CB",
                "EHAM 160455Z 25018KT 9999 FEW018 SCT022 07/03 Q0988 TEMPO 7000 -SHRAGS FEW015CB",
                "EHAM 160425Z 25017KT 9999 FEW018 SCT025 07/03 Q0989 TEMPO 7000 -SHRAGS FEW015CB",
                "EHAM 160355Z 25019KT 9999 VCSH FEW015CB SCT025 07/04 Q0989 TEMPO 7000 -SHRAGS",
                "EHAM 160325Z 25017KT 9000 -SHRAGS FEW015CB SCT025 07/04 Q0989 TEMPO 7000",
                "EHAM 160255Z 25018KT 9999 -SHRA FEW015CB SCT025 07/04 Q0989 TEMPO 7000",
                "EHAM 160225Z 25017KT 220V280 9999 VCSH FEW015CB BKN042 07/04 Q0990 TEMPO 7000 -SHRAGS",
                "EHAM 160155Z 24019KT 9999 FEW015CB SCT022 07/04 Q0990 TEMPO 7000 -SHRAGS",
                "EHAM 160125Z 24014KT 200V270 9999 VCSH FEW015CB SCT022 06/04 Q0990 TEMPO 7000 -SHRAGS",
                "EHAM 160055Z 25018KT 9999 -SHRA FEW015CB SCT022 07/03 Q0990 TEMPO 7000",
                "EHAM 160025Z 25020KT 9999 -SHRA FEW015CB SCT042 07/03 Q0991 TEMPO 25020G32KT 7000",
                "EHAM 152355Z 25015KT 210V280 9999 FEW024 BKN042 07/04 Q0991 TEMPO 7000 -SHRA FEW015CB",
                "EHAM 152325Z 25015KT 9999 FEW020 SCT028 07/04 Q0991 NOSIG",
                "EHAM 152255Z 25016KT 9999 FEW018 SCT028 07/04 Q0990 NOSIG",
                "EHAM 152155Z 26013KT 9999 FEW019 SCT024 07/05 Q0990 NOSIG",
                "EHAM 152055Z 27018KT 240V300 9999 -RA FEW019 BKN024 08/05 Q0990 NOSIG",
                "EHAM 152025Z 27019KT 9999 -RA FEW009 SCT014 BKN030 08/06 Q0989 NOSIG",
                "EHAM 151955Z 26016KT 9999 -RA FEW008 SCT018 BKN036 08/07 Q0989 NOSIG",
                "EHAM 151925Z 27018KT 9999 -RA FEW012 SCT026 BKN040 08/07 Q0989 NOSIG",
                "EHAM 151825Z 21018KT 8000 -RA SCT006 BKN008 07/06 Q0988 TEMPO 7000 BECMG FM1900 27017KT BKN021",
                "EHAM 151725Z 18022KT 6000 -RA FEW007 SCT010 BKN012 06/05 Q0989 TEMPO 4500 BKN008",
                "EHAM 151655Z 17021KT 140V200 8000 -RA FEW008 SCT010 BKN012 06/05 Q0989 TEMPO 4500 BKN008",
                "EHAM 151625Z 19022KT 8000 -RA FEW008 SCT014 BKN018 06/05 Q0991 TEMPO 4500 BKN013",
                "EHAM 151555Z 19022KT 160V220 9000 -RADZ FEW010 SCT016 BKN018 06/05 Q0991 TEMPO 4500 BKN013",
                "EHAM 151525Z 19022KT 9999 -RADZ FEW010 SCT013 BKN018 06/05 Q0992 TEMPO 4500 BKN013",
                "EHAM 151455Z 19023KT 150V210 8000 -RADZ FEW009 SCT012 BKN015 06/05 Q0993 TEMPO 4000 BKN008",
                "EHAM 151425Z 19025KT 8000 -RADZ FEW009 SCT012 BKN015 06/05 Q0994 TEMPO 4000 BKN008",
                "EHAM 151355Z 19023KT 4000 -RADZ FEW007 BKN008 BKN011 06/05 Q0995 TEMPO 6000",
                "EHAM 151325Z 18023KT 5000 -RADZ FEW006 BKN009 BKN012 06/05 Q0996 TEMPO 4000",
                "EHAM 151255Z 18024G35KT 4500 -RADZ FEW010 BKN013 BKN017 06/04 Q0997 TEMPO 7000",
                "EHAM 151225Z 19022KT 7000 -RADZ FEW010 BKN013 BKN017 06/05 Q0998 TEMPO 4000",
                "EHAM 151155Z 18019KT 7000 -RADZ FEW008 SCT012 BKN017 06/05 Q1000 TEMPO 9000",
                "EHAM 151125Z 18019KT 150V210 7000 -RADZ FEW009 SCT013 BKN017 05/04 Q1001 TEMPO 9000",
                "EHAM 151055Z 17018KT 150V210 6000 -RADZ SCT009 SCT012 BKN017 05/04 Q1002 TEMPO 9000",
                "EHAM 151025Z 17019KT 140V200 6000 -RADZ FEW009 SCT012 BKN018 05/04 Q1003 TEMPO 9000",
                "EHAM 150955Z 18017KT 150V210 9000 -RADZ SCT009 BKN010 OVC011 05/03 Q1004 TEMPO 6000 BKN008",
                "EHAM 150925Z 18019KT 9999 FEW009 BKN010 BKN012 05/03 Q1005 TEMPO BKN008",
                "EHAM 150855Z 18018KT 9000 FEW007 BKN009 OVC010 04/03 Q1005 NOSIG",
                "EHAM 150825Z 18018KT 5000 BR FEW006 BKN007 OVC009 03/03 Q1006 BECMG 8000",
                "EHAM 150755Z 19018KT 4000 BR FEW005 OVC006 03/03 Q1007 BECMG 8000",
                "EHAM 150725Z 19018KT 160V220 2500 BR FEW004 BKN005 OVC006 03/03 Q1007 BECMG 4000",
                "EHAM 150655Z 18015KT 2800 BR FEW005 BKN006 OVC007 04/03 Q1008 NOSIG",
                "EHAM 150625Z 18017KT 5000 BR FEW008 BKN009 OVC010 04/02 Q1008 BECMG 4000",
                "EHAM 150525Z 18014KT 140V200 7000 FEW011 OVC025 04/02 Q1009 BECMG BKN012",
                "EHAM 150455Z 18013KT 150V210 7000 FEW012 OVC020 04/02 Q1010 BECMG BKN012",
                "EHAM 150425Z 18012KT 150V210 7000 FEW012 OVC020 04/02 Q1010 BECMG BKN012",
                "EHAM 150355Z 17010KT 7000 FEW012 OVC018 04/02 Q1011 BECMG BKN012",
                "EHAM 150325Z 19009KT 7000 FEW011 OVC017 03/02 Q1012 BECMG BKN008",
                "EHAM 150255Z 17009KT 140V200 6000 FEW007 OVC011 03/02 Q1012 BECMG BKN008",
                "EHAM 150225Z 20010KT 170V240 6000 OVC011 04/02 Q1013 BECMG BKN008",
                "EHAM 150125Z 17010KT 7000 FEW009 OVC011 03/01 Q1014 NOSIG",
                "EHAM 150055Z 17008KT 7000 FEW009 OVC011 02/01 Q1014 NOSIG",
                "EHAM 142355Z 18011KT 8000 OVC010 03/01 Q1015 BECMG 7000",
                "EHAM 142325Z 18011KT 8000 FEW010 BKN012 02/01 Q1016 BECMG 7000",
                "EHAM 142255Z 16011KT 9000 BKN018 01/00 Q1016 BECMG 7000 BKN014",
                "EHAM 142225Z 15013KT 9000 NSC 01/M00 Q1016 BECMG 7000 BKN014",
                "COR EHAM 142155Z 15012KT CAVOK 02/M00 Q1016 BECMG 7000 BKN014",
                "EHAM 141425Z 12009KT 090V150 9999 FEW019 05/01 Q1019 NOSIG",
                "EHAM 141355Z 10008KT 070V140 9999 SCT018 05/01 Q1019 NOSIG",
                "EHAM 141325Z 11007KT 9999 BKN018 04/01 Q1019 TEMPO SCT018",
                "EHAM 141255Z 12006KT 080V150 9999 BKN018 05/01 Q1019 TEMPO SCT018",
                "EHAM 141155Z 09008KT 060V130 9999 FEW017 04/01 Q1020 NOSIG",
                "EHAM 141125Z 11009KT 070V130 9999 FEW015 BKN030 04/01 Q1020 NOSIG",
                "EHAM 141055Z 10008KT 070V130 9999 FEW018 BKN030 04/01 Q1021 NOSIG",
                "EHAM 141025Z 09009KT 060V120 9999 BKN030 03/00 Q1021 NOSIG",
                "EHAM 140955Z 09011KT 060V120 9999 BKN030 03/00 Q1021 NOSIG",
                "EHAM 140925Z 09010KT 060V130 9999 BKN030 03/00 Q1021 NOSIG",
                "EHAM 140825Z 09010KT 050V120 9999 BKN030 02/00 Q1021 NOSIG",
                "EHAM 140655Z 08010KT 050V110 9999 BKN028 03/00 Q1021 NOSIG",
                "EHAM 140525Z 07010KT 050V110 9000 BKN027 03/01 Q1021 NOSIG",
                "EHAM 140255Z 07010KT 040V100 9000 BKN032 03/01 Q1021 NOSIG",
                "EHAM 131825Z 10007KT 080V140 9999 BKN026 05/02 Q1023 NOSIG",
                "EHAM 131755Z 11009KT 080V140 9999 OVC026 05/02 Q1023 NOSIG",
                "EHAM 131655Z 12012KT 100V160 9999 OVC023 05/01 Q1023 NOSIG",
                "EHAM 131625Z 12012KT 080V140 9999 OVC022 06/02 Q1023 NOSIG",
                "EHAM 131555Z 11011KT 070V140 9999 FEW013 OVC021 06/03 Q1023 TEMPO BKN017",
                "EHAM 131525Z 11010KT 080V140 9000 FEW011 BKN017 OVC022 06/04 Q1023 TEMPO SCT017",
                "EHAM 131455Z 11010KT 080V150 7000 FEW010 SCT016 BKN020 06/04 Q1023 BECMG 9000",
                "EHAM 131425Z 10007KT 4000 BR FEW008 SCT012 BKN028 06/05 Q1023 BECMG 6000",
                "EHAM 131355Z 10008KT 060V140 3300 BR FEW007 SCT010 BKN028 06/05 Q1023 BECMG 6000 SCT015",
                "EHAM 131325Z 09006KT 060V120 2700 BR FEW005 SCT007 BKN030 06/05 Q1023 BECMG 4000 SCT015",
                "EHAM 131255Z 09007KT 2500 BR FEW005 SCT007 BKN030 06/05 Q1024 BECMG 4000",
                "EHAM 131225Z 10007KT 2000 BR FEW003 BKN005 06/05 Q1024 BECMG 4000 SCT006 BKN010",
                "EHAM 131155Z 11006KT 1800 BR FEW002 BKN003 BKN004 05/05 Q1025 BECMG FM1230 4000 BKN005",
                "EHAM 131055Z 11007KT 070V130 2500 BR FEW003 BKN004 OVC005 05/04 Q1025 TEMPO 1200 BKN002",
                "EHAM 131025Z 12007KT 2700 BR FEW003 SCT004 BKN005 04/04 Q1025 NOSIG",
                "EHAM 130955Z 12009KT 090V150 2200 BR FEW002 SCT003 BKN004 04/04 Q1025 NOSIG",
                "EHAM 130655Z 12008KT 080V140 1800 BR BKN001 OVC002 03/03 Q1025 TEMPO 0600 FG",
                "EHAM 130555Z 12008KT 4300 BR FEW002 BKN003 03/03 Q1025 BECMG 2500 BR BKN002",
                "EHAM 130525Z 12006KT 9000 BKN006 04/03 Q1025 BECMG 2500 BR BKN003",
                "EHAM 130455Z 12005KT 080V140 9999 BKN006 04/03 Q1025 BECMG 4000 BKN004",
                "EHAM 130425Z 11006KT 9999 BKN006 04/03 Q1025 BECMG 6000 BKN004",
                "EHAM 130355Z 11005KT 9999 BKN006 04/03 Q1025 BECMG 7000",
                "EHAM 130325Z 12007KT 9000 BKN006 04/03 Q1026 BECMG 7000",
                "EHAM 130255Z 11006KT 090V150 9000 FEW006 BKN007 04/03 Q1026 BECMG 7000",
                "EHAM 130225Z 11007KT 080V140 9000 FEW006 BKN008 04/03 Q1026 BECMG 7000",
                "EHAM 130155Z 11009KT 7000 FEW004 SCT006 04/03 Q1026 BECMG BKN006",
                "EHAM 130125Z 11007KT 5000 BR FEW004 SCT006 04/04 Q1026 BECMG 4000 BKN006",
                "EHAM 130055Z 10007KT 6000 SCT010 04/04 Q1026 BECMG 4000 BR BKN006",
                "EHAM 130025Z 11005KT 7000 FEW006 BKN011 05/04 Q1026 BECMG 4000 BR BKN006",
                "EHAM 122355Z 11004KT 7000 FEW006 BKN011 05/04 Q1026 BECMG BKN006",
                "EHAM 122325Z 11003KT 8000 FEW006 BKN011 05/04 Q1026 BECMG 6000 BKN006",
                "EHAM 122255Z 10003KT 8000 FEW006 BKN011 05/04 Q1026 BECMG 6000 BKN006",
                "EHAM 122225Z 10003KT 9000 FEW007 SCT011 BKN014 05/04 Q1027 BECMG 6000 BKN006",
                "EHAM 122155Z 10004KT 9999 FEW007 BKN014 05/04 Q1027 BECMG 6000 BKN006",
                "EHAM 122125Z VRB01KT 9999 FEW009 BKN016 04/04 Q1027 BECMG BKN006",
                "EHAM 122055Z 09002KT 9999 SCT011 04/03 Q1027 BECMG SCT009 BKN012",
                "EHAM 122025Z 10002KT 9999 FEW012 04/03 Q1027 BECMG SCT009 BKN012",
                "EHAM 121955Z 08002KT 9999 FEW009 04/03 Q1027 BECMG SCT009 BKN012",
                "EHAM 121925Z 12003KT 9999 FEW009 04/03 Q1027 BECMG SCT009 BKN012",
                "EHAM 121855Z 09004KT 9999 FEW007 04/03 Q1027 BECMG SCT009 BKN012",
                "EHAM 121825Z 07005KT 9999 FEW009 04/03 Q1026 BECMG SCT009 BKN012",
                "EHAM 121755Z 08004KT 9999 FEW012 04/03 Q1026 BECMG SCT009 BKN012",
                "EHAM 121725Z 08005KT 9999 FEW012 04/03 Q1026 BECMG SCT009 BKN012",
                "EHAM 121655Z 07003KT 9999 FEW012 04/03 Q1026 BECMG SCT009 BKN012",
                "EHAM 121625Z 09005KT 9999 FEW012 05/03 Q1026 BECMG SCT009 BKN012",
                "EHAM 121555Z 06003KT 9999 FEW016 05/03 Q1026 BECMG SCT009 BKN012",
                "EHAM 121525Z 07004KT 9999 FEW016 05/04 Q1026 BECMG SCT009 BKN012",
                "EHAM 121455Z 07003KT 9999 FEW016 05/04 Q1026 BECMG SCT009 BKN012",
                "EHAM 121355Z VRB04KT 9999 FEW010 SCT016 06/03 Q1026 NOSIG",
                "EHAM 121325Z 07005KT 010V120 9999 FEW008 BKN015 05/04 Q1026 TEMPO BKN025",
                "EHAM 121255Z 09005KT 050V120 9999 SCT007 OVC015 05/04 Q1026 TEMPO BKN025",
                "EHAM 121225Z 05004KT 320V100 9000 4400SE FEW006 BKN009 OVC015 06/05 Q1026 NOSIG",
                "EHAM 121155Z 06005KT 010V080 8000 FEW006 SCT009 BKN014 06/05 Q1026 TEMPO 5000 BR BKN006",
                "EHAM 121125Z VRB03KT 7000 FEW005 BKN009 OVC014 06/05 Q1027 TEMPO 4000 BR BKN004",
                "EHAM 121055Z 01005KT 340V050 8000 3500W BKN008 BKN014 06/05 Q1027 TEMPO 2000 BR BKN003",
                "EHAM 121025Z 02005KT 8000 3500W SCT008 SCT011 06/05 Q1027 TEMPO 2000 BR BKN003",
                "EHAM 120955Z VRB05KT 7000 BKN007 06/05 Q1027 TEMPO 2000 BR BKN003",
                "EHAM 120925Z VRB03KT 6000 2800W FEW007 SCT011 06/05 Q1027 TEMPO 4000 BR BKN004",
                "EHAM 120855Z 04005KT 350V070 6000 2800W OVC007 06/05 Q1026 NOSIG",
                "EHAM 120825Z 03004KT 350V060 4000 BR OVC007 06/05 Q1026 TEMPO 2500",
                "EHAM 120755Z 36005KT 320V030 2800 BR BKN003 OVC007 05/05 Q1026 BECMG 3000 SCT003 BKN007",
                "EHAM 120725Z 02004KT 340V040 2800 BR BKN003 OVC007 05/05 Q1026 BECMG 3000 SCT003 BKN007",
                "EHAM 120655Z 01005KT 2500 BR BKN003 OVC007 05/05 Q1026 NOSIG",
                "EHAM 120625Z 02004KT 340V040 2300 BR OVC003 05/05 Q1025 NOSIG",
                "EHAM 120555Z 02005KT 2200 BR SCT002 BKN003 05/05 Q1025 NOSIG",
                "EHAM 120525Z 02005KT 350V050 2200 BR SCT001 BKN002 05/05 Q1025 NOSIG",
                "EHAM 120455Z 02003KT 350V050 3000 BR SCT002 BKN003 05/05 Q1025 TEMPO 2000 BKN002",
                "COR EHAM 120425Z 02004KT 2800 BR SCT002 BKN003 05/05 Q1025 TEMPO 2000 BKN002",
                "EHAM 120355Z 03006KT 360V070 2400 BR SCT001 BKN002 05/05 Q1025 TEMPO 1200",
                "EHAM 120325Z 36005KT 320V050 2400 BR SCT002 BKN003 06/05 Q1025 TEMPO 1200",
                "EHAM 120255Z 36003KT 2800 BR SCT002 05/05 Q1025 BECMG 2000 BKN002",
                "EHAM 120225Z 35003KT 3200 BR FEW002 05/05 Q1025 BECMG 2000 BKN003",
                "EHAM 120155Z 34003KT 310V010 3400 BR FEW003 05/05 Q1025 BECMG 2000 BKN003",
                "EHAM 120125Z 35005KT 320V020 4000 BR NSC 05/05 Q1024 BECMG BKN004",
                "EHAM 120055Z 36003KT 3800 BR NSC 05/05 Q1024 BECMG BKN004",
                "EHAM 120025Z VRB02KT 3800 BR NSC 06/05 Q1024 BECMG 2000",
                "EHAM 112355Z 35004KT 320V020 3000 BR NSC 06/05 Q1024 BECMG 2000",
                "EHAM 112325Z 36003KT 300V050 2600 BR FEW004 06/05 Q1024 NOSIG",
                "EHAM 112255Z 33003KT 300V010 2600 BR FEW003 05/05 Q1024 NOSIG",
                "EHAM 112225Z 34003KT 310V010 2400 BR FEW003 05/05 Q1024 NOSIG",
                "EHAM 112155Z 31005KT 2400 BR FEW003 SCT005 06/05 Q1023 NOSIG",
                "EHAM 112125Z VRB02KT 2000 BR FEW002 BKN003 BKN004 06/05 Q1023 TEMPO SCT003",
                "EHAM 112055Z VRB03G14KT 1900 BR FEW002 BKN003 BKN004 06/06 Q1023 TEMPO SCT003",
                "EHAM 112025Z 32004KT 220V360 2400 BR FEW002 BKN003 BKN004 06/05 Q1023 TEMPO BKN002",
                "EHAM 111955Z 36006KT 330V040 2200 BR FEW002 BKN003 OVC004 06/05 Q1023 TEMPO BKN002",
                "EHAM 111925Z 01005KT 2300 BR FEW002 BKN003 OVC004 06/06 Q1022 TEMPO BKN002",
                "EHAM 111855Z 36005KT 330V030 2300 BR FEW002 BKN003 OVC004 06/06 Q1022 TEMPO BKN002",
                "EHAM 111825Z 35005KT 2500 BR FEW002 BKN003 OVC004 06/06 Q1021 TEMPO BKN002",
                "EHAM 111755Z 34005KT 2800 BR FEW003 BKN004 OVC005 06/06 Q1021 TEMPO BKN003",
                "EHAM 111725Z 36004KT 330V050 2500 BR FEW003 BKN004 OVC005 06/06 Q1021 TEMPO BKN003",
                "EHAM 111655Z 33004KT 2500 BR FEW003 BKN004 OVC005 06/06 Q1020 TEMPO BKN003",
                "EHAM 111625Z VRB04KT 2500 BR FEW003 BKN004 OVC005 07/06 Q1020 TEMPO BKN003",
                "EHAM 111555Z 03004KT 350V050 2300 BR FEW003 BKN004 OVC005 07/06 Q1020 TEMPO BKN003",
                "EHAM 111525Z 36004KT 310V030 2500 BR FEW003 BKN004 OVC005 07/06 Q1020 TEMPO BKN003",
                "EHAM 111455Z VRB02KT 2200 BR FEW003 BKN004 BKN005 07/06 Q1019 TEMPO BKN003",
                "EHAM 111425Z 02006KT 350V050 1900 BR FEW002 SCT003 BKN004 07/06 Q1019 TEMPO BKN003",
                "EHAM 111355Z VRB06KT 2000 BR FEW003 BKN004 OVC005 07/06 Q1018 NOSIG",
                "EHAM 111325Z 02006KT 350V050 2000 BR BKN004 OVC005 07/06 Q1018 NOSIG",
                "EHAM 111255Z 02005KT 350V120 2000 BR FEW004 OVC005 07/06 Q1018 TEMPO BKN004",
                "EHAM 111225Z 35004KT 320V020 2400 BR FEW004 BKN005 07/07 Q1018 TEMPO BKN004",
                "EHAM 111155Z VRB05KT 2000 BR FEW004 BKN005 07/06 Q1017 TEMPO BKN004",
                "EHAM 111125Z 32005G17KT 260V360 2300 BR FEW004 BKN006 07/06 Q1017 TEMPO BKN004",
                "EHAM 111055Z VRB02G13KT 2500 BR BKN005 07/06 Q1017 TEMPO SCT005",
                "EHAM 111025Z 00000KT 2600 BR BKN005 07/06 Q1017 TEMPO SCT005",
                "EHAM 110955Z 25001KT 3100 BR FEW003 SCT005 BKN006 06/06 Q1017 TEMPO 2500 SCT005",
                "EHAM 110925Z VRB01KT 2700 BR SCT003 BKN004 06/06 Q1016 BECMG 2000 SCT005",
                "EHAM 110855Z 09003KT 060V140 2700 BR SCT003 BKN004 06/06 Q1016 BECMG 2000 SCT005",
                "EHAM 110825Z 05003KT 350V120 3500 BR SCT004 BKN005 06/06 Q1015 BECMG 2000 SCT005",
                "EHAM 110755Z 10003KT 3600 BR SCT005 BKN006 06/05 Q1015 TEMPO 2500 SCT006",
                "EHAM 110725Z 06004KT 320V110 4000 BR SCT005 BKN006 06/06 Q1014 TEMPO 2500 BKN005",
                "EHAM 110655Z 07003KT 330V110 4200 BR BKN006 06/06 Q1014 TEMPO 2500 BKN005",
                "EHAM 110625Z 08004KT 2800 BR BKN006 05/05 Q1013 BECMG 0800 BCFG SCT006",
                "EHAM 110455Z 07001KT 4800 BR FEW002 SCT006 BKN008 06/05 Q1012 BECMG 1500 BCFG SCT007",
                "COR EHAM 110425Z 13003KT 6000 SCT006 BKN007 06/05 Q1012 BECMG 2500 SCT007",
                "COR EHAM 110355Z 11003KT 6000 SCT006 BKN007 06/06 Q1012 BECMG 2500 SCT007",
                "EHAM 110325Z 14003KT 6000 SCT006 BKN007 06/06 Q1011 BECMG 2500 SCT007",
                "EHAM 110255Z 14004KT 6000 BR SCT007 BKN008 06/06 Q1011 BECMG 2500 SCT007",
                "EHAM 110225Z 14006KT 6000 SCT007 BKN008 07/06 Q1011 BECMG 2500 SCT007",
                "EHAM 110155Z 14006KT 6000 SCT006 BKN007 07/06 Q1011 BECMG 2500 SCT007",
                "EHAM 110125Z 15005KT 7000 SCT006 BKN007 06/06 Q1010 BECMG 3500 BR SCT009",
                "EHAM 110055Z 12006KT 8000 SCT007 BKN008 06/05 Q1010 BECMG 3500 BR SCT009",
                "EHAM 110025Z 15003KT 8000 SCT007 BKN009 07/06 Q1010 BECMG 4000 SCT009",
                "EHAM 102355Z 15005KT 8000 SCT007 BKN009 07/06 Q1010 BECMG 7000",
                "EHAM 102325Z 15007KT 8000 SCT007 BKN009 06/06 Q1010 BECMG 7000",
                "EHAM 102255Z 14007KT 9000 SCT005 BKN008 07/06 Q1009 BECMG 7000",
                "EHAM 102225Z 14006KT 9000 FEW005 SCT007 BKN010 06/06 Q1009 TEMPO BKN008",
                "EHAM 102155Z 14006KT 6000 FEW005 SCT010 BKN018 06/06 Q1009 TEMPO BKN008",
                "EHAM 102125Z 14005KT 6000 FEW015 BKN020 06/06 Q1009 TEMPO BKN015",
                "EHAM 102055Z 15005KT 7000 FEW015 BKN030 06/06 Q1009 TEMPO BKN015",
                "COR EHAM 102025Z 16005KT 130V190 8000 SCT030 06/05 Q1009 NOSIG",
                "EHAM 101955Z 17007KT 8000 FEW015 BKN022 07/07 Q1008 NOSIG",
                "COR EHAM 101925Z 17007KT 7000 FEW007 BKN022 07/06 Q1008 NOSIG",
                "COR EHAM 101855Z 17008KT 8000 FEW005 SCT015 BKN038 07/07 Q1008 TEMPO BKN012",
                "EHAM 101825Z 16008KT 7000 FEW005 SCT007 BKN018 07/07 Q1008 TEMPO 8000 BKN012",
                "EHAM 101755Z 17009KT 7000 FEW005 SCT007 BKN018 07/07 Q1008 TEMPO 8000 BKN012",
                "EHAM 101725Z 17008KT 7000 FEW005 BKN007 BKN014 07/07 Q1007 BECMG 8000 BKN012",
                "EHAM 101655Z 17007KT 7000 FEW005 BKN007 BKN015 07/07 Q1007 BECMG 8000 BKN012",
                "EHAM 101625Z 16008KT 6000 FEW005 BKN007 BKN009 07/07 Q1007 BECMG 8000 BKN012",
                "EHAM 101555Z 16008KT 6000 -DZ FEW005 BKN007 BKN009 07/07 Q1007 NOSIG",
                "EHAM 101525Z 17009KT 7000 FEW006 BKN007 BKN009 07/07 Q1006 TEMPO 9000",
                "EHAM 101455Z 17008KT 7000 -DZ FEW006 BKN007 BKN009 07/07 Q1006 TEMPO 9000",
                "EHAM 101425Z 17008KT 140V200 6000 -RADZ SCT007 BKN009 07/07 Q1006 TEMPO 9000",
                "EHAM 101355Z 17008KT 6000 -DZ FEW005 BKN007 07/07 Q1006 TEMPO 9000",
                "EHAM 101325Z 17009KT 130V190 5000 -DZ FEW005 BKN007 07/07 Q1006 TEMPO 9000",
                "EHAM 101255Z 17009KT 6000 -RADZ FEW005 BKN008 07/07 Q1006 TEMPO 9000 SCT007 BKN011",
                "EHAM 101225Z 17009KT 8000 -RADZ SCT006 BKN009 07/07 Q1006 TEMPO 7000 SCT007 BKN011",
                "EHAM 101155Z 16009KT 130V190 8000 -RADZ SCT006 BKN009 07/07 Q1006 TEMPO 7000",
                "EHAM 101125Z 16009KT 9000 -RADZ FEW006 BKN009 07/07 Q1007 NOSIG",
                "EHAM 101055Z 16008KT 9999 FEW006 BKN008 BKN010 07/07 Q1007 TEMPO BKN011",
                "EHAM 101025Z 16009KT 130V190 9999 FEW005 SCT006 BKN009 07/07 Q1007 TEMPO BKN011",
                "EHAM 100955Z 16008KT 9999 FEW005 BKN006 BKN011 07/07 Q1007 TEMPO BKN011",
                "EHAM 100925Z 16009KT 9999 FEW008 BKN011 BKN025 07/06 Q1007 TEMPO BKN008",
                "EHAM 100855Z 17009KT 9000 FEW007 BKN020 BKN035 07/06 Q1007 TEMPO BKN008",
                "EHAM 100825Z 15008KT 7000 FEW009 SCT011 BKN016 07/06 Q1007 TEMPO BKN009 BECMG 9000",
                "EHAM 100755Z 15008KT 4000 -DZ FEW006 SCT009 BKN011 07/06 Q1006 TEMPO BKN009 BECMG 9000",
                "EHAM 100725Z 15009KT 9000 FEW006 BKN008 BKN011 07/06 Q1006 NOSIG",
                "EHAM 100655Z 14008KT 9000 FEW007 BKN009 BKN011 07/06 Q1006 NOSIG",
                "EHAM 100625Z 15007KT 9000 FEW006 BKN007 OVC009 07/06 Q1006 NOSIG",
                "EHAM 100555Z 14007KT 9000 FEW006 OVC008 07/06 Q1006 NOSIG",
                "EHAM 100525Z 13008KT 9000 SCT007 OVC009 06/06 Q1006 NOSIG",
                "EHAM 100455Z 14008KT 8000 SCT008 OVC010 06/06 Q1006 TEMPO BKN009",
                "EHAM 100425Z 14008KT 9999 SCT007 OVC009 06/06 Q1006 NOSIG",
                "EHAM 100355Z 13007KT 9000 SCT008 OVC010 06/05 Q1007 TEMPO BKN008",
                "EHAM 100325Z 14006KT 9000 SCT008 OVC010 06/05 Q1007 TEMPO BKN008",
                "EHAM 100255Z 14007KT 9000 SCT011 OVC014 06/05 Q1007 BECMG 8000",
                "EHAM 100225Z 12006KT 9000 SCT012 OVC014 06/05 Q1007 NOSIG",
                "EHAM 100155Z 10003KT 9000 SCT010 OVC013 06/05 Q1007 TEMPO 8000",
                "EHAM 100125Z 13004KT 8000 SCT007 OVC011 06/05 Q1007 BECMG 6000",
                "EHAM 100055Z 15004KT 8000 SCT007 OVC009 06/05 Q1007 BECMG 6000 BKN010",
                "EHAM 100025Z 16004KT 140V200 6000 FEW005 OVC008 05/05 Q1007 TEMPO 7000 BKN010",
                "EHAM 092355Z 17006KT 6000 FEW005 OVC008 06/05 Q1008 TEMPO 7000 BKN010",
                "EHAM 092325Z 18007KT 6000 FEW004 SCT006 OVC008 06/05 Q1008 TEMPO 7000 BKN010",
                "EHAM 092255Z 18007KT 6000 BR FEW004 SCT006 OVC008 06/05 Q1008 NOSIG",
                "EHAM 092225Z 17006KT 6000 BKN006 OVC008 06/05 Q1008 NOSIG",
                "EHAM 092155Z 17009KT 7000 BR BKN007 OVC013 06/05 Q1008 BECMG 4500 BR",
                "EHAM 092125Z 18009KT 7000 FEW008 SCT010 BKN012 06/05 Q1008 BECMG 4500 BR BKN008",
                "EHAM 092055Z 17009KT 9000 BKN008 OVC012 05/04 Q1008 BECMG 7000",
                "EHAM 092025Z 17009KT 9000 FEW008 SCT010 OVC012 05/04 Q1008 BECMG 7000 BKN008",
                "EHAM 091955Z 16008KT 9999 FEW008 OVC010 05/04 Q1008 BECMG BKN009",
                "EHAM 091925Z 16009KT 9999 FEW009 OVC012 05/04 Q1008 BECMG BKN009",
                "EHAM 091825Z 15008KT 9999 BKN011 OVC013 05/03 Q1008 NOSIG",
                "EHAM 091755Z 15009KT 9999 BKN012 OVC016 05/03 Q1008 NOSIG",
                "EHAM 091725Z 15007KT 9999 BKN013 OVC015 05/03 Q1008 NOSIG",
                "EHAM 091625Z 14007KT 9999 FEW016 OVC020 04/03 Q1007 BECMG BKN018",
                "EHAM 091555Z 14008KT 9999 OVC020 05/03 Q1008 BECMG BKN018",
                "EHAM 091525Z 13008KT 9999 OVC020 04/03 Q1008 BECMG BKN018",
                "EHAM 091455Z 12006KT 9999 OVC020 04/03 Q1007 BECMG BKN018",
                "EHAM 091425Z 12007KT 9999 OVC020 04/02 Q1008 BECMG BKN018",
                "EHAM 091225Z 12007KT 090V150 9999 FEW012 03/01 Q1009 NOSIG",
                "EHAM 080755Z 07013KT 040V110 9999 SCT048 M00/M03 Q1026 NOSIG",
                "EHAM 080725Z 08014KT 040V100 9999 SCT048 M00/M03 Q1026 NOSIG",
                "EHAM 080655Z 07016KT 040V100 9999 BKN048 M00/M03 Q1026 NOSIG",
                "EHAM 080525Z 07018KT 040V100 9999 BKN042 M01/M04 Q1027 NOSIG",
                "EHAM 080355Z 07015KT 040V100 9999 FEW040 M01/M04 Q1027 NOSIG",
                "EHAM 070825Z 06016KT 020V090 9999 FEW017 01/M02 Q1027 NOSIG",
                "EHAM 070755Z 06015KT 030V090 9999 FEW017 01/M02 Q1027 NOSIG",
                "EHAM 070655Z 05017KT 020V080 9999 SCT016 01/M01 Q1025 NOSIG",
                "EHAM 070555Z 05015KT 020V080 9999 FEW017 02/M01 Q1025 NOSIG",
                "EHAM 070425Z 05013KT 020V080 9999 FEW021 02/M01 Q1023 NOSIG",
                "EHAM 070355Z 05015KT 020V080 9999 BKN017 03/M00 Q1023 BECMG NSC",
                "COR EHAM 070325Z 06016KT 020V090 9999 BKN017 03/M01 Q1023 BECMG NSC",
                "EHAM 070225Z 06017KT 030V090 9999 BKN016 02/M00 Q1022 NOSIG",
                "EHAM 070155Z 05017KT 020V080 9999 BKN016 03/M00 Q1021 NOSIG",
                "EHAM 070125Z 05018KT 9999 SCT014 03/00 Q1021 BECMG OVC015",
                "EHAM 070055Z 05015KT 020V090 9999 BKN013 03/01 Q1021 BECMG OVC015",
                "COR EHAM 070025Z 05013KT 020V090 9999 FEW013 03/01 Q1020 BECMG OVC015 TEMPO BKN013",
                "EHAM 062355Z 03007KT 9999 BKN017 04/02 Q1020 TEMPO FEW017",
                "EHAM 062125Z 03008KT 360V060 9999 FEW025 04/02 Q1018 NOSIG",
                "EHAM 062055Z 04007KT 010V070 9999 FEW025 04/02 Q1017 NOSIG",
                "EHAM 061925Z 04009KT 360V080 9999 FEW025 04/02 Q1015 NOSIG",
                "EHAM 061855Z 04009KT 010V080 9999 FEW025 04/02 Q1015 NOSIG",
                "COR EHAM 061825Z 03010KT 360V060 9999 FEW025 05/02 Q1014 NOSIG",
                "EHAM 061655Z 04011KT 360V070 9999 FEW015 05/02 Q1013 NOSIG",
                "EHAM 061625Z 03014KT 360V060 9999 FEW015 05/02 Q1012 NOSIG",
                "EHAM 061555Z 03012KT 350V060 9999 FEW015 SCT043 06/03 Q1012 NOSIG",
                "EHAM 061525Z 03010KT 360V070 9999 FEW014 06/04 Q1011 NOSIG",
                "EHAM 061425Z 03011KT 350V060 9999 FEW015 SCT040 07/04 Q1010 NOSIG",
                "EHAM 061355Z 03009KT 360V060 9999 FEW014 SCT038 07/05 Q1010 NOSIG",
                "EHAM 061325Z 02007KT 350V050 9999 FEW012 SCT040 07/05 Q1009 NOSIG",
                "EHAM 061255Z 01005KT 330V040 9999 FEW015 SCT042 07/05 Q1009 NOSIG",
                "EHAM 061225Z 33004KT 210V020 9999 FEW022 SCT042 07/05 Q1008 NOSIG",
                "EHAM 061155Z VRB02KT 9999 FEW022 SCT045 07/05 Q1008 NOSIG",
                "EHAM 061125Z VRB02KT 9999 FEW022 BKN045 06/05 Q1008 NOSIG",
                "EHAM 061055Z VRB02KT 9999 FEW019 SCT035 BKN045 06/05 Q1008 NOSIG",
                "EHAM 061025Z 02001KT 9999 FEW019 BKN033 06/05 Q1007 NOSIG",
                "EHAM 060955Z VRB01KT 9000 FEW016 BKN033 05/05 Q1007 NOSIG",
                "EHAM 060925Z 16003KT 9000 FEW016 BKN033 04/04 Q1006 NOSIG",
                "EHAM 060855Z 15003KT 8000 FEW016 BKN032 03/03 Q1006 BECMG 9999",
                "EHAM 060825Z 16004KT 8000 FEW016 SCT030 02/02 Q1005 TEMPO 6000",
                "EHAM 060755Z 16004KT 150V240 9000 FEW027 03/02 Q1005 TEMPO 6000",
                "EHAM 060725Z 17004KT 9000 FEW015 SCT027 03/02 Q1004 TEMPO 6000",
                "EHAM 060225Z 22009KT 190V250 9999 FEW023 05/03 Q1001 NOSIG",
                "EHAM 060155Z 23009KT 190V260 9999 FEW023 SCT030 06/03 Q1001 NOSIG",
                "EHAM 060125Z 24011KT 200V270 9999 SCT023 BKN030 06/04 Q1000 NOSIG",
                "EHAM 060055Z 24008KT 9999 SCT017 BKN025 06/05 Q1000 NOSIG",
                "EHAM 060025Z 22012KT 9999 FEW015 SCT022 BKN030 06/04 Q1000 NOSIG",
                "EHAM 052355Z 22013KT 9999 FEW015 SCT022 BKN030 06/04 Q0999 NOSIG",
                "EHAM 052325Z 21014KT 9999 FEW016 SCT036 06/04 Q0999 NOSIG",
                "EHAM 052255Z 21014KT 9999 FEW027 SCT036 06/04 Q0999 NOSIG",
                "EHAM 052225Z 20014KT 9999 FEW027 SCT036 06/04 Q0998 NOSIG",
                "EHAM 052155Z 21013KT 9999 FEW030 SCT040 06/04 Q0998 NOSIG",
                "EHAM 052025Z 21014KT 180V240 9999 FEW032 06/04 Q0997 NOSIG",
                "EHAM 051755Z 18009KT 9999 FEW025 SCT042 05/05 Q0995 NOSIG",
                "EHAM 051555Z 20005KT 9999 FEW020 SCT035 05/04 Q0995 NOSIG",
                "EHAM 051525Z 26007KT 9999 -RA FEW020 SCT030 BKN040 06/04 Q0995 NOSIG",
                "EHAM 051455Z 26013KT 9000 -RA FEW007 SCT009 BKN030 06/05 Q0995 RERA NOSIG",
                "EHAM 051355Z 19009KT 9000 -RADZ FEW015 BKN035 08/07 Q0994 TEMPO 3500 SHRA SCT018 SCT020CB",
                "EHAM 051325Z 19010KT 8000 -RADZ FEW013 SCT017 BKN045 08/06 Q0994 TEMPO SHRA SCT020CB",
                "EHAM 051255Z 18007KT 9999 FEW017 07/06 Q0994 TEMPO 7000 RA -SHRA SCT020CB",
                "EHAM 051225Z 19007KT 9999 FEW016 07/06 Q0994 TEMPO 7000 RA -SHRA SCT020CB",
                "COR EHAM 051155Z 19010KT 9999 FEW016 07/06 Q0995 TEMPO FM1230 7000 RA -SHRA SCT020CB",
                "EHAM 051125Z 20009KT 9999 FEW016 SCT019 07/06 Q0995 NOSIG",
                "EHAM 051055Z 21009KT 180V240 9999 -SHRA FEW016 SCT022 BKN042 07/06 Q0995 NOSIG",
                "EHAM 051025Z 20010KT 9999 FEW016 SCT045 07/06 Q0995 NOSIG",
                "EHAM 050955Z 19010KT 9999 FEW016 BKN035 07/06 Q0995 NOSIG",
                "EHAM 050925Z 20009KT 9999 FEW016 BKN040 06/05 Q0995 NOSIG",
                "EHAM 050855Z 21009KT 9999 FEW017 SCT045 06/05 Q0995 NOSIG",
                "EHAM 050725Z 22009KT 9999 FEW015 SCT025 06/04 Q0994 NOSIG",
                "EHAM 050625Z 22010KT 9999 FEW015 SCT040 06/04 Q0993 NOSIG",
                "EHAM 050525Z 22009KT 9999 FEW020 SCT040 05/03 Q0993 NOSIG",
                "EHAM 050455Z 22012KT 9999 FEW025 SCT040 05/03 Q0992 NOSIG",
                "EHAM 050025Z 24019KT 9999 FEW028 SCT035 08/03 Q0992 NOSIG",
                "EHAM 042325Z 24023KT 210V270 9999 FEW030 07/03 Q0992 NOSIG",
                "EHAM 042255Z 24022G33KT 210V270 9999 FEW028 07/03 Q0991 NOSIG",
                "EHAM 042125Z 25024KT 220V280 9999 FEW030 07/03 Q0991 NOSIG",
                "EHAM 042055Z 26024KT 210V280 9999 FEW025 SCT035 08/03 Q0990 NOSIG",
                "EHAM 042025Z 26030KT 9999 FEW025 BKN035 08/03 Q0990 NOSIG",
                "EHAM 041955Z 26030G42KT 9999 -RA FEW025 SCT032 BKN040 09/05 Q0989 NOSIG",
                "EHAM 041925Z 25027G37KT 210V280 9999 FEW024 09/05 Q0988 NOSIG",
                "EHAM 041755Z 24022G32KT 210V270 9999 FEW015 BKN045 10/07 Q0987 NOSIG",
                "EHAM 041725Z 24023KT 220V280 9999 FEW015 BKN045 10/07 Q0987 NOSIG",
                "EHAM 041655Z 23022KT 9000 FEW010 11/08 Q0987 TEMPO 7000 BKN012",
                "EHAM 041625Z 23022KT 9999 FEW008 SCT014 11/09 Q0987 NOSIG",
                "EHAM 041555Z 23019KT 200V260 9000 FEW009 11/09 Q0987 TEMPO 7000 BKN008",
                "EHAM 041525Z 23013KT 9999 FEW008 10/09 Q0988 TEMPO 7000 BKN008",
                "EHAM 041425Z 18012KT 9000 FEW004 SCT007 BKN011 08/07 Q0988 BECMG 24015G25KT TEMPO 7000",
                "EHAM 041255Z 17009KT 9000 -RADZ FEW008 SCT012 BKN018 07/06 Q0990 TEMPO 4000 RADZ BKN008",
                "EHAM 041225Z 19011KT 9999 FEW010 BKN025 08/06 Q0991 TEMPO 4000 RADZ BKN008",
                "EHAM 041155Z 18010KT 150V210 9999 FEW010 BKN036 08/06 Q0992 BECMG 7000 -RADZ BKN012",
                "EHAM 041125Z 19010KT 9999 FEW011 BKN042 08/06 Q0992 BECMG 7000 -RADZ BKN012",
                "EHAM 041055Z 19009KT 9999 FEW028 BKN045 08/06 Q0993 BECMG 7000 -RADZ BKN012",
                "EHAM 041025Z 20012KT 9999 -RADZ FEW028 08/06 Q0994 NOSIG",
                "EHAM 040955Z 20010KT 9000 -RADZ FEW034 08/06 Q0994 NOSIG",
                "EHAM 040925Z 21009KT 180V240 9999 -RADZ FEW034 08/06 Q0995 NOSIG",
                "EHAM 040855Z 22011KT 9999 -DZ FEW034 SCT048 08/05 Q0995 NOSIG",
                "EHAM 040825Z 23011KT 9999 FEW034 BKN042 08/05 Q0995 NOSIG",
                "EHAM 040755Z 23011KT 200V260 9999 FEW034 07/05 Q0995 NOSIG",
                "EHAM 040355Z 25016KT 230V290 9999 FEW028 08/04 Q0996 NOSIG",
                "EHAM 040325Z 25019KT 9000 FEW028 SCT035 08/04 Q0996 NOSIG",
                "EHAM 040255Z 25019KT 9000 FEW028 BKN035 08/05 Q0996 NOSIG",
                "EHAM 040225Z 25019KT 9999 FEW028 SCT035 08/04 Q0996 NOSIG",
                "EHAM 040155Z 25019KT 220V280 9999 FEW028 BKN045 08/04 Q0996 NOSIG",
                "EHAM 040125Z 25020KT 9999 FEW027 BKN040 08/04 Q0996 NOSIG",
                "EHAM 040055Z 25020KT 9999 SCT030 BKN045 08/04 Q0996 NOSIG",
                "EHAM 040025Z 25021KT 9999 FEW030 BKN040 09/04 Q0996 NOSIG",
                "EHAM 032355Z 25023KT 220V280 9999 FEW030 SCT045 09/04 Q0996 NOSIG",
                "EHAM 032325Z 25021G32KT 220V280 9999 FEW030 BKN040 09/04 Q0996 NOSIG",
                "EHAM 032255Z 25020KT 220V280 9999 FEW034 BKN045 09/04 Q0996 NOSIG",
                "EHAM 032225Z 25022KT 9999 FEW034 BKN040 09/04 Q0996 NOSIG",
                "EHAM 032155Z 25023KT 9999 FEW034 BKN047 09/04 Q0996 NOSIG",
                "EHAM 032125Z 26023G33KT 9999 FEW029 SCT037 09/04 Q0996 NOSIG",
                "EHAM 032055Z 26021KT 230V290 9999 FEW029 SCT037 09/04 Q0996 NOSIG",
                "EHAM 032025Z 26022G32KT 230V290 9999 FEW029 SCT037 09/04 Q0996 NOSIG",
                "EHAM 031955Z 26024KT 9999 FEW029 SCT037 09/04 Q0996 NOSIG",
                "EHAM 031925Z 26023G33KT 9999 FEW031 SCT042 09/04 Q0996 NOSIG",
                "EHAM 031855Z 26025G35KT 9999 FEW031 SCT042 09/04 Q0995 NOSIG",
                "EHAM 031825Z 26022G32KT 9999 FEW031 BKN042 09/04 Q0995 NOSIG",
                "EHAM 031625Z 26027G37KT 230V290 9999 SCT027 BKN045 09/04 Q0994 NOSIG",
                "EHAM 031555Z 26029G39KT 9999 SCT032 BKN045 09/04 Q0993 NOSIG",
                "EHAM 031525Z 26026G38KT 230V290 9999 FEW025 SCT032 BKN042 09/05 Q0993 NOSIG",
                "EHAM 031455Z 26026KT 9999 FEW025 SCT032 BKN042 09/05 Q0992 NOSIG",
                "EHAM 031425Z 26029G41KT 9999 SCT025 SCT032 BKN045 09/05 Q0991 NOSIG",
                "EHAM 031355Z 26029G40KT 9999 FEW022 SCT028 BKN038 09/05 Q0991 NOSIG",
                "EHAM 031325Z 26031G42KT 9999 FEW022 BKN032 09/05 Q0990 NOSIG",
                "EHAM 031255Z 26033G46KT 230V290 9999 -RA FEW022 BKN032 08/04 Q0989 NOSIG",
                "EHAM 031225Z 26035G46KT 9999 FEW020 SCT025 BKN035 08/04 Q0988 NOSIG",
                "EHAM 031155Z 26035G47KT 9999 -RA FEW020 SCT025 BKN032 08/04 Q0987 TEMPO 26040G55KT 7000",
                "EHAM 031125Z 26037G49KT 9999 FEW020 SCT027 BKN035 08/04 Q0986 TEMPO 26040G55KT 7000 -RA",
                "EHAM 031055Z 26035G48KT 9999 FEW020 SCT030 BKN038 09/04 Q0986 TEMPO 26040G55KT 7000 -RA",
                "EHAM 031025Z 26036G48KT 9999 FEW020 SCT028 08/04 Q0985 TEMPO 26040G55KT 7000 -RA",
                "EHAM 030755Z 25027G37KT 9999 FEW025 SCT032 08/03 Q0984 BECMG 26030G45KT 6000 RA",
                "EHAM 030725Z 25028G38KT 230V290 9999 FEW030 08/03 Q0984 BECMG 26030G45KT",
                "EHAM 030655Z 25022KT 9999 FEW020 SCT035 07/04 Q0984 BECMG 25025G37KT",
                "EHAM 030555Z 26028KT 8000 -SHRA FEW010 SCT018CB BKN030 06/04 Q0984 TEMPO 6000 SHRA",
                "EHAM 030525Z 24024KT 210V280 9999 FEW018CB SCT040 09/06 Q0983 TEMPO 26030G45KT 4000 SHRA",
                "EHAM 030425Z 25020KT 9999 FEW020 09/05 Q0983 TEMPO 26030G45KT 6000 SHRA SCT018CB",
                "EHAM 030355Z 25024KT 9999 FEW020 10/07 Q0983 TEMPO 26030G45KT 6000 SHRA SCT018CB",
                "EHAM 030325Z 26028G38KT 9999 FEW020TCU 11/07 Q0982 TEMPO 26030G45KT 6000 SHRA SCT018CB",
                "EHAM 030255Z 24038G51KT 9999 -SHRA FEW012 FEW020CB BKN045 11/08 Q0984 BECMG 25027G40KT",
                "EHAM 030155Z 19022G32KT 4000 RA FEW006 BKN007 10/09 Q0984 BECMG 20027G40KT",
                "EHAM 030125Z 19024KT 4000 RADZ FEW006 BKN007 09/09 Q0986 BECMG 20027G40KT",
                "EHAM 030055Z 18020KT 150V210 4000 -DZRA FEW006 BKN007 09/09 Q0988 TEMPO 6000",
                "EHAM 030025Z 18019G29KT 140V200 4000 -DZRA BKN008 BKN015 09/08 Q0990 TEMPO 6000",
                "EHAM 022355Z 19019KT 8000 -RA FEW006 BKN045 09/08 Q0992 TEMPO 7000 BKN008",
                "EHAM 022325Z 20018KT 9000 -RA FEW007 SCT015 BKN045 09/08 Q0994 TEMPO 7000",
                "EHAM 022255Z 20017KT 6000 -RA FEW006 SCT008 BKN012 09/08 Q0995 BECMG BKN018",
                "EHAM 022225Z 20016KT 6000 -RADZ SCT006 BKN007 09/08 Q0996 BECMG BKN015",
                "EHAM 022155Z 20017KT 7000 -RA SCT006 BKN008 08/08 Q0997 BECMG BKN015",
                "EHAM 022125Z 19016KT 170V230 8000 -RADZ FEW006 BKN007 08/07 Q0998 BECMG BKN015 TEMPO 6000",
                "EHAM 022055Z 19016KT 8000 -RADZ BKN007 OVC014 08/07 Q0999 BECMG BKN015 TEMPO 6000",
                "EHAM 022025Z 19016KT 9999 SCT007 BKN009 OVC015 07/06 Q0999 BECMG BKN015 TEMPO 6000",
                "EHAM 021925Z 18020KT 150V210 4500 -DZ FEW005 BKN007 OVC013 06/05 Q1001 BECMG 6000",
                "EHAM 021855Z 18018KT 150V210 5000 -DZ BKN007 OVC020 06/05 Q1001 TEMPO 4000",
                "EHAM 021825Z 17018KT 140V200 6000 -DZ BKN008 OVC025 06/05 Q1002 TEMPO 4000",
                "EHAM 021755Z 18018KT 9999 -DZRA FEW015 BKN037 06/04 Q1003 BECMG 4500 BKN008",
                "EHAM 021725Z 19016KT 160V220 9999 -RA SCT030 BKN045 06/04 Q1004 NOSIG",
                "EHAM 021655Z 18014KT 150V210 9999 -RA FEW017 06/04 Q1005 NOSIG",
                "EHAM 021225Z 22013KT 9999 FEW014 SCT023 07/05 Q1009 NOSIG",
                "EHAM 021155Z 22010KT 9999 FEW014 BKN031 07/05 Q1009 NOSIG",
                "EHAM 021125Z 24010KT 9999 FEW014 BKN030 07/04 Q1010 NOSIG",
                "EHAM 021055Z 25013KT 9999 FEW015 SCT034 07/04 Q1010 NOSIG",
                "EHAM 021025Z 25014KT 9999 FEW015 SCT038 07/04 Q1010 NOSIG",
                "EHAM 020855Z 25014KT 9999 FEW035 BKN043 07/04 Q1009 NOSIG",
                "EHAM 020825Z 26006KT 230V290 9999 FEW019 SCT029 BKN041 06/04 Q1009 NOSIG",
                "EHAM 020755Z 25011KT 220V290 9999 -RA SCT020 BKN022 06/04 Q1009 TEMPO BKN018",
                "EHAM 020725Z 26011KT 9999 FEW021 BKN028 07/03 Q1008 NOSIG",
                "EHAM 020655Z 29013KT 9999 FEW029 BKN031 07/02 Q1007 NOSIG",
                "EHAM 020625Z 28010KT 250V310 9999 FEW023 BKN028 06/04 Q1007 NOSIG",
                "EHAM 020555Z 29015KT 260V320 9999 FEW016 SCT037 06/04 Q1007 NOSIG",
                "EHAM 020525Z 28014KT 9999 VCSH FEW013 SCT016TCU SCT032 06/05 Q1006 NOSIG",
                "EHAM 020455Z 29014KT 260V320 9999 VCSH FEW012 FEW018TCU SCT032 07/05 Q1006 NOSIG",
                "EHAM 020425Z 28010KT 250V310 9999 -SHRA SCT016 SCT037 06/05 Q1005 NOSIG",
                "EHAM 020355Z 27009KT 9999 -SHRA FEW017 SCT030 06/05 Q1004 NOSIG",
                "EHAM 020325Z 26008KT 9999 -SHRA FEW015 SCT028 06/05 Q1004 NOSIG",
                "EHAM 020255Z 27007KT 9999 -SHRA FEW013 SCT028 05/05 Q1004 NOSIG",
                "EHAM 020225Z 27008KT 9999 FEW012 SCT028 05/04 Q1003 NOSIG",
                "EHAM 012355Z 25012KT 230V290 5000 -RA FEW013 SCT046 06/04 Q1001 NOSIG",
                "EHAM 012255Z 25009KT 9999 FEW015 BKN036 07/05 Q1000 NOSIG",
                "EHAM 012225Z 27010KT 9999 FEW015 SCT035 07/05 Q1000 NOSIG",
                "EHAM 012155Z 26010KT 9999 -RA FEW016 SCT031 07/05 Q0999 NOSIG",
                "EHAM 012125Z 25009KT 230V290 9999 FEW013 SCT018 07/05 Q0999 NOSIG",
                "EHAM 012055Z 24008KT 210V270 9999 FEW013 BKN018 07/05 Q0998 NOSIG",
                "EHAM 012025Z 24008KT 210V270 9999 FEW018 BKN022 BKN045 07/05 Q0998 NOSIG",
                "EHAM 011955Z 25008KT 9999 -DZRA FEW008 SCT018 BKN045 07/05 Q0998 NOSIG",
                "EHAM 011925Z 25006KT 9999 FEW008 SCT022 BKN045 06/05 Q0997 NOSIG",
                "EHAM 311325Z 29017KT 250V310 9999 -SHRA FEW013 FEW018CB SCT032 05/03 Q1000 RESHRA TEMPO 6000 SHRA ",
                "EHAM 311255Z 24020KT 200V270 9999 4000NW -SHRA FEW012 FEW018CB SCT022 BKN045 08/06 Q0999 TEMPO 27020G34KT 4000 SHRA ",
                "EHAM 311225Z 22022KT 190V250 8000 -SHRA FEW012 FEW020CB BKN035 08/06 Q1000 TEMPO 6000 TEMPO FM1315 27020G34KT 4000 SHRA ",
                "EHAM 310925Z 24023G34KT 210V280 7000 RA FEW010 SCT016 BKN036 09/07 Q1004 RERA BECMG 9999 NSW ",
                "COR EHAM 291555Z 26028G42KT 3800 -DZRA FEW006 BKN007 BKN012 09/08 Q1020 BECMG 29018G30KT 9999 NSW FEW008 SCT025 ",
                "EHAM 291525Z 25024G34KT 3500 -DZRA FEW006 BKN008 BKN012 09/08 Q1020 BECMG FM1615 29018G30KT TEMPO 2500 ",
                "EHAM 291425Z 24024KT 210V270 6000 RA FEW015 OVC022 10/07 Q1019 BECMG BKN018 TEMPO 2500 RADZ BKN012 ",
                "EHAM 291355Z 24025G37KT 9999 -RA FEW022 OVC026 10/07 Q1020 BECMG 6000 DZ BKN018 TEMPO 2500 RADZ BKN012 ",
                "EHAM 291325Z 24025G40KT 9999 FEW020 OVC028 11/07 Q1020 BECMG 6000 DZ BKN018 TEMPO 2500 RADZ BKN012 ",
                "EHAM 261055Z 20004KT 160V240 1500 R18C/1100N R27/P2000N R18R/1200U R06/0900N BCFG BR SCT002 BKN003 05/05 Q1017 BECMG 2000 BKN004 ",
                "EHAM 261025Z 19004KT 140V220 0800 R18C/0750U R27/1000U R18R/0375N R06/0750N BCFG BR SCT001 BKN002 05/05 Q1017 BECMG 1500 BKN003 ",
                "EHAM 260955Z 16005KT 0300 R18C/0500N R27/0450N R18R/0400N R06/0500N FG SCT000 BKN001 04/04 Q1017 BECMG 0800 BKN002 ",
                "EHAM 260925Z 17005KT 140V200 0250 R18C/0550N R27/0350N R18R/0300N R06/0400N FG SCT000 BKN001 04/04 Q1016 BECMG 0800 BKN002 ",
                "EHAM 260855Z 17004KT 140V200 0250 R18C/0450N R27/0325N R18R/0275N R06/0400N FG SCT000 OVC001 04/04 Q1016 BECMG 0600 ",
                "EHAM 260825Z 17004KT 0250 R18C/0350N R27/0325N R18R/0275N R06/0375N FG SCT000 OVC001 03/03 Q1015 NOSIG ",
                "EHAM 260755Z 18003KT 0250 R18C/0375N R27/0350N R18R/0325N R06/0400N FG SCT000 OVC001 03/03 Q1015 BECMG 0550 ",
                "EHAM 260555Z 16007KT 2500 0400SE R18C/P2000N R27/1000N R18R/P2000N R06/P2000N PRFG BR SCT001 04/04 Q1013 BECMG 0800 FG BKN001 ",
                "EHAM 260525Z 16007KT 3500 0600SE R18C/P2000N R27/0900N R18R/P2000N R06/P2000N PRFG BR FEW001 04/03 Q1013 BECMG 0800 FG BKN001 ",
                "COR EHAM 241825Z 21023KT 8000 SHRA FEW005 SCT015 SCT024CB 12/09 Q1005 TEMPO 1500 SCT004 BECMG 28015G25KT ",
                "COR EHAM 241755Z 20024KT 170V230 9999 VCSH BKN020 12/09 Q1005 WS RWY18R TEMPO FM1810 1500 +RA SHRA SCT004 SCT020CB BECMG 28015G25KT ",
                "EHAM 220525Z 22007KT 3200 -DZ BR FEW004 BKN006 OVC008 04/04 Q1003 BECMG 27010KT 9999 NSW SCT015 ",
                "EHAM 192225Z 26013KT 7000 3000NE -SHRAGSSN FEW013 FEW020CB BKN032 02/M00 Q1007 R18R/1///95 BECMG 9999 NSW ",
                "EHAM 191925Z 29006KT 260V320 9999 VCSH FEW020CB SCT025 03/00 Q1007 RESHGSRA TEMPO 26015G25KT 7000 -SHRAGS ",
                "EHAM 182155Z 25011KT 7000 -SHRASN FEW020CB SCT022 03/02 Q1001 RERASN TEMPO 28012G22KT BECMG 9999 NSW ",
                "EHAM 182025Z 25006KT 220V300 9999 -SHRA FEW020CB SCT022 04/02 Q1001 TEMPO 28015G25KT 6000 SHRAGS ",
                "EHAM 181255Z 29021KT 260V320 9999 4800NW -SHRA FEW013 FEW018CB SCT025 05/03 Q0997 TEMPO 5000 ",
                "EHAM 180525Z 22023KT 180V240 9000 -RA FEW005 BKN009 BKN017 07/06 Q0985 BECMG 23030G45KT BKN015 ",
                "EHAM 170825Z 28021G35KT 250V310 7000 SHGS SCT025CB SCT045 02/M01 Q0996 RESHGS TEMPO 9999 NSW ",
                "EHAM 162225Z 25014KT 220V280 9999 -SHRA FEW015 FEW020CB SCT032 04/01 Q0990 RETS TEMPO 6000 SHRAGS SCT025CB ",
                "EHAM 162155Z 25016KT 220V280 9999 -SHRA FEW015 FEW020CB SCT030 05/01 Q0990 TEMPO 6000 SHRAGS SCT025CB ",
                "EHAM 151855Z 22017KT 190V260 7000 -RA FEW008 SCT010 BKN020 08/07 Q0988 BECMG 27017G27KT 9999 ",
                "EHAM 151755Z 19020KT 6000 -RADZ SCT008 BKN010 06/06 Q0988 TEMPO BKN008 BECMG FM1900 27017KT 9999 BKN021 ",
                "EHAM 150555Z 18015KT 150V210 7000 FEW010 BKN012 OVC025 04/02 Q1009 BECMG 4500 BR FEW007 BKN008 OVC010 ",
                "EHAM 131125Z 11006KT 2200 BR FEW002 SCT003 BKN004 05/05 Q1025 TEMPO BKN003 BECMG FM1230 4000 BKN005 ",
                "EHAM 130855Z 12007KT 1000 0600NW R18C/1100N R27/1300N R18R/1100N R06/1500N PRFG BR SCT001 BKN002 04/04 Q1025 BECMG 2000 BKN004 ",
                "EHAM 130825Z 12007KT 0500 R18C/1100N R27/1200N R18R/0900D R06/1600U FG BKN001 OVC002 04/04 Q1025 BECMG 1600 BKN002 ",
                "EHAM 130755Z 14006KT 100V170 0700 R18C/1000U R27/1100N R18R/0800N R06/1100D FG BKN001 OVC002 03/03 Q1025 BECMG BKN002 ",
                "EHAM 130625Z 13007KT 2200 1200NW R18C/1900N R27/P2000N R18R/1800D R06/P2000N BR FEW001 BKN002 03/03 Q1025 TEMPO 0600 FG BKN001 ",
                "EHAM 110555Z 10003KT 080V140 3000 R18C/P2000N R27/P2000N R18R/P2000N R06/1300U BR FEW005 SCT007 05/05 Q1013 BECMG 0500 FG BKN001 ",
                "EHAM 110525Z 06003KT 2600 0700NW R18C/P2000N R27/P2000N R18R/P2000N R06/1800U BCFG SCT007 05/05 Q1013 BECMG 0500 FG BKN001 ",
                "EHAM 051425Z 21008KT 190V250 3500 SHRA FEW006 SCT009 SCT018CB BKN020 08/06 Q0994 TEMPO 25015G25KT BECMG 8000 SCT020 ",
                "EHAM 041455Z 20011KT 180V250 9999 FEW006 SCT008 BKN013 09/08 Q0988 BECMG 24015G25KT TEMPO 7000 BKN008 ",
                "EHAM 041355Z 16009KT 4000 -DZ FEW003 BKN005 OVC006 07/06 Q0989 BECMG 24015G25KT 7000 BKN008 ",
                "EHAM 041325Z 16010KT 4000 -DZ FEW004 BKN006 BKN009 07/06 Q0989 BECMG FM1400 24015G25KT 7000 ",
                "EHAM 030955Z 25036G50KT 220V280 9999 -RA FEW020 BKN034 08/04 Q0984 TEMPO 26040G55KT 6000 RA ",
                "EHAM 030925Z 25031G48KT 220V280 7000 -RA FEW022 BKN032 08/04 Q0984 TEMPO 26040G55KT 6000 RA ",
                "EHAM 030855Z 25031G46KT 220V280 9999 -RA FEW025 BKN035 08/03 Q0984 BECMG 26037G50KT 6000 RA ",
                "EHAM 030825Z 25030G41KT 220V280 9999 FEW025 BKN038 08/03 Q0984 BECMG 26033G46KT 6000 RA ",
                "EHAM 030455Z 24022G32KT 210V280 9999 FEW020 SCT042 09/05 Q0983 TEMPO 26030G45KT 6000 SHRA SCT018CB ",
                "EHAM 030225Z 22021KT 180V240 3500 SHRA FEW006 BKN008 SCT020CB 10/10 Q0983 TEMPO 23037G50KT 6000 "
            };

        public static List<string> EHEHMETARs = new List<string>()
            {
                "EHEH 312325Z AUTO 23008KT 9999 FEW036 02/01 Q1000 BLU",
                "EHEH 302225Z AUTO 18006KT 9999 OVC033 05/03 Q1019 BLU",
                "EHEH 300325Z AUTO 25005KT 9999 OVC310 02/01 Q1030 BLU",
                "EHEH 300125Z AUTO 23004KT 9999 FEW350 02/02 Q1030 BLU",
                "EHEH 230455Z AUTO 21007KT 9999 OVC038 07/04 Q1020 BLU",
                "EHEH 230425Z AUTO 21006KT 9999 OVC036 07/04 Q1020 BLU",
                "EHEH 230325Z AUTO 24005KT 9999 OVC040 07/04 Q1020 BLU",
                "EHEH 230255Z AUTO 23005KT 9999 OVC042 07/04 Q1020 BLU",
                "EHEH 230225Z AUTO 23007KT 9999 OVC042 07/04 Q1020 BLU",
                "EHEH 230155Z AUTO 24007KT 9999 OVC033 07/04 Q1019 BLU",
                "EHEH 200425Z AUTO 20009KT 9999 FEW008 01/00 Q1007 BLU",
                "EHEH 200355Z AUTO 20009KT 9999 OVC250 01/00 Q1007 BLU",
                "EHEH 172255Z AUTO 23013KT 9999 OVC120 05/01 Q1006 BLU",
                "EHEH 150425Z AUTO 18007KT 9999 OVC016 04/01 Q1013 WHT",
                "EHEH 150355Z AUTO 18006KT 9999 OVC018 04/01 Q1013 WHT",
                "EHEH 150325Z AUTO 17007KT 9999 OVC017 03/01 Q1014 WHT",
                "EHEH 140455Z AUTO 08007KT 9999 FEW028 04/00 Q1020 BLU",
                "EHEH 140125Z AUTO 07007KT 9999 OVC027 05/00 Q1020 BLU",
                "EHEH 110025Z AUTO 15004KT 9999 OVC031 06/06 Q1010 BLU",
                "EHEH 100425Z AUTO 15005KT 9999 OVC015 07/06 Q1007 WHT",
                "EHEH 100355Z AUTO 14004KT 9999 OVC015 07/06 Q1007 WHT",
                "EHEH 100225Z AUTO 17006KT 9999 OVC020 07/06 Q1008 WHT",
                "EHEH 090155Z AUTO 07011KT 9999 OVC240 03/01 Q1014 BLU",
                "EHEH 082255Z AUTO 08008KT 9999 OVC190 02/00 Q1017 BLU",
                "EHEH 060455Z AUTO 18003KT 9999 OVC150 02/01 Q1003 BLU",
                "EHEH 060425Z AUTO 16004KT 9999 OVC160 01/01 Q1003 BLU",
                "EHEH 060355Z AUTO 17004KT 9999 OVC160 02/02 Q1003 BLU",
                "EHEH 060325Z AUTO 17005KT 9999 OVC170 03/02 Q1003 BLU",
                "EHEH 060255Z AUTO 21005KT 9999 OVC160 02/02 Q1002 BLU",
                "EHEH 060225Z AUTO 20006KT 9999 OVC170 03/02 Q1002 BLU",
                "EHEH 060155Z AUTO 20005KT 9999 OVC180 03/02 Q1002 BLU",
                "EHEH 060125Z AUTO 20006KT 9999 OVC180 04/03 Q1002 BLU",
                "EHEH 060055Z AUTO 20007KT 9999 OVC190 04/03 Q1001 BLU",
                "EHEH 060025Z AUTO 19006KT 9999 BKN190 05/03 Q1001 BLU",
                "EHEH 052255Z AUTO 20007KT 9999 BKN200 05/03 Q1001 BLU",
                "EHEH 052225Z AUTO 21007KT 9999 BKN240 04/03 Q1000 BLU",
                "COR EHEH 312355Z AUTO 21009KT 9999 NSC 02/01 Q1000 BLU",
                "EHEH 312255Z AUTO 23010KT 190V270 9999 -DZ FEW033 SCT040 BKN059 03/01 Q1000 BLU",
                "COR EHEH 312225Z AUTO 22009KT 9999 NSC 02/01 Q1000 BLU",
                "COR EHEH 312155Z AUTO 23009KT 200V260 9999 NSC 03/00 Q1000 BLU 22010KT CAVOK",
                "COR EHEH 312125Z AUTO 24009KT 9999 NSC 04/01 Q1000 BLU 22010KT CAVOK",
                "EHEH 312025Z AUTO 23011KT 9999 OVC100 04/03 Q1000 BLU 22010KT CAVOK TEMPO FEW018CB SCT040",
                "EHEH 311925Z AUTO 22011KT 9999 SCT092 OVC099 04/03 Q1000 BLU 22010KT 9999 FEW020 SCT050",
                "EHEH 311825Z AUTO 21007KT 9999 OVC110 03/03 Q1000 BLU 22010KT 9999 FEW020 SCT050",
                "EHEH 311725Z AUTO 21007KT 9999 BKN081 OVC087 04/03 Q1000 BLU 24010KT 9999 FEW020 SCT050",
                "EHEH 310525Z AUTO 22015KT 190V250 3400 +DZ FEW005 SCT007 BKN009 10/09 Q1010 YLO",
                "EHEH 310455Z AUTO 22015KT 4300 -RA FEW005 SCT006 BKN007 10/09 Q1010 RERA REDZ YLO",
                "EHEH 310425Z AUTO 23019G29KT 190V260 6000 DZ FEW007 SCT008 BKN010 10/09 Q1011 GRN",
                "EHEH 310355Z AUTO 22016KT 200V260 3500 DZ FEW006 SCT007 BKN008 10/09 Q1011 YLO",
                "EHEH 310325Z AUTO 21013KT 190V250 2900 -SHRA SCT005 BKN006 BKN008 09/09 Q1012 REDZ YLO",
                "EHEH 310255Z AUTO 21013KT 190V250 2600 -RA FEW004 BKN005 BKN008 09/09 Q1013 RERA REDZ YLO",
                "EHEH 310225Z AUTO 21012KT 2500 +DZRA FEW004 BKN005 OVC007 09/09 Q1013 YLO",
                "EHEH 310125Z AUTO 19008KT 2500 DZ FEW003 BKN004 OVC005 08/08 Q1015 YLO",
                "EHEH 310055Z AUTO 19008KT 160V220 2400 DZ FEW003 BKN005 OVC006 08/07 Q1016 YLO",
                "EHEH 310025Z AUTO 19008KT 160V220 6000 BR BKN006 OVC007 08/07 Q1017 YLO",
                "EHEH 302355Z AUTO 20007KT 7000 BR SCT008 BKN009 BKN010 07/06 Q1017 GRN",
                "EHEH 302325Z AUTO 19007KT 8000 BR SCT010 BKN013 BKN015 06/05 Q1018 GRN",
                "EHEH 302255Z AUTO 18006KT 9999 FEW021 OVC030 05/04 Q1019 BLU",
                "EHEH 302155Z AUTO 16008KT 130V220 9999 SCT016 OVC210 04/03 Q1020 WHT 17008KT 9999 BKN015",
                "EHEH 302125Z AUTO 15006KT 9999 BKN021 BKN040 OVC220 03/02 Q1021 WHT 17005KT 9999 SCT035",
                "EHEH 302055Z AUTO 14005KT 120V240 9999 FEW033 OVC220 03/02 Q1021 BLU 17005KT 9999 SCT035",
                "EHEH 301955Z AUTO 16005KT 9999 OVC270 04/02 Q1022 BLU 17005KT 9999 SCT035",
                "EHEH 301925Z AUTO 16005KT 150V250 9999 OVC037 03/02 Q1023 BLU VRB02KT 9999 SCT035",
                "EHEH 301855Z AUTO VRB01KT 9999 OVC038 03/02 Q1023 BLU VRB02KT 9999 SCT035",
                "EHEH 301825Z AUTO 14004KT 110V250 9999 OVC038 02/02 Q1024 BLU VRB02KT 9999 SCT035",
                "EHEH 301755Z AUTO 15003KT 090V230 9999 SCT390 02/01 Q1024 BLU VRB02KT 9999 FEW030",
                "EHEH 301725Z AUTO 16004KT 130V230 8000 BR OVC350 02/01 Q1024 BLU VRB02KT 9999 FEW015",
                "EHEH 301655Z AUTO VRB02KT 9999 OVC340 03/02 Q1025 BLU VRB02KT 9999 FEW015",
                "COR EHEH 301625Z AUTO VRB01KT 9999 NSC 05/03 Q1025 BLU VRB02KT 9999 FEW015",
                "EHEH 301555Z AUTO VRB02KT 9999 BKN340 05/02 Q1026 BLU 23008KT 9999 FEW015 BKN250",
                "EHEH 301455Z AUTO 25006KT 190V300 9999 OVC290 07/03 Q1027 BLU 23008KT 9999 FEW015 BKN250",
                "EHEH 300725Z AUTO 21004KT 0750 R21/0700D FG NSC 01/00 Q1030 RED 22005KT 2500 MIFG NSC",
                "EHEH 300555Z AUTO 22004KT 2100 BR OVC130 00/M00 Q1030 YLO 22005KT 2500 MIFG NSC",
                "EHEH 300525Z AUTO 22004KT 190V250 2400 BR FEW140 01/00 Q1030 YLO 22005KT 2500 MIFG NSC",
                "EHEH 300455Z AUTO 21005KT 4700 BR OVC130 01/01 Q1029 GRN",
                "EHEH 300425Z AUTO 22005KT 0550 FZFG BKN360 M00/M01 Q1030 RED",
                "EHEH 300355Z AUTO 24003KT 3900 BR OVC350 01/00 Q1030 GRN",
                "EHEH 300255Z AUTO 24006KT 9000 BR BKN340 01/01 Q1030 BLU",
                "EHEH 300225Z AUTO 23005KT 8000 BR OVC330 01/00 Q1030 BLU",
                "EHEH 300155Z AUTO 21005KT 5000 BR FEW230 OVC340 02/01 Q1030 WHT",
                "COR EHEH 300055Z AUTO 24005KT 9999 NSC 03/02 Q1030 BLU",
                "COR EHEH 300025Z AUTO 25004KT 9999 NSC 03/02 Q1030 BLU",
                "COR EHEH 292355Z AUTO 25006KT 9999 NSC 04/03 Q1029 BLU 25005KT 9999 FEW015",
                "COR EHEH 292325Z AUTO 24005KT 9999 NSC 03/02 Q1029 BLU 25005KT 9999 FEW015",
                "COR EHEH 292255Z AUTO 25005KT 9999 NSC 04/04 Q1029 BLU 25005KT 9999 FEW015",
                "COR EHEH 292225Z AUTO 25005KT 9999 NSC 05/04 Q1029 BLU 25005KT 9999 FEW015",
                "COR EHEH 292155Z AUTO 25006KT 220V290 9999 NSC 05/05 Q1028 BLU 25005KT 9999 FEW015",
                "EHEH 292055Z AUTO 28005KT 230V350 9999 SCT020 SCT024 07/05 Q1027 WHT 29008KT 9999 FEW015",
                "COR EHEH 292025Z AUTO 29006KT 240V360 9999 NSC 07/05 Q1027 BLU 29008KT 9999 FEW015",
                "COR EHEH 291955Z AUTO 30007KT 240V360 9999 NSC 07/06 Q1026 BLU 29008KT 9999 FEW015",
                "EHEH 290455Z AUTO 25016KT 210V280 9999 FEW017 BKN021 OVC024 11/07 Q1027 WHT",
                "EHEH 290425Z AUTO 24015KT 210V280 9999 BKN017 OVC021 11/07 Q1027 WHT",
                "EHEH 290355Z AUTO 24016KT 210V280 9999 SCT016 BKN019 OVC023 11/07 Q1027 WHT",
                "EHEH 290325Z AUTO 24017KT 180V290 9999 BKN016 OVC020 11/08 Q1027 WHT",
                "EHEH 290255Z AUTO 23015KT 190V270 9999 FEW014 BKN016 OVC020 10/08 Q1027 WHT",
                "EHEH 290225Z AUTO 23016KT 180V260 9999 FEW014 BKN017 OVC020 10/08 Q1028 WHT",
                "EHEH 290155Z AUTO 23015KT 190V270 9999 FEW008 SCT010 BKN012 10/09 Q1028 GRN",
                "EHEH 290125Z AUTO 22012KT 190V250 9999 SCT007 OVC008 10/09 Q1029 GRN",
                "EHEH 290055Z AUTO 22011KT 190V250 9999 BKN007 OVC009 10/09 Q1029 GRN",
                "EHEH 290025Z AUTO 23012KT 210V270 9999 SCT008 OVC009 10/09 Q1029 GRN",
                "EHEH 282355Z AUTO 23013KT 210V270 9999 SCT009 BKN010 OVC012 10/09 Q1029 GRN",
                "EHEH 282325Z AUTO 24016KT 210V270 9999 OVC010 11/09 Q1029 GRN",
                "EHEH 282255Z AUTO 24013KT 200V270 9999 FEW007 BKN010 OVC012 11/09 Q1030 GRN",
                "EHEH 282225Z AUTO 24014KT 220V280 9999 OVC010 11/09 Q1030 GRN",
                "EHEH 282155Z AUTO 23015KT 9999 OVC010 11/09 Q1030 GRN 23014KT 9999 BKN010 BKN012",
                "EHEH 281655Z AUTO 25014KT 210V280 9999 OVC012 11/09 Q1030 GRN 23013KT 9999 BKN012 BKN014",
                "EHEH 281555Z AUTO 24010KT 210V280 9999 OVC014 12/09 Q1030 GRN 23013KT 9999 BKN012 BKN014",
                "EHEH 281525Z AUTO 23013KT 210V270 9999 OVC015 12/09 Q1030 WHT 23014KT 9999 BKN016 BKN020",
                "EHEH 281455Z AUTO 24014KT 200V270 9999 OVC017 12/09 Q1029 WHT 23014KT 9999 BKN016 BKN020",
                "COR EHEH 281425Z AUTO 23013KT 210V270 9999 OVC018 12/09 Q1029 WHT 23014KT 9999 BKN016 BKN020",
                "EHEH 280525Z AUTO 23014KT 200V270 2600 BR OVC002 08/07 Q1028 AMB",
                "EHEH 280455Z AUTO 23014KT 3500 BR BKN003 OVC004 08/07 Q1028 YLO",
                "EHEH 280425Z AUTO 23013KT 190V270 6000 BR OVC004 07/07 Q1027 YLO",
                "EHEH 280355Z AUTO 22013KT 190V250 8000 BR OVC004 07/07 Q1027 YLO",
                "EHEH 280325Z AUTO 22013KT 190V250 2700 -RADZ BKN004 OVC006 07/06 Q1027 YLO",
                "EHEH 280255Z AUTO 22015KT 200V260 4300 DZ BKN005 OVC006 07/06 Q1027 YLO",
                "EHEH 280225Z AUTO 22015KT 190V250 4400 DZ BKN005 OVC006 07/06 Q1027 YLO",
                "EHEH 280155Z AUTO 22015KT 190V250 6000 BR OVC005 06/06 Q1027 YLO",
                "EHEH 280125Z AUTO 22016KT 190V260 8000 BR BKN005 OVC006 06/06 Q1027 YLO",
                "EHEH 280055Z AUTO 22018KT 6000 BR BKN005 OVC006 06/05 Q1026 YLO",
                "EHEH 280025Z AUTO 21017KT 190V250 3700 BR SCT005 BKN006 OVC008 06/05 Q1027 YLO",
                "EHEH 272355Z AUTO 22016KT 190V260 4200 -DZ FEW005 BKN006 OVC008 06/05 Q1027 REDZ YLO",
                "EHEH 272325Z AUTO 22017KT 190V250 2300 -RA FEW005 BKN006 BKN008 06/05 Q1027 RERA REDZ YLO",
                "EHEH 272255Z AUTO 21016KT 180V260 2400 DZ SCT005 BKN006 BKN008 05/05 Q1027 YLO",
                "EHEH 271925Z AUTO 21015KT 9999 -DZ OVC045 06/03 Q1027 BLU 21015G25KT 9999 SCT018 BKN020",
                "EHEH 271625Z AUTO 20011KT 170V230 9999 OVC200 06/03 Q1028 BLU 21012KT 9999 SCT018 BKN200",
                "EHEH 271555Z AUTO 20009KT 9999 OVC210 06/03 Q1029 BLU 21012KT 9999 SCT018 BKN200",
                "EHEH 271525Z AUTO 19009KT 9999 OVC230 06/03 Q1029 BLU 21012KT 9999 SCT018 BKN020",
                "EHEH 271455Z AUTO 20010KT 170V230 9999 OVC250 06/03 Q1029 BLU 21012KT 9999 SCT018 BKN020",
                "EHEH 271355Z AUTO 19012KT 9999 BKN017 07/03 Q1029 WHT 21012KT 9999 SCT018 BKN020",
                "EHEH 271325Z AUTO 21012KT 180V240 9999 BKN018 07/03 Q1029 WHT 21010KT 9999 BKN020",
                "EHEH 271255Z AUTO 19011KT 170V230 9999 FEW019 07/02 Q1029 BLU 21010KT 9999 SCT020",
                "EHEH 271225Z AUTO 20012KT 9999 SCT019 07/02 Q1030 WHT 21010KT 9999 BKN020",
                "EHEH 271155Z AUTO 21011KT 170V230 9999 BKN019 07/03 Q1030 WHT 21010KT 9999 BKN020",
                "EHEH 271125Z AUTO 22010KT 190V250 9999 OVC019 06/02 Q1031 WHT 21010KT 9999 BKN020",
                "EHEH 271055Z AUTO 21010KT 180V250 9999 OVC019 06/02 Q1031 WHT 21010KT 9999 BKN020",
                "EHEH 271025Z AUTO 22009KT 190V250 9999 OVC019 06/02 Q1031 WHT 21010KT 9999 BKN020",
                "EHEH 270955Z AUTO 22009KT 180V250 9999 OVC018 06/03 Q1030 WHT 20004KT 9999 BKN020",
                "EHEH 270925Z AUTO 22007KT 9999 OVC017 05/03 Q1031 WHT 20004KT 9999 BKN020",
                "EHEH 270855Z AUTO 23005KT 9999 OVC017 05/03 Q1030 WHT 20004KT 9999 BKN020",
                "EHEH 270825Z AUTO 19004KT 9999 OVC019 05/02 Q1030 WHT 20004KT 9999 BKN020",
                "COR EHEH 270755Z AUTO 19005KT 9999 OVC020 05/03 Q1030 WHT 20004KT 9999 BKN020",
                "EHEH 270725Z AUTO 19005KT 6000 BR FEW019 OVC022 05/03 Q1030 WHT 20004KT 6000 BR BKN020",
                "COR EHEH 270655Z AUTO 20003KT 6000 BR FEW018 OVC021 05/03 Q1030 WHT 20004KT 6000 BR BKN020",
                "EHEH 270625Z AUTO 23004KT 200V260 8000 BR OVC018 05/03 Q1030 WHT 25004KT 9999 OVC020",
                "EHEH 270555Z AUTO VRB02KT 9999 OVC018 04/03 Q1029 WHT 25004KT 9999 OVC020",
                "EHEH 270525Z AUTO 25003KT 210V270 9999 OVC017 04/03 Q1029 WHT",
                "COR EHEH 270455Z AUTO 25005KT 220V300 9999 OVC016 05/03 Q1029 WHT",
                "EHEH 261825Z AUTO 31004KT 4300 BR FEW045 SCT050 04/04 Q1023 GRN VRB02KT 5000 BR BKN040",
                "EHEH 261755Z AUTO 25001KT 4200 BR OVC043 05/04 Q1022 GRN VRB02KT 5000 BR BKN040",
                "EHEH 261725Z AUTO VRB01KT 6000 BR OVC041 05/04 Q1022 WHT VRB02KT 5000 BR BKN040",
                "EHEH 261655Z AUTO VRB01KT 9000 BR BKN040 BKN044 06/04 Q1021 BLU VRB02KT 5000 BR BKN040",
                "EHEH 261625Z AUTO VRB01KT 8000 BR OVC041 06/04 Q1021 BLU VRB02KT 8000 BR BKN040",
                "EHEH 260655Z AUTO 20003KT 4400 R21/0750D BR OVC180 04/04 Q1015 GRN 18005KT 4000 BR BKN150",
                "COR EHEH 260555Z AUTO 18004KT 5000 R21/2300N BR OVC150 04/04 Q1014 WHT 18005KT 4000 BR BKN150",
                "COR EHEH 260525Z AUTO 18006KT 4400 BR OVC150 05/04 Q1014 GRN 18005KT 4000 BR BKN150",
                "EHEH 260455Z AUTO 18006KT 3900 BR OVC150 05/04 Q1014 GRN",
                "EHEH 260425Z AUTO 19004KT 3100 BR OVC160 04/04 Q1014 YLO",
                "EHEH 260355Z AUTO 20004KT 2400 BR OVC170 04/04 Q1013 YLO",
                "EHEH 260325Z AUTO 19005KT 4300 BR OVC170 05/04 Q1013 GRN",
                "EHEH 260255Z AUTO 19004KT 5000 BR OVC170 05/04 Q1013 WHT",
                "EHEH 260225Z AUTO 17005KT 4800 BR OVC180 05/04 Q1013 GRN",
                "EHEH 260155Z AUTO 20003KT 4200 BR OVC200 05/04 Q1013 GRN",
                "EHEH 260125Z AUTO 18005KT 7000 BR OVC170 05/05 Q1013 WHT",
                "EHEH 260055Z AUTO 19005KT 8000 BR OVC140 06/05 Q1013 BLU",
                "EHEH 260025Z AUTO 19005KT 9000 BR FEW013 OVC140 06/05 Q1013 BLU",
                "EHEH 252355Z AUTO 19005KT 8000 BR FEW017 OVC130 06/05 Q1013 BLU",
                "EHEH 252325Z AUTO 18005KT 9000 BR OVC130 06/05 Q1013 BLU",
                "EHEH 252255Z AUTO 19006KT 9999 FEW026 OVC140 06/05 Q1013 BLU",
                "EHEH 252225Z AUTO 20006KT 9999 FEW015 OVC130 06/06 Q1012 BLU",
                "EHEH 252155Z AUTO 20005KT 9999 SCT024 OVC130 06/05 Q1012 WHT",
                "EHEH 252025Z AUTO 19005KT 9999 OVC140 07/06 Q1012 BLU 19006KT 9999 FEW015 SCT020 BKN040",
                "COR EHEH 250925Z AUTO 19008KT 9999 BKN017 OVC130 08/06 Q1012 WHT 22008KT 9999 FEW014 BKN100",
                "EHEH 250855Z AUTO 19007KT 9999 OVC140 07/06 Q1012 BLU 22008KT 9999 FEW014 BKN100",
                "EHEH 250825Z AUTO 20006KT 170V230 9999 OVC140 07/06 Q1012 BLU 22008KT 9999 FEW014 BKN100",
                "EHEH 250755Z AUTO 20006KT 9999 OVC110 07/06 Q1012 BLU 22008KT 9999 FEW014 BKN100",
                "EHEH 250725Z AUTO 20008KT 9999 OVC110 07/06 Q1011 BLU 22008KT 9999 FEW014 BKN180",
                "COR EHEH 250655Z AUTO 20008KT 9999 OVC120 07/06 Q1012 BLU 22008KT 9999 FEW014 BKN180",
                "EHEH 250555Z AUTO 20008KT 9999 OVC180 07/06 Q1011 BLU 22008KT 9999 FEW014 BKN180",
                "EHEH 250525Z AUTO 21008KT 9999 FEW012 OVC180 07/06 Q1011 BLU 22008KT 9999 FEW014 BKN180",
                "EHEH 250455Z AUTO 21008KT 190V250 9999 OVC170 07/06 Q1011 BLU",
                "EHEH 250425Z AUTO 20009KT 9999 SCT016 OVC170 07/05 Q1011 WHT",
                "COR EHEH 250355Z AUTO 20008KT 9999 OVC170 07/05 Q1011 BLU",
                "COR EHEH 250325Z AUTO 20009KT 9999 BKN033 OVC170 07/05 Q1011 BLU",
                "EHEH 250255Z AUTO 20010KT 9999 FEW028 SCT031 BKN040 08/06 Q1011 REDZ BLU",
                "COR EHEH 250225Z AUTO 21010KT 9999 -DZ FEW050 SCT058 BKN067 08/06 Q1011 REDZ BLU",
                "EHEH 250155Z AUTO 22011KT 190V250 9999 DZ FEW031 OVC063 08/07 Q1011 BLU",
                "EHEH 250125Z AUTO 22011KT 190V250 9999 DZRA FEW008 SCT048 OVC059 08/07 Q1011 BLU",
                "EHEH 250055Z AUTO 23010KT 200V260 9999 FEW008 SCT010 OVC050 08/07 Q1010 GRN",
                "EHEH 250025Z AUTO 23010KT 190V260 9999 FEW009 BKN044 OVC050 08/07 Q1011 BLU",
                "EHEH 242355Z AUTO 23009KT 200V260 9999 FEW010 OVC044 08/07 Q1010 BLU",
                "EHEH 242325Z AUTO 24008KT 200V270 9999 -DZ BKN036 OVC041 08/07 Q1010 REDZ BLU",
                "EHEH 242255Z AUTO 26010KT 220V300 8000 +DZ FEW007 FEW015CB BKN025 OVC030 08/07 Q1010 BLU",
                "EHEH 242225Z AUTO 28011KT 240V320 5000 DZ FEW008 OVC021 08/07 Q1010 WHT",
                "EHEH 242155Z AUTO 27018KT 200V310 9999 -RADZ SCT018 OVC022 11/08 Q1009 WHT",
                "EHEH 241055Z AUTO 20018KT 9999 OVC016 14/10 Q1013 WHT 20017G32KT 9999 SCT015 BKN018",
                "EHEH 240525Z AUTO 20011KT 170V230 9999 SCT010 OVC012 12/10 Q1016 GRN",
                "EHEH 240455Z AUTO 20012KT 160V230 9999 BKN014 BKN017 OVC020 12/10 Q1016 GRN",
                "EHEH 240425Z AUTO 21014KT 180V240 9999 SCT014 OVC016 13/10 Q1016 GRN",
                "EHEH 240355Z AUTO 21014KT 9999 BKN012 OVC014 12/11 Q1016 GRN",
                "EHEH 240325Z AUTO 21013KT 9999 SCT010 OVC013 12/11 Q1016 GRN",
                "EHEH 240255Z AUTO 21013KT 180V240 9999 FEW009 BKN010 OVC013 12/11 Q1017 REDZ GRN",
                "EHEH 240225Z AUTO 21012KT 180V240 9999 FEW009 OVC011 12/11 Q1017 GRN",
                "EHEH 240155Z AUTO 22011KT 190V250 9999 BKN011 BKN013 OVC015 12/10 Q1017 GRN",
                "EHEH 240125Z AUTO 22011KT 190V260 9999 FEW011 BKN013 OVC015 12/10 Q1017 GRN",
                "EHEH 240055Z AUTO 22012KT 190V260 9999 SCT008 BKN009 OVC011 12/10 Q1017 GRN",
                "EHEH 240025Z AUTO 22014KT 190V250 9999 FEW007 BKN012 OVC015 12/10 Q1017 GRN",
                "EHEH 232355Z AUTO 22014KT 190V250 7000 BR FEW008 BKN011 BKN013 11/10 Q1017 GRN",
                "EHEH 232325Z AUTO 22015KT 190V260 9999 BKN012 OVC014 12/10 Q1017 GRN",
                "EHEH 232255Z AUTO 22014KT 190V250 9999 BKN010 OVC012 11/10 Q1017 GRN",
                "EHEH 232225Z AUTO 21016KT 9999 FEW008 BKN010 OVC013 11/10 Q1017 GRN",
                "EHEH 232155Z AUTO 21015KT 170V240 7000 BR FEW007 BKN009 BKN010 11/09 Q1017 GRN",
                "EHEH 231155Z AUTO 20012KT 160V230 9999 BKN036 OVC170 10/05 Q1020 BLU 21010KT 9999 FEW038",
                "COR EHEH 231125Z AUTO 20010KT 9999 OVC036 10/06 Q1021 BLU 21010KT 9999 SCT038",
                "EHEH 231055Z AUTO 20010KT 9999 OVC035 09/06 Q1021 BLU 21010KT 9999 OVC038",
                "EHEH 231025Z AUTO 19010KT 150V230 9999 OVC037 09/06 Q1021 BLU 21010KT 9999 OVC038",
                "COR EHEH 230955Z AUTO 20009KT 9999 OVC038 08/05 Q1021 BLU 21010KT 9999 OVC038",
                "EHEH 230925Z AUTO 19010KT 9999 OVC033 08/05 Q1021 BLU 21010KT 9999 OVC030",
                "EHEH 230855Z AUTO 19009KT 9999 OVC032 07/04 Q1021 BLU 21010KT 9999 OVC030",
                "COR EHEH 230825Z AUTO 20010KT 9999 OVC030 07/04 Q1021 BLU 21010KT 9999 OVC030",
                "EHEH 230755Z AUTO 20009KT 9999 BKN030 OVC034 07/04 Q1021 BLU 21008KT 9999 OVC037",
                "EHEH 230725Z AUTO 20008KT 170V230 9999 OVC032 07/04 Q1021 BLU 21008KT 9999 OVC037",
                "EHEH 230655Z AUTO 20008KT 170V230 9999 OVC036 07/04 Q1020 BLU 21008KT 9999 OVC037",
                "EHEH 230625Z AUTO 21008KT 9999 OVC037 07/04 Q1020 BLU 21008KT 9999 OVC037",
                "EHEH 230555Z AUTO 21007KT 9999 OVC036 07/04 Q1020 BLU 21008KT 9999 OVC037",
                "EHEH 230525Z AUTO 21007KT 9999 OVC037 07/04 Q1020 BLU 21008KT 9999 OVC037",
                "COR EHEH 230355Z AUTO 22005KT 9999 OVC040 06/04 Q1020 BLU",
                "EHEH 230125Z AUTO 24007KT 210V270 9999 BKN031 OVC041 07/05 Q1019 BLU",
                "EHEH 230055Z AUTO 24008KT 210V290 9999 FEW037 OVC041 07/05 Q1019 BLU",
                "EHEH 230025Z AUTO 25007KT 210V270 9999 SCT033 SCT038 OVC044 07/05 Q1019 BLU",
                "EHEH 222355Z AUTO 24007KT 9999 SCT034 BKN043 OVC047 07/05 Q1019 BLU",
                "EHEH 222325Z AUTO 24007KT 9999 BKN032 BKN039 OVC046 07/05 Q1018 BLU",
                "EHEH 222255Z AUTO 24007KT 9999 BKN032 OVC037 07/05 Q1018 BLU",
                "EHEH 222225Z AUTO 25007KT 210V270 9999 FEW027 SCT034 OVC038 07/05 Q1018 BLU",
                "EHEH 221325Z AUTO 27007KT 240V320 9999 OVC048 09/06 Q1008 BLU 28008KT 9999 FEW012 BKN050",
                "EHEH 221255Z AUTO 28006KT 230V330 9999 OVC048 09/06 Q1008 BLU 28008KT 9999 FEW012 BKN050",
                "EHEH 221125Z AUTO 27008KT 240V320 9999 OVC053 09/07 Q1008 BLU 26009KT 9999 BKN048",
                "EHEH 221055Z AUTO 27007KT 240V310 9999 OVC052 09/07 Q1007 BLU 26009KT 9999 BKN048",
                "COR EHEH 221025Z AUTO 27006KT 240V300 9999 FEW048 OVC053 08/07 Q1007 BLU 26009KT 9999 BKN048",
                "COR EHEH 220955Z AUTO 26006KT 220V300 9999 OVC052 08/07 Q1007 BLU 26009KT 9999 BKN048",
                "EHEH 220925Z AUTO 26006KT 230V300 9999 OVC053 08/06 Q1007 BLU 26009KT 9999 BKN048",
                "EHEH 220855Z AUTO 26005KT 220V290 9999 OVC052 08/07 Q1006 BLU 26009KT 9999 BKN048",
                "EHEH 220525Z AUTO 25010KT 220V300 5000 BR BKN003 OVC004 07/06 Q1005 REDZ YLO",
                "COR EHEH 220455Z AUTO 23009KT 3200 BR SCT003 BKN004 OVC005 06/05 Q1004 YLO",
                "EHEH 220425Z AUTO 20006KT 2800 -DZ BKN002 OVC003 04/04 Q1005 REDZ AMB",
                "EHEH 220355Z AUTO 19006KT 3300 BR FEW001 BKN003 OVC004 04/03 Q1005 REDZ YLO",
                "EHEH 220325Z AUTO 17005KT 2200 -RADZ FEW002 BKN003 OVC004 03/03 Q1005 YLO",
                "EHEH 220155Z AUTO 16008KT 130V190 3600 -DZ SCT003 BKN004 OVC005 02/02 Q1006 YLO",
                "EHEH 220125Z AUTO 15008KT 110V180 3200 DZ FEW004 SCT006 BKN007 02/02 Q1006 YLO",
                "EHEH 220055Z AUTO 17007KT 110V230 2800 +DZ SCT003 BKN004 BKN007 02/02 Q1007 YLO",
                "EHEH 220025Z AUTO 14009KT 2500 BR FEW004 SCT005 BKN006 02/01 Q1007 YLO",
                "EHEH 212355Z AUTO 14009KT 100V170 6000 BR FEW004 BKN006 BKN007 02/01 Q1008 YLO",
                "EHEH 212325Z AUTO 14010KT 100V170 8000 -DZ FEW004 SCT005 BKN007 02/01 Q1008 YLO",
                "EHEH 212255Z AUTO 13010KT 5000 -RA SCT004 BKN006 OVC007 02/01 Q1009 YLO",
                "COR EHEH 212225Z AUTO 13008KT 090V160 9000 -RA SCT005 BKN007 OVC009 02/01 Q1010 YLO",
                "COR EHEH 212155Z AUTO 14009KT 110V200 7000 -RA SCT007 BKN008 BKN010 02/01 Q1010 GRN",
                "EHEH 211725Z AUTO 16006KT 9999 BKN078 OVC110 04/02 Q1014 BLU 16006KT CAVOK",
                "EHEH 211655Z AUTO 17006KT 140V200 9999 SCT081 OVC092 04/02 Q1015 BLU 16006KT CAVOK",
                "COR EHEH 211625Z AUTO 17006KT 130V200 9999 OVC080 04/02 Q1015 BLU 16006KT CAVOK",
                "EHEH 211525Z AUTO 17005KT 9999 BKN091 OVC096 04/02 Q1016 BLU 23006KT 9999 FEW018 SCT220",
                "EHEH 211455Z AUTO 20005KT 160V220 9999 OVC100 05/02 Q1016 BLU 23006KT 9999 FEW018 SCT220",
                "EHEH 211425Z AUTO 21006KT 9999 BKN043 OVC140 05/02 Q1016 BLU 23006KT 9999 FEW018 SCT220",
                "EHEH 211355Z AUTO 22007KT 180V240 9999 OVC040 05/02 Q1016 BLU 23006KT 9999 FEW018 SCT220",
                "EHEH 211225Z AUTO 24006KT 200V270 9999 OVC220 06/03 Q1016 BLU 23006KT 9999 FEW018 SCT220",
                "EHEH 211155Z AUTO 24006KT 170V270 9999 BKN220 05/02 Q1016 BLU 23006KT 9999 FEW025 SCT220",
                "EHEH 211125Z AUTO 22006KT 200V280 9999 BKN120 BKN190 04/02 Q1016 BLU 22005KT CAVOK",
                "EHEH 211055Z AUTO 23005KT 9999 OVC120 04/02 Q1016 BLU 24005KT CAVOK",
                "EHEH 211025Z AUTO 23006KT 210V270 9999 OVC120 03/01 Q1016 BLU 24005KT CAVOK",
                "EHEH 210955Z AUTO 24006KT 220V280 9999 OVC120 02/01 Q1016 BLU 24005KT 9999 FEW025 BKN140",
                "EHEH 210925Z AUTO 24005KT 210V280 9999 OVC130 02/00 Q1015 BLU 24005KT 9999 FEW025 BKN140",
                "EHEH 210855Z AUTO 24005KT 9999 OVC140 01/M00 Q1015 BLU 24005KT 9999 FEW025 BKN140",
                "EHEH 210825Z AUTO 25005KT 9999 OVC140 01/M00 Q1014 BLU 25004KT 9999 FEW025 BKN160",
                "EHEH 210755Z AUTO 25004KT 9999 OVC170 M01/M02 Q1014 BLU 25004KT 9999 FEW025 BKN160",
                "EHEH 210725Z AUTO 25005KT 9999 SCT200 M01/M02 Q1014 BLU 26006KT 9999 SCT025",
                "COR EHEH 210655Z AUTO 26004KT 9999 NSC M01/M02 Q1013 BLU 26006KT 9999 SCT025",
                "EHEH 210625Z AUTO 26005KT 230V290 9999 FEW029 M00/M01 Q1013 BLU 26006KT 9999 SCT025",
                "COR EHEH 210555Z AUTO 26005KT 9999 NSC M00/M01 Q1012 BLU 26006KT 9999 SCT025",
                "COR EHEH 210525Z AUTO 26006KT 230V300 9999 NSC M00/M01 Q1012 BLU 26006KT 9999 SCT025",
                "COR EHEH 210455Z AUTO 25005KT 230V300 9999 NCD 00/M01 Q1011 BLU",
                "COR EHEH 210425Z AUTO 28005KT 240V320 9999 NCD 01/00 Q1011 BLU",
                "COR EHEH 210355Z AUTO 26006KT 230V300 9999 NCD 01/00 Q1010 BLU",
                "COR EHEH 210325Z AUTO 25006KT 8000 BR NSC 01/00 Q1010 BLU",
                "EHEH 210255Z AUTO 26006KT 8000 BR SCT280 01/00 Q1009 BLU",
                "EHEH 210225Z AUTO 26006KT 230V290 6000 BR FEW028 01/01 Q1009 WHT",
                "COR EHEH 210155Z AUTO 25006KT 220V290 3400 BR NSC 01/01 Q1008 YLO",
                "COR EHEH 210125Z AUTO 26005KT 3600 BR NSC 02/01 Q1007 YLO",
                "EHEH 210055Z AUTO 26005KT 230V290 3500 BR FEW005 BKN040 BKN045 02/01 Q1007 YLO",
                "EHEH 202355Z AUTO 28004KT 240V350 8000 BR BKN016 BKN026 OVC044 02/02 Q1005 WHT",
                "EHEH 202325Z AUTO 30005KT 250V350 6000 -DZ FEW006 SCT007 BKN033 03/02 Q1005 GRN",
                "EHEH 202255Z AUTO 28004KT 250V350 3700 -DZ SCT005 OVC006 02/02 Q1004 YLO",
                "EHEH 202225Z AUTO 31003KT 270V350 3000 -DZ SCT006 BKN008 BKN010 02/02 Q1004 YLO",
                "EHEH 200825Z AUTO 20008KT 9999 OVC006 02/01 Q1005 YLO 18007KT 9999 BKN006 BKN009 OVC020",
                "EHEH 200655Z AUTO 17006KT 130V190 9999 OVC220 01/00 Q1006 BLACKBLU 18007KT CAVOK",
                "EHEH 200625Z AUTO 19007KT 9999 OVC230 01/00 Q1006 BLU 19009KT CAVOK",
                "EHEH 200555Z AUTO 19008KT 9999 OVC220 01/00 Q1006 BLU 19009KT CAVOK",
                "COR EHEH 200525Z AUTO 20009KT 9999 NSC 01/00 Q1007 BLU 19009KT CAVOK",
                "COR EHEH 200455Z AUTO 20008KT 9999 NSC 01/00 Q1007 BLU",
                "COR EHEH 200325Z AUTO 21008KT 9999 NSC 01/00 Q1008 BLU",
                "COR EHEH 200255Z AUTO 21008KT 9999 NSC 01/00 Q1008 BLU",
                "EHEH 200225Z AUTO 20008KT 9999 FEW015CB 01/00 Q1008 BLU",
                "EHEH 200155Z AUTO 20010KT 9999 FEW028 OVC032 02/01 Q1008 BLU",
                "EHEH 200125Z AUTO 19008KT 9999 FEW025 SCT031 BKN036 02/01 Q1008 BLU",
                "EHEH 200055Z AUTO 20009KT 9999 FEW015CB SCT051 BKN057 02/01 Q1008 BLU",
                "EHEH 200025Z AUTO 18008KT 9999 FEW015CB SCT033 01/00 Q1009 BLU",
                "EHEH 192355Z AUTO 19005KT 9000 -RADZ FEW015CB BKN043 BKN048 01/00 Q1009 RESNRA BLU",
                "EHEH 192255Z AUTO 28007KT 230V310 2100 SHSNRA FEW006 BKN010 OVC013 01/00 Q1009 YLO",
                "EHEH 192025Z AUTO 22009KT 9999 SCT170 01/M01 Q1008 BLU 22008KT CAVOK TEMPO FEW012 SCT017CB",
                "COR EHEH 191955Z AUTO 21006KT 9999 BKN140 01/M01 Q1008 BLU 22008KT CAVOK TEMPO FEW012 SCT017CB",
                "EHEH 190925Z AUTO 22010KT 9999 SCT018 03/02 Q1008 WHT 24010KT 9999 FEW016 SCT020",
                "EHEH 190455Z AUTO 26009KT 220V300 9999 FEW008 SCT009 BKN011 FEW015CB 03/02 Q1005 GRN",
                "EHEH 190425Z AUTO 25006KT 220V280 9999 BKN014 BKN016 BKN020 03/02 Q1005 GRN",
                "EHEH 190355Z AUTO 25009KT 220V290 6000 -RA FEW007 SCT010 BKN015CB 03/02 Q1005 RERA GRN",
                "EHEH 190325Z AUTO 24008KT 210V270 9999 SCT017 BKN022 02/02 Q1004 WHT",
                "EHEH 190225Z AUTO 24010KT 200V270 9999 FEW005 SCT009 BKN022 03/02 Q1004 GRN",
                "EHEH 190155Z AUTO 25006KT 200V280 8000 BR FEW006 SCT008 BKN009 FEW015CB 03/02 Q1004 GRN",
                "EHEH 190125Z AUTO 23006KT 9999 FEW006 SCT007 BKN009 03/02 Q1003 GRN",
                "EHEH 190055Z AUTO 23009KT 210V270 4300 SHRA FEW013 SCT018 BKN033 03/02 Q1003 REDZ GRN",
                "EHEH 190025Z AUTO 25005KT 210V270 9000 -DZ SCT011 BKN015CB BKN032 02/02 Q1003 GRN",
                "EHEH 182355Z AUTO 25011KT 220V320 3600 RA FEW007 SCT015CB OVC018 02/01 Q1003 RERA REDZ YLO",
                "EHEH 182325Z AUTO 23011KT 200V260 9999 FEW007 SCT008 BKN029 03/02 Q1003 GRN",
                "EHEH 182255Z AUTO 23009KT 9999 SCT027 BKN031 BKN048 03/02 Q1002 BLU",
                "EHEH 182225Z AUTO 23008KT 9999 SCT029 BKN060 OVC140 03/02 Q1002 BLU",
                "EHEH 182155Z AUTO 24009KT 200V290 9999 -RA SCT034 BKN039 BKN050 04/02 Q1002 RERA REDZ BLU",
                "EHEH 180455Z AUTO 21019KT 180V240 6000 -RA SCT006 BKN008 BKN010 05/04 Q0992 RERA REDZ YLO",
                "EHEH 180425Z AUTO 18017G27KT 150V220 5000 DZRA FEW006 SCT007 BKN011 04/03 Q0993 REDZ GRN",
                "EHEH 180355Z AUTO 19016KT 160V220 6000 +DZ FEW007 BKN008 BKN009 04/03 Q0995 GRN",
                "EHEH 180325Z AUTO 19016KT 160V220 6000 -SHRA FEW007 SCT008 BKN010 04/02 Q0997 GRN",
                "EHEH 180255Z AUTO 19013KT 150V230 9000 SHRA FEW008 BKN010 OVC013 04/03 Q0999 GRN",
                "EHEH 180225Z AUTO 20014KT 160V230 9999 -RA FEW008 SCT012 BKN014 04/03 Q1000 GRN",
                "EHEH 180155Z AUTO 19011KT 160V220 9999 -RA BKN016 OVC019 04/02 Q1002 RERA REDZ WHT",
                "EHEH 180125Z AUTO 19010KT 9999 -DZ FEW026 SCT033 BKN038 05/01 Q1002 BLU",
                "EHEH 180055Z AUTO 20012KT 9999 FEW072 SCT091 BKN099 05/01 Q1003 BLU",
                "EHEH 180025Z AUTO 22012KT 9999 SCT089 BKN095 OVC110 04/01 Q1004 BLU",
                "EHEH 172355Z AUTO 22012KT 9999 FEW057 BKN099 OVC100 04/01 Q1005 BLU",
                "EHEH 172325Z AUTO 22012KT 200V260 9999 OVC110 04/01 Q1006 BLU",
                "EHEH 172225Z AUTO 22011KT 190V250 9999 OVC130 04/00 Q1006 BLU",
                "EHEH 170455Z AUTO 25014KT 210V280 5000 -RA FEW017 SCT025 BKN030 02/00 Q0995 WHT",
                "EHEH 170425Z AUTO 24014KT 210V280 9999 -RA FEW020 SCT055 BKN062 02/00 Q0994 RERA REDZ BLU",
                "EHEH 170325Z AUTO 24011KT 210V270 9999 -UP FEW022 SCT027 BKN034 03/01 Q0993 BLU",
                "EHEH 170255Z AUTO 25010KT 210V270 9999 -UP SCT021 BKN025 BKN030 03/01 Q0993 WHT",
                "EHEH 170225Z AUTO 26010KT 230V330 9999 -RA FEW017 BKN023 BKN028 03/01 Q0993 RERA REDZ WHT",
                "EHEH 170155Z AUTO 25016KT 220V310 9999 -RADZ FEW015CB SCT027 BKN037 03/01 Q0992 BLU",
                "EHEH 170125Z AUTO 25012KT 220V310 9999 FEW021 SCT057 BKN064 03/01 Q0992 BLU",
                "EHEH 170055Z AUTO 26013KT 220V280 9999 FEW015CB BKN026 OVC030 03/01 Q0992 BLU",
                "EHEH 170025Z AUTO 28013KT 220V340 7000 SHRA FEW000 BKN013 BKN015CB 03/01 Q0992 GRN",
                "EHEH 162355Z AUTO 23010KT 190V260 9999 +DZRA FEW016 SCT021 BKN024 04/02 Q0992 WHT",
                "EHEH 162325Z AUTO 21012KT 190V250 9999 -RA FEW027 SCT031 BKN036 04/02 Q0992 BLU",
                "EHEH 162255Z AUTO 21011KT 9999 FEW026 SCT110 04/01 Q0992 BLU",
                "EHEH 162225Z AUTO 22013KT 9999 FEW028 OVC160 04/01 Q0992 BLU",
                "COR EHEH 162155Z AUTO 22013KT 200V260 9999 FEW083 BKN096 OVC100 04/01 Q0993 BLU 22010KT CAVOK",
                "EHEH 162125Z AUTO 23013KT 9999 OVC110 04/01 Q0993 BLU 22010KT CAVOK",
                "COR EHEH 162055Z AUTO 22012KT 9999 OVC130 03/01 Q0993 BLU 22010KT CAVOK",
                "EHEH 162025Z AUTO 21008KT 9999 FEW041 OVC140 03/01 Q0993 BLU 22010KT 9999 FEW040 BKN160",
                "EHEH 161855Z AUTO 21008KT 9999 FEW048 02/00 Q0994 BLU 24011KT 9999 SCT020 SCT040",
                "EHEH 161825Z AUTO 23009KT 9999 FEW039 BKN150 02/00 Q0994 BLU 24011KT 9999 SCT020 SCT040",
                "COR EHEH 161755Z AUTO 23010KT 9999 FEW015CB 03/01 Q0994 BLU 24011KT 9999 SCT020 SCT040",
                "EHEH 160455Z AUTO 23013KT 190V270 9999 DZ BKN017 BKN021 OVC030 06/04 Q0991 WHT",
                "EHEH 160425Z AUTO 23015KT 200V260 9999 FEW015CB SCT024 OVC110 06/04 Q0991 REDZ WHT",
                "COR EHEH 160355Z AUTO 23015KT 200V260 9999 -UP FEW019 SCT025 BKN032 07/04 Q0991 BLU",
                "EHEH 160325Z AUTO 23014KT 200V260 9999 SCT022 BKN025 BKN029 06/04 Q0992 WHT",
                "EHEH 160255Z AUTO 22012KT 190V270 9999 FEW015CB BKN020 BKN027 BKN030 06/04 Q0992 WHT",
                "EHEH 160225Z AUTO 22011KT 190V250 9999 FEW018 SCT021 BKN026 06/04 Q0992 WHT",
                "EHEH 160155Z AUTO 23012KT 9999 BKN016 OVC019 06/04 Q0993 WHT",
                "EHEH 160125Z AUTO 22009KT 9999 SCT014 OVC016 06/05 Q0993 GRN",
                "EHEH 160055Z AUTO 24015KT 200V290 9999 -RA FEW001 FEW015CB SCT023 BKN028 06/05 Q0993 RERA WHT",
                "EHEH 160025Z AUTO 24010KT 9999 SCT074 BKN080 06/04 Q0993 REDZ BLU",
                "EHEH 152355Z AUTO 23012KT 200V260 9999 DZ FEW014 SCT045 OVC071 06/05 Q0994 BLU",
                "EHEH 152325Z AUTO 24013KT 210V280 9999 FEW077 06/05 Q0993 BLU",
                "EHEH 152255Z AUTO 24011KT 200V270 9999 BKN036 OVC068 07/05 Q0993 BLU",
                "EHEH 152225Z AUTO 24010KT 210V270 9999 FEW015CB BKN021 07/05 Q0992 WHT",
                "EHEH 150925Z AUTO 18012KT 160V220 9999 FEW012 OVC015 05/03 Q1008 WHT 20010KT 9999 OVC010",
                "COR EHEH 150855Z AUTO 20011KT 170V230 9999 OVC011 05/03 Q1009 GRN 20010KT 9999 OVC010",
                "EHEH 150625Z AUTO 20010KT 170V230 9999 OVC011 05/03 Q1011 GRN 19010KT 9999 SCT012 BKN015",
                "EHEH 150555Z AUTO 19008KT 9999 OVC013 05/02 Q1011 GRN 19010KT 9999 SCT012 BKN015",
                "EHEH 150525Z AUTO 19009KT 160V220 9999 OVC013 05/02 Q1012 GRN",
                "EHEH 150455Z AUTO 18010KT 130V210 9999 OVC014 04/02 Q1012 GRN",
                "EHEH 150255Z AUTO 16006KT 9999 FEW018 OVC025 02/00 Q1014 BLU",
                "EHEH 150225Z AUTO 16006KT 9000 BR OVC028 02/00 Q1015 BLU",
                "COR EHEH 150155Z AUTO 17005KT 150V210 8000 BR OVC029 01/M00 Q1015 BLU",
                "EHEH 150125Z AUTO 16007KT 8000 BR FEW029 00/M01 Q1015 BLU",
                "EHEH 150055Z AUTO 17007KT 140V220 8000 BR FEW290 01/M01 Q1016 BLU",
                "EHEH 150025Z AUTO 17006KT 150V210 7000 BR BKN150 01/M01 Q1016 WHT",
                "COR EHEH 142355Z AUTO 16006KT 120V190 7000 BR NCD 01/M01 Q1017 WHT",
                "COR EHEH 142325Z AUTO 16006KT 7000 BR NSC 01/M00 Q1017 WHT",
                "EHEH 142255Z AUTO 16005KT 7000 BR SCT150 01/M01 Q1018 WHT",
                "EHEH 142225Z AUTO 16005KT 7000 BR OVC140 01/M00 Q1018 WHT",
                "EHEH 142155Z AUTO 15006KT 110V170 7000 BR OVC150 01/M00 Q1018 WHT 16006KT 8000 NSC",
                "EHEH 142125Z AUTO 15005KT 120V230 7000 BR OVC130 01/M00 Q1018 WHT 16006KT CAVOK",
                "EHEH 142055Z AUTO 15006KT 130V230 7000 BR OVC130 01/M00 Q1018 WHT 16006KT CAVOK",
                "EHEH 142025Z AUTO 15006KT 110V200 7000 BR SCT150 02/M00 Q1018 WHT 13006KT CAVOK",
                "EHEH 141955Z AUTO 14007KT 8000 BR OVC140 02/M00 Q1018 BLU 13006KT CAVOK",
                "EHEH 141925Z AUTO 13006KT 110V190 9000 BR BKN150 02/M00 Q1018 BLU 13006KT CAVOK",
                "EHEH 141855Z AUTO 14005KT 090V220 9000 BR SCT150 02/M00 Q1018 BLU 13006KT CAVOK",
                "COR EHEH 141825Z AUTO 13005KT 100V180 9999 NSC 02/M00 Q1018 BLU 12006KT CAVOK",
                "COR EHEH 141755Z AUTO 12005KT 9999 NCD 03/00 Q1019 BLU 12006KT CAVOK",
                "COR EHEH 141725Z AUTO 11005KT 080V180 9999 NSC 03/00 Q1019 BLU 12006KT CAVOK",
                "COR EHEH 141655Z AUTO 11005KT 080V200 9999 NSC 04/00 Q1019 BLU 12008KT CAVOK",
                "COR EHEH 141625Z AUTO 12005KT 050V200 9999 NSC 04/01 Q1019 BLU 12008KT CAVOK",
                "COR EHEH 141555Z AUTO 11005KT 080V210 9999 NSC 04/01 Q1019 BLU 12008KT CAVOK",
                "COR EHEH 141525Z AUTO 12006KT 090V190 9999 NSC 05/01 Q1019 BLU 12008KT CAVOK",
                "COR EHEH 141455Z AUTO 11006KT 060V200 9999 NCD 05/01 Q1019 BLU 12008KT CAVOK",
                "COR EHEH 141425Z AUTO 12007KT 090V190 9999 NSC 06/01 Q1019 BLU 12008KT CAVOK",
                "COR EHEH 141355Z AUTO 12009KT 080V170 9999 NSC 06/01 Q1019 BLU 12008KT CAVOK",
                "COR EHEH 141325Z AUTO 13008KT 060V220 9999 NCD 06/01 Q1019 BLU 12008KT CAVOK",
                "COR EHEH 141255Z AUTO 12007KT 080V150 9999 NSC 06/01 Q1019 BLU 12008KT CAVOK",
                "COR EHEH 141225Z AUTO 13008KT 070V150 9999 NSC 06/01 Q1019 BLU 12008KT CAVOK",
                "COR EHEH 141155Z AUTO 12009KT 080V150 9999 NSC 05/01 Q1020 BLU 12008KT CAVOK",
                "COR EHEH 141125Z AUTO 12009KT 080V160 9999 NSC 05/01 Q1020 BLU 12008KT CAVOK",
                "COR EHEH 141055Z AUTO 12011KT 040V150 9999 NSC 05/00 Q1020 BLU 12008KT CAVOK",
                "COR EHEH 141025Z AUTO 12009KT 050V160 9999 NSC 04/00 Q1020 BLU 11008KT CAVOK",
                "COR EHEH 140955Z AUTO 11008KT 060V140 9999 NSC 04/M00 Q1020 BLU 09008KT CAVOK",
                "COR EHEH 140925Z AUTO 10007KT 050V160 9999 NSC 04/M00 Q1020 BLU 09008KT CAVOK",
                "COR EHEH 140855Z AUTO 09008KT 060V130 9999 NSC 03/M01 Q1020 BLU 09008KT CAVOK",
                "COR EHEH 140825Z AUTO 09006KT 060V140 9999 NCD 03/M01 Q1020 BLU 09008KT CAVOK",
                "COR EHEH 140755Z AUTO 08007KT 060V120 9999 NSC 03/M01 Q1020 BLU 09008KT CAVOK",
                "COR EHEH 140725Z AUTO 08006KT 360V130 9999 NSC 03/M01 Q1020 BLU 09008KT CAVOK",
                "COR EHEH 140655Z AUTO VRB07KT 9999 NSC 03/M01 Q1020 BLU 09008KT CAVOK",
                "COR EHEH 140625Z AUTO 09007KT 040V140 9999 NCD 03/M00 Q1020 BLU 09008KT CAVOK",
                "COR EHEH 140555Z AUTO 09007KT 060V120 9999 NCD 04/M00 Q1020 BLU 09008KT CAVOK",
                "COR EHEH 140525Z AUTO 08006KT 050V120 9999 NSC 04/M00 Q1020 BLU 09008KT CAVOK",
                "EHEH 140425Z AUTO 09007KT 060V120 9999 SCT030 04/00 Q1020 BLU",
                "EHEH 140355Z AUTO 08007KT 060V120 9999 OVC031 04/00 Q1020 BLU",
                "EHEH 140325Z AUTO 08007KT 050V130 9999 OVC033 05/00 Q1020 BLU",
                "EHEH 140255Z AUTO 08007KT 060V120 9999 OVC031 05/00 Q1020 BLU",
                "EHEH 140225Z AUTO 08007KT 050V110 9999 OVC030 05/00 Q1020 BLU",
                "EHEH 140155Z AUTO 08006KT 040V110 9999 OVC028 05/00 Q1020 BLU",
                "EHEH 140055Z AUTO 07008KT 040V110 9999 OVC027 05/00 Q1021 BLU",
                "EHEH 140025Z AUTO 07007KT 040V100 9999 OVC027 05/00 Q1021 BLU",
                "EHEH 132355Z AUTO 08007KT 040V100 9999 OVC027 05/00 Q1021 BLU",
                "EHEH 132325Z AUTO 08006KT 040V110 9999 OVC028 05/00 Q1021 BLU",
                "EHEH 132255Z AUTO 08007KT 040V100 9999 OVC029 05/00 Q1021 BLU",
                "EHEH 132225Z AUTO 07007KT 050V110 9999 OVC029 05/00 Q1021 BLU",
                "EHEH 132155Z AUTO 07007KT 050V110 9999 OVC030 05/00 Q1022 BLU 09007KT 9999 BKN025",
                "EHEH 132125Z AUTO 07007KT 050V120 9999 OVC030 04/M00 Q1022 BLU 09007KT 9999 BKN025",
                "EHEH 132055Z AUTO 08006KT 050V120 9999 SCT033 04/M00 Q1022 BLU 11007KT 9999 BKN025",
                "EHEH 132025Z AUTO 10005KT 060V120 9999 OVC028 04/M00 Q1022 BLU 11007KT 9999 BKN025",
                "EHEH 131955Z AUTO 10005KT 070V150 9999 SCT029 04/M00 Q1022 BLU 11007KT 9999 BKN025",
                "COR EHEH 131925Z AUTO 10006KT 050V120 9999 NSC 04/M00 Q1022 BLU 11007KT 9999 BKN025",
                "COR EHEH 131855Z AUTO 09005KT 040V140 9999 NSC 04/00 Q1022 BLU 11007KT 9999 BKN025",
                "COR EHEH 131825Z AUTO 10005KT 050V150 9999 NSC 05/01 Q1022 BLU 11007KT 9999 BKN025",
                "EHEH 131755Z AUTO 12005KT 040V140 9999 OVC025 05/01 Q1022 BLU 11007KT 9999 BKN025",
                "EHEH 131725Z AUTO 12006KT 080V170 9999 OVC025 05/01 Q1023 BLU 11007KT 9999 BKN025",
                "EHEH 131655Z AUTO 11007KT 070V150 9999 OVC025 05/01 Q1023 BLU 11007KT 9999 BKN025",
                "COR EHEH 131625Z AUTO 11006KT 080V140 9999 NSC 05/01 Q1023 BLU 11007KT 9999 FEW015 BKN022",
                "COR EHEH 131555Z AUTO 11005KT 070V140 9999 NSC 05/01 Q1022 BLU 11007KT 9999 FEW015 BKN022",
                "COR EHEH 131525Z AUTO 11008KT 080V150 9999 NSC 05/01 Q1023 BLU 12008KT 9999 FEW015 BKN020",
                "EHEH 131455Z AUTO 10009KT 070V150 9999 OVC018 06/01 Q1023 WHT 12008KT 9999 FEW015 BKN020",
                "EHEH 131355Z AUTO 11007KT 070V150 9999 OVC021 06/02 Q1023 WHT 12008KT 9999 FEW015 BKN020",
                "EHEH 131325Z AUTO 12008KT 080V140 9999 OVC023 07/02 Q1023 WHT 12008KT 9999 FEW015 BKN020",
                "EHEH 131155Z AUTO VRB08KT 9999 SCT016 OVC025 07/03 Q1024 WHT 12008KT 8000 SCT015 BKN024",
                "EHEH 131125Z AUTO 12008KT 090V160 8000 BR FEW015 OVC025 07/04 Q1024 BLU 12008KT 8000 BKN024",
                "EHEH 131055Z AUTO 11006KT 040V150 6000 BR OVC024 06/04 Q1025 WHT 11005KT 7000 BKN024",
                "EHEH 130455Z AUTO 10004KT 080V150 2100 BR OVC003 05/04 Q1025 YLO",
                "EHEH 130425Z AUTO 10003KT 2200 BR BKN003 OVC004 05/04 Q1025 YLO",
                "EHEH 130355Z AUTO 12004KT 090V150 2100 BR FEW002 BKN003 OVC005 04/04 Q1025 YLO",
                "EHEH 130325Z AUTO 10004KT 050V130 2100 BR OVC002 04/04 Q1025 AMB",
                "EHEH 130255Z AUTO 09003KT 060V130 1900 BR BKN002 OVC003 04/04 Q1026 AMB",
                "EHEH 130225Z AUTO 12003KT 060V150 1800 BR BKN001 OVC002 04/04 Q1026 RED",
                "EHEH 130155Z AUTO 11004KT 0750 FG OVC000 04/04 Q1026 RED",
                "EHEH 130125Z AUTO 10004KT 110V170 0650 FG OVC000 04/04 Q1026 RED",
                "EHEH 130055Z AUTO 14005KT 1100 BR OVC001 04/04 Q1026 RED",
                "EHEH 130025Z AUTO 14006KT 100V170 2200 BR OVC002 05/04 Q1026 AMB",
                "EHEH 122355Z AUTO 11005KT 090V160 2600 BR OVC004 05/04 Q1026 YLO",
                "EHEH 122325Z AUTO 10004KT 080V170 2600 BR OVC004 05/04 Q1026 YLO",
                "EHEH 122255Z AUTO 11003KT 080V140 2700 BR OVC005 05/04 Q1026 YLO",
                "EHEH 122225Z AUTO 11003KT 3000 BR BKN005 OVC006 05/05 Q1026 YLO",
                "EHEH 122155Z AUTO 09003KT 050V110 2800 BR OVC005 05/04 Q1027 YLO",
                "COR EHEH 122125Z AUTO 09003KT 050V110 2800 BR OVC005 05/04 Q1027 YLO",
                "EHEH 121455Z AUTO 00000KT 3800 BR OVC006 06/05 Q1026 YLO 01004KT 3500 BR BKN004 OVC006",
                "EHEH 120455Z AUTO VRB02KT 2300 BR FEW002 BKN005 BKN006 05/05 Q1025 YLO",
                "EHEH 120425Z AUTO VRB02KT 2400 BR OVC003 05/05 Q1025 YLO",
                "EHEH 120355Z AUTO VRB01KT 2400 BR SCT003 OVC005 05/05 Q1025 YLO",
                "EHEH 120325Z AUTO VRB02KT 2600 BR SCT003 OVC005 05/05 Q1025 YLO",
                "EHEH 120255Z AUTO 01003KT 2500 BR SCT003 BKN005 OVC006 06/05 Q1024 YLO",
                "EHEH 120225Z AUTO 35004KT 300V020 2300 BR SCT003 OVC004 06/05 Q1024 YLO",
                "EHEH 120155Z AUTO 33004KT 260V020 1900 BR FEW002 BKN003 OVC004 06/05 Q1024 YLO",
                "EHEH 120125Z AUTO VRB02KT 1800 BR OVC002 06/05 Q1024 AMB",
                "EHEH 120055Z AUTO 34004KT 2200 BR FEW002 BKN003 OVC004 06/05 Q1024 YLO",
                "EHEH 120025Z AUTO VRB02KT 2400 BR OVC003 06/05 Q1024 YLO",
                "EHEH 112355Z AUTO VRB02KT 2300 BR OVC003 05/05 Q1024 YLO",
                "EHEH 112325Z AUTO 34003KT 290V010 2400 BR OVC002 05/05 Q1023 AMB",
                "EHEH 112255Z AUTO 35006KT 320V020 2400 BR OVC002 05/05 Q1023 AMB",
                "EHEH 112225Z AUTO 01006KT 330V030 3200 BR BKN003 OVC005 06/05 Q1023 YLO",
                "EHEH 112155Z AUTO 35006KT 340V040 3700 BR OVC004 06/06 Q1023 YLO",
                "EHEH 111225Z AUTO VRB02KT 9999 OVC048 08/06 Q1017 BLU 36005KT 9999 BKN040",
                "COR EHEH 111155Z AUTO 03004KT 270V050 9999 OVC044 08/06 Q1017 BLU 36005KT 9999 BKN040",
                "COR EHEH 111125Z AUTO 01004KT 300V040 9999 OVC045 08/06 Q1017 BLU VRB02KT 9000 OVC040",
                "COR EHEH 111055Z AUTO 36003KT 300V030 8000 BR OVC046 08/07 Q1016 BLU VRB02KT 9000 OVC040",
                "EHEH 111025Z AUTO VRB02KT 9000 BR OVC045 07/06 Q1016 BLU VRB02KT 9000 OVC040",
                "EHEH 110955Z AUTO 03002KT 6000 BR OVC044 07/06 Q1016 WHT VRB02KT 7000 BR OVC040",
                "EHEH 110455Z AUTO VRB01KT 2600 BR OVC039 06/05 Q1012 YLO",
                "EHEH 110425Z AUTO VRB01KT 5000 BR OVC040 06/05 Q1012 WHT",
                "EHEH 110355Z AUTO VRB02KT 5000 BR OVC040 06/06 Q1012 WHT",
                "EHEH 110325Z AUTO 15003KT 6000 BR OVC040 06/06 Q1011 WHT",
                "EHEH 110255Z AUTO 16003KT 140V210 6000 BR OVC040 06/05 Q1011 WHT",
                "EHEH 110225Z AUTO 12002KT 6000 BR OVC040 06/05 Q1011 WHT",
                "EHEH 110155Z AUTO 13001KT 3200 BR OVC039 06/06 Q1011 YLO",
                "EHEH 110125Z AUTO VRB01KT 8000 BR OVC038 06/06 Q1011 BLU",
                "EHEH 110055Z AUTO 18004KT 8000 BR OVC037 06/06 Q1010 BLU",
                "EHEH 102355Z AUTO 18005KT 150V210 9000 BR OVC038 06/06 Q1010 BLU",
                "EHEH 102325Z AUTO 17005KT 9000 BR OVC037 06/06 Q1010 BLU",
                "EHEH 102255Z AUTO 17005KT 150V210 9000 BR FEW028 OVC036 07/06 Q1010 BLU",
                "EHEH 102225Z AUTO 15004KT 120V180 9000 BR OVC023 07/06 Q1010 WHT",
                "EHEH 100455Z AUTO 16005KT 120V180 9999 BKN015 OVC019 07/06 Q1007 WHT",
                "EHEH 100325Z AUTO 15005KT 9999 SCT014 OVC016 07/06 Q1008 GRN",
                "EHEH 100255Z AUTO 15005KT 9999 BKN017 OVC020 07/06 Q1008 WHT",
                "EHEH 100155Z AUTO 16005KT 140V200 9999 FEW023 OVC058 07/06 Q1008 BLU",
                "EHEH 100125Z AUTO 17005KT 9999 BKN017 BKN020 BKN046 07/06 Q1008 WHT",
                "EHEH 100055Z AUTO 16005KT 9999 SCT020 BKN050 OVC057 07/05 Q1008 WHT",
                "EHEH 100025Z AUTO 16005KT 9999 BKN041 OVC069 06/05 Q1008 BLU",
                "EHEH 092355Z AUTO 16006KT 9999 SCT034 BKN049 OVC055 06/05 Q1008 BLU",
                "EHEH 092325Z AUTO 18005KT 9999 FEW025 SCT032 OVC065 06/05 Q1008 BLU",
                "EHEH 092255Z AUTO 16005KT 9999 BKN018 OVC022 06/05 Q1009 WHT",
                "EHEH 092225Z AUTO 16006KT 9999 SCT018 OVC021 07/05 Q1009 WHT",
                "EHEH 092155Z AUTO 16005KT 9999 BKN018 OVC021 06/05 Q1009 WHT 14005KT 9999 BKN015",
                "EHEH 092125Z AUTO 17005KT 150V240 9999 OVC021 06/04 Q1008 WHT 14005KT 9999 BKN015",
                "EHEH 092055Z AUTO 15005KT 120V200 9999 OVC024 06/04 Q1008 WHT 14005KT 9999 BKN015",
                "EHEH 092025Z AUTO 13005KT 9999 OVC023 06/04 Q1009 WHT 14005KT 9999 BKN015",
                "EHEH 091955Z AUTO 14005KT 110V170 9999 OVC020 06/04 Q1008 WHT 14005KT 9999 BKN015",
                "EHEH 091925Z AUTO 13005KT 9999 OVC018 06/04 Q1009 WHT 14005KT 9999 BKN015",
                "EHEH 091855Z AUTO 14005KT 110V190 9999 OVC019 06/04 Q1008 WHT 14005KT 9999 BKN015",
                "EHEH 091825Z AUTO 14003KT 120V220 9999 OVC019 05/04 Q1008 WHT 14005KT 9999 BKN015",
                "EHEH 091755Z AUTO 14005KT 110V240 9999 OVC016 05/04 Q1008 WHT 14005KT 9999 BKN015",
                "EHEH 091655Z AUTO 14004KT 090V160 9999 OVC018 05/03 Q1008 WHT 14005KT 9999 SCT018 BKN100",
                "EHEH 091625Z AUTO 14005KT 110V190 9999 OVC250 04/03 Q1008 BLU 14005KT 9999 SCT018 BKN100",
                "EHEH 091555Z AUTO 14004KT 100V250 9999 OVC110 05/03 Q1008 BLU 14005KT 9999 SCT018 BKN100",
                "COR EHEH 091325Z AUTO 13004KT 110V200 9999 OVC170 05/03 Q1008 BLU 14005KT 9999 SCT025 BKN200",
                "COR EHEH 091255Z AUTO 14004KT 110V250 9999 OVC220 05/03 Q1009 BLU 14005KT 9999 SCT025 BKN200",
                "EHEH 091155Z AUTO 13004KT 130V190 9999 OVC025 04/02 Q1009 BLU 13005KT 9999 BKN025",
                "EHEH 091125Z AUTO 12004KT 070V160 9999 OVC210 04/02 Q1009 BLU 13005KT CAVOK",
                "EHEH 091055Z AUTO 13003KT 020V170 9999 OVC210 03/02 Q1010 BLU 13005KT CAVOK",
                "EHEH 091025Z AUTO 13005KT 070V200 9999 OVC200 03/02 Q1010 BLU 13005KT CAVOK",
                "EHEH 090955Z AUTO 13005KT 9000 BR OVC240 03/01 Q1010 BLU 13005KT 9999 CAVOK",
                "EHEH 090925Z AUTO 12004KT 080V150 9000 BR OVC210 03/01 Q1010 BLU 13005KT 9999 CAVOK",
                "EHEH 090855Z AUTO 13005KT 8000 BR OVC230 02/01 Q1011 BLU 13005KT 9999 CAVOK",
                "EHEH 090825Z AUTO 12005KT 080V190 8000 BR OVC230 02/01 Q1011 BLU 12005KT 9999 CAVOK",
                "EHEH 090755Z AUTO 11005KT 070V130 8000 BR OVC220 02/01 Q1011 BLU 09007KT 9999 CAVOK",
                "EHEH 090725Z AUTO 10006KT 060V120 9000 BR OVC230 02/01 Q1011 BLU 07010KT 9999 CAVOK",
                "EHEH 090655Z AUTO 11005KT 070V130 8000 BR OVC260 02/01 Q1011 BLU 07010KT 9999 CAVOK",
                "EHEH 090625Z AUTO 10005KT 070V130 9000 BR OVC250 02/01 Q1011 BLU 07010KT 9999 CAVOK",
                "EHEH 090555Z AUTO 08005KT 9000 BR OVC240 02/01 Q1011 BLU 07010KT 9999 CAVOK",
                "EHEH 090525Z AUTO 07007KT 9000 BR OVC250 02/01 Q1012 BLU 07010KT 9999 CAVOK",
                "EHEH 090455Z AUTO 06006KT 9000 BR OVC250 02/01 Q1012 BLU",
                "EHEH 090425Z AUTO 10005KT 060V130 9999 OVC230 03/01 Q1013 BLU",
                "EHEH 090355Z AUTO 07007KT 040V100 9999 OVC220 03/01 Q1013 BLU",
                "EHEH 090325Z AUTO 08006KT 040V110 9999 OVC210 03/01 Q1013 BLU",
                "EHEH 090255Z AUTO 07008KT 040V100 9999 OVC220 03/01 Q1013 BLU",
                "EHEH 090225Z AUTO 07008KT 030V100 9999 OVC250 03/01 Q1013 BLU",
                "EHEH 090125Z AUTO 08008KT 050V110 9999 OVC240 03/00 Q1014 BLU",
                "EHEH 090055Z AUTO 07008KT 030V100 9999 OVC230 02/00 Q1015 BLU",
                "EHEH 090025Z AUTO 07009KT 030V090 9000 BR OVC230 02/00 Q1015 BLU",
                "EHEH 082355Z AUTO 07007KT 040V100 9999 OVC200 02/00 Q1016 BLU",
                "EHEH 082325Z AUTO 08007KT 040V100 9999 OVC210 02/00 Q1016 BLU",
                "EHEH 082225Z AUTO 08007KT 050V110 9999 OVC210 02/00 Q1017 BLU",
                "COR EHEH 082155Z AUTO 08007KT 9999 OVC190 03/00 Q1018 BLU 07009KT CAVOK",
                "EHEH 082125Z AUTO 08007KT 030V100 9999 OVC200 03/00 Q1018 BLU 07009KT CAVOK",
                "EHEH 082055Z AUTO 07010KT 030V100 9999 OVC200 03/00 Q1018 BLU 07009KT CAVOK",
                "EHEH 082025Z AUTO 07010KT 030V100 9999 OVC220 03/00 Q1018 BLU 07009KT CAVOK",
                "EHEH 081955Z AUTO 07010KT 9999 BKN210 OVC290 03/00 Q1018 BLU 07009KT CAVOK",
                "EHEH 081925Z AUTO 07009KT 040V100 9999 SCT210 BKN270 03/00 Q1019 BLU 07010KT 9999 FEW018",
                "COR EHEH 081855Z AUTO 07009KT 040V110 9999 OVC200 04/00 Q1019 BLU 07010KT 9999 FEW018",
                "EHEH 081825Z AUTO 07009KT 040V100 9999 OVC210 03/00 Q1019 BLU 07010KT 9999 FEW018",
                "EHEH 081755Z AUTO 07008KT 020V130 9999 OVC220 04/00 Q1019 BLU 07010KT 9999 FEW018",
                "EHEH 081725Z AUTO 07010KT 040V110 9999 FEW220 OVC280 04/00 Q1020 BLU 07010KT 9999 FEW018",
                "EHEH 081655Z AUTO 07009KT 040V100 9999 OVC290 04/M00 Q1020 BLU 07010KT 9999 FEW018",
                "COR EHEH 081625Z AUTO 07009KT 020V130 9999 NSC 04/00 Q1020 BLU 07010KT 9999 FEW018",
                "COR EHEH 081555Z AUTO 07009KT 9999 NSC 04/00 Q1020 BLU 07010KT 9999 FEW018",
                "EHEH 081525Z AUTO 06009KT 350V110 9999 SCT020 04/00 Q1020 WHT 07010KT 9999 SCT018",
                "EHEH 081455Z AUTO 07010KT 030V100 9999 OVC017 05/00 Q1021 WHT 07010KT 9999 BKN016",
                "EHEH 081425Z AUTO 06010KT 020V100 9999 OVC016 05/01 Q1021 WHT 07010KT 9999 BKN016",
                "EHEH 081355Z AUTO 07010KT 030V100 9999 OVC017 05/00 Q1021 WHT 07009KT 9999 BKN016",
                "EHEH 081325Z AUTO 07009KT 030V100 9999 OVC016 04/00 Q1022 WHT 07009KT 9999 BKN016",
                "EHEH 081255Z AUTO 07009KT 050V110 9999 OVC015 04/M00 Q1022 WHT 07009KT 9999 BKN016",
                "EHEH 081225Z AUTO 07010KT 360V110 9999 OVC016 03/M01 Q1022 WHT 07012KT 9999 BKN016",
                "EHEH 081155Z AUTO 07010KT 030V100 9999 OVC016 03/M01 Q1022 WHT 07012KT 9999 BKN016",
                "EHEH 081125Z AUTO 07012KT 010V100 9999 OVC016 03/M01 Q1023 WHT 06013KT 9999 BKN018",
                "EHEH 081055Z AUTO 06012KT 020V080 9999 OVC016 03/M01 Q1023 WHT 06013KT 9999 BKN018",
                "EHEH 081025Z AUTO 06011KT 010V130 9999 OVC016 03/M01 Q1023 WHT 06013KT 9999 BKN020",
                "EHEH 080955Z AUTO 06012KT 030V090 9999 OVC017 03/M01 Q1024 WHT 06013KT 9999 BKN020",
                "EHEH 080925Z AUTO 06010KT 020V080 9999 OVC020 02/M01 Q1024 WHT 06013KT 9999 BKN020",
                "EHEH 080855Z AUTO 06012KT 020V090 9999 OVC019 02/M01 Q1024 WHT 06013KT 9999 BKN020",
                "EHEH 080825Z AUTO 06011KT 020V090 9999 OVC021 02/M01 Q1024 WHT 06013KT 9999 BKN020",
                "EHEH 080755Z AUTO 06011KT 020V090 9999 OVC023 02/M01 Q1024 WHT 06013KT 9999 BKN020",
                "EHEH 080725Z AUTO 06010KT 020V090 9999 OVC026 02/M01 Q1024 BLU 06015KT 9999 BKN020",
                "COR EHEH 080655Z AUTO 07011KT 030V100 9999 OVC026 02/M01 Q1024 BLU 06015KT 9999 BKN020",
                "EHEH 080625Z AUTO 06011KT 9999 OVC027 02/M01 Q1025 BLU 06015KT 9999 BKN020",
                "EHEH 080555Z AUTO 06010KT 030V100 9999 OVC027 02/M01 Q1025 BLU 06015KT 9999 BKN020",
                "EHEH 080525Z AUTO 07010KT 030V100 9999 FEW014 OVC026 02/M01 Q1025 BLU",
                "EHEH 080455Z AUTO 06013KT 020V090 9999 FEW013 OVC025 02/M01 Q1025 BLU",
                "EHEH 080425Z AUTO 06014KT 360V090 9999 OVC022 02/M01 Q1025 WHT",
                "EHEH 080355Z AUTO 06012KT 020V080 9999 OVC021 02/M01 Q1025 WHT",
                "EHEH 080325Z AUTO 05014KT 020V080 9999 OVC018 02/M01 Q1025 WHT",
                "EHEH 080255Z AUTO 06012KT 020V080 9999 FEW013 OVC019 02/M01 Q1025 WHT",
                "EHEH 080225Z AUTO 07011KT 030V090 9999 FEW014 OVC019 02/M01 Q1025 WHT",
                "EHEH 080155Z AUTO 06013KT 9999 FEW014 OVC019 02/M01 Q1025 WHT",
                "EHEH 080125Z AUTO 06014KT 030V090 9999 FEW013 OVC019 01/M02 Q1025 WHT",
                "EHEH 080055Z AUTO 06014KT 030V100 9999 FEW015 OVC018 01/M02 Q1025 WHT",
                "EHEH 080025Z AUTO 05015KT 020V090 9999 OVC018 01/M02 Q1025 WHT",
                "EHEH 072355Z AUTO 06015KT 030V090 9999 OVC019 01/M02 Q1026 WHT",
                "EHEH 072325Z AUTO 06016KT 020V090 9999 OVC019 01/M02 Q1026 WHT",
                "EHEH 072255Z AUTO 05016KT 030V100 9999 OVC020 01/M02 Q1026 WHT",
                "EHEH 072225Z AUTO 06013KT 020V080 9999 OVC020 01/M02 Q1026 WHT",
                "COR EHEH 072155Z AUTO 06013KT 010V090 9999 OVC021 01/M02 Q1026 WHT 05016KT 9999 OVC017",
                "EHEH 072125Z AUTO 06014KT 020V100 9999 OVC021 01/M02 Q1026 WHT 05016KT 9999 OVC017",
                "EHEH 072055Z AUTO 06014KT 020V090 9999 OVC020 01/M02 Q1026 WHT 05016KT 9999 OVC017",
                "EHEH 072025Z AUTO 06016KT 020V090 9999 SCT018 OVC021 01/M02 Q1026 WHT 05016KT 9999 OVC017",
                "EHEH 071955Z AUTO 06014KT 020V100 9999 OVC018 01/M02 Q1026 WHT 05016KT 9999 OVC017",
                "EHEH 071925Z AUTO 06014KT 020V090 9999 OVC017 01/M02 Q1026 WHT 05016KT 9999 OVC017",
                "COR EHEH 071855Z AUTO 05014KT 360V100 9999 OVC016 01/M02 Q1026 WHT 05016KT 9999 FEW020",
                "EHEH 071825Z AUTO 05014KT 020V080 9999 OVC016 01/M02 Q1026 WHT 05016KT 9999 FEW020",
                "EHEH 071755Z AUTO 06012KT 030V090 9999 OVC017 01/M02 Q1026 WHT 05016KT 9999 FEW020",
                "EHEH 071725Z AUTO 06012KT 030V100 9999 BKN021 01/M02 Q1026 WHT 05016KT 9999 FEW020",
                "EHEH 071655Z AUTO 05014KT 360V080 9999 OVC280 01/M02 Q1026 BLU 05016KT 9999 FEW020",
                "COR EHEH 071625Z AUTO 05013KT 020V080 9999 NSC 01/M02 Q1025 BLU 05016KT 9999 FEW020",
                "COR EHEH 071555Z AUTO 05015KT 360V070 9999 NSC 02/M02 Q1025 BLU 05016KT 9999 FEW020",
                "COR EHEH 071525Z AUTO 05014KT 360V080 9999 FEW020 02/M02 Q1025 BLU 05016KT 9999 FEW020",
                "COR EHEH 071455Z AUTO 05015KT 020V090 9999 NSC 02/M02 Q1025 BLU 05016KT 9999 FEW016",
                "EHEH 071425Z AUTO 05017KT 010V080 9999 FEW018 03/M02 Q1025 BLU 05016KT 9999 FEW016",
                "EHEH 071355Z AUTO 05016KT 020V080 9999 FEW019 OVC280 03/M01 Q1025 BLU 05016KT 9999 FEW016",
                "EHEH 071325Z AUTO 05017KT 010V090 9999 SCT017 03/M01 Q1025 WHT 05016KT 9999 FEW016",
                "COR EHEH 071255Z AUTO 05015KT 010V090 9999 NSC 03/M01 Q1025 BLU 05016KT 9999 FEW016",
                "EHEH 071225Z AUTO 05015KT 010V090 9999 FEW016 BKN300 03/M01 Q1025 BLU 05016KT 9999 FEW016",
                "EHEH 071155Z AUTO 05017KT 010V090 9999 SCT015 OVC220 03/M01 Q1025 WHT 04018KT 9999 SCT016",
                "EHEH 071125Z AUTO 05014KT 020V100 9999 BKN014 BKN250 02/M01 Q1026 GRN 04018KT 9999 SCT016",
                "EHEH 071055Z AUTO 05014KT 020V080 9999 BKN013 OVC016 02/M01 Q1026 GRN 04015KT 9999 SCT018",
                "EHEH 071025Z AUTO 05016KT 9999 SCT014 BKN017 OVC270 02/M01 Q1026 GRN 04015KT 9999 SCT018",
                "EHEH 070925Z AUTO 05013KT 350V090 9999 FEW014 OVC016 01/M01 Q1025 WHT 04015KT 9999 SCT018",
                "EHEH 070855Z AUTO 04016KT 010V070 9999 OVC015 02/M01 Q1025 WHT 04015KT 9999 OVC015",
                "EHEH 070825Z AUTO 05016KT 010V080 9999 OVC015 02/M01 Q1024 WHT 04015KT 9999 OVC015",
                "EHEH 070755Z AUTO 04015KT 010V070 9999 OVC016 03/M00 Q1024 WHT 04015KT 9999 OVC015",
                "EHEH 070725Z AUTO 04014KT 9999 FEW014 OVC017 03/M00 Q1023 WHT 04015KT 9999 OVC015",
                "EHEH 070625Z AUTO 04014KT 010V070 9999 SCT014 OVC016 03/00 Q1022 GRN 04015KT 9999 OVC015",
                "EHEH 070555Z AUTO 05014KT 010V070 9999 SCT014 OVC016 03/00 Q1022 GRN 04015KT 9999 OVC015",
                "EHEH 070455Z AUTO 05013KT 010V080 9999 SCT014 OVC016 03/01 Q1021 GRN",
                "EHEH 070425Z AUTO 04013KT 010V070 9999 BKN013 OVC015 03/01 Q1021 GRN",
                "EHEH 070355Z AUTO 04012KT 010V070 9999 OVC012 03/01 Q1021 GRN",
                "EHEH 070325Z AUTO 04013KT 020V080 9999 SCT012 OVC014 03/01 Q1020 GRN",
                "EHEH 070255Z AUTO 04014KT 020V080 9999 OVC013 03/01 Q1020 GRN",
                "EHEH 070225Z AUTO 04014KT 020V080 9999 OVC012 03/01 Q1020 GRN",
                "EHEH 070155Z AUTO 05014KT 010V070 9999 BKN013 OVC015 03/01 Q1019 GRN",
                "EHEH 070125Z AUTO 04013KT 360V070 9999 SCT012 OVC014 03/01 Q1019 GRN",
                "EHEH 070055Z AUTO 04014KT 9999 BKN012 BKN015 BKN038 04/01 Q1018 GRN",
                "EHEH 070025Z AUTO 04013KT 020V080 9999 SCT012 OVC042 04/01 Q1018 GRN",
                "EHEH 062355Z AUTO 04012KT 360V060 9999 FEW010 BKN013 OVC040 04/02 Q1017 GRN",
                "EHEH 062325Z AUTO 03011KT 350V060 9999 FEW009 BKN011 OVC013 04/03 Q1017 GRN",
                "EHEH 062255Z AUTO 03013KT 360V060 9999 OVC009 05/03 Q1017 GRN",
                "EHEH 062225Z AUTO 03011KT 360V060 9999 BKN009 OVC010 05/03 Q1017 GRN",
                "EHEH 061125Z AUTO 00000KT 9999 SCT043 BKN047 OVC051 05/05 Q1008 BLU VRB03KT 7000 NSC",
                "EHEH 061055Z AUTO 14003KT 100V210 9000 BR BKN049 OVC054 05/04 Q1007 BLU VRB03KT 7000 NSC",
                "EHEH 060955Z AUTO VRB01KT 4900 -RA BKN021 OVC024 03/02 Q1007 GRN VRB03KT 9999 OVC020",
                "EHEH 060655Z AUTO VRB01KT 7000 BR SCT093 OVC099 02/02 Q1004 WHT 19007KT CAVOK",
                "EHEH 060625Z AUTO 15003KT 140V200 7000 BR SCT097 OVC100 02/01 Q1004 WHT 19007KT CAVOK",
                "EHEH 060555Z AUTO 18003KT 180V290 9999 OVC150 02/02 Q1004 BLU 19007KT CAVOK",
                "COR EHEH 060525Z AUTO 17005KT 9999 OVC150 02/01 Q1004 BLU 19007KT CAVOK",
                "EHEH 052355Z AUTO 21007KT 9999 BKN200 BKN290 04/03 Q1001 BLU",
                "COR EHEH 052325Z AUTO 20008KT 9999 NSC 05/03 Q1001 BLU",
                "COR EHEH 052155Z AUTO 21007KT 9999 NCD 05/03 Q1000 BLU",
                "COR EHEH 052125Z AUTO 22010KT 9999 NSC 05/03 Q1000 BLU 20010KT CAVOK",
                "COR EHEH 052055Z AUTO 21009KT 190V250 9999 NSC 05/04 Q0999 BLU 20010KT CAVOK",
                "COR EHEH 052025Z AUTO 21010KT 9999 NSC 06/04 Q0999 BLU 20010KT CAVOK",
                "COR EHEH 051955Z AUTO 21009KT 9999 NSC 06/04 Q0999 BLU 20010KT CAVOK",
                "COR EHEH 051925Z AUTO 20010KT 190V250 9999 NSC 06/04 Q0998 BLU 20010KT CAVOK",
                "COR EHEH 051855Z AUTO 21008KT 9999 NSC 06/05 Q0998 BLU 20010KT CAVOK",
                "EHEH 051825Z AUTO 20006KT 9999 BKN260 06/05 Q0998 BLU 20010KT CAVOK",
                "EHEH 051755Z AUTO 21006KT 9999 FEW028 SCT066 06/05 Q0997 BLU 20010KT CAVOK",
                "EHEH 051425Z AUTO 20008KT 9999 SCT096 OVC100 09/06 Q0996 BLU 22010KT 9999 FEW017 BKN150",
                "EHEH 051155Z AUTO 21011KT 9999 FEW020 OVC150 09/06 Q0996 BLU 22010KT 9999 FEW020 BKN150",
                "EHEH 051055Z AUTO 22010KT 9999 OVC140 09/06 Q0996 BLU 22010KT 9999 FEW020 BKN150",
                "EHEH 051025Z AUTO 22010KT 9999 OVC140 09/06 Q0996 BLU 26014KT 9999 SCT020 BKN150",
                "EHEH 050955Z AUTO 23010KT 9999 OVC140 08/06 Q0996 BLU 26014KT 9999 BKN020",
                "EHEH 050925Z AUTO 23010KT 9999 FEW019 SCT025 BKN036 08/05 Q0996 BLU 26014KT 9999 BKN020",
                "EHEH 050855Z AUTO 22010KT 190V250 9999 OVC140 08/05 Q0996 BLU 26014KT 9999 BKN020",
                "EHEH 050825Z AUTO 23009KT 200V260 9999 OVC140 07/05 Q0996 BLU 26014KT 9999 BKN020",
                "EHEH 050755Z AUTO 23010KT 9999 FEW020 SCT024 OVC150 07/05 Q0996 WHT 26014KT 9999 BKN020",
                "EHEH 050555Z AUTO 25007KT 180V330 9999 OVC018 07/05 Q0994 WHT 26014KT 9999 SCT014 BKN020",
                "EHEH 050455Z AUTO 24018KT 200V280 9999 SCT018 BKN021 BKN029 09/06 Q0993 WHT",
                "EHEH 050425Z AUTO 22017KT 190V250 9999 FEW018 SCT022 BKN025 08/06 Q0993 WHT",
                "EHEH 050355Z AUTO 19009KT 150V230 9999 FEW006 BKN015 OVC019 07/06 Q0993 REDZ WHT",
                "EHEH 050325Z AUTO 19011KT 160V220 9999 -DZ FEW024 SCT033 BKN039 07/06 Q0993 BLU",
                "EHEH 050255Z AUTO 22013KT 180V260 8000 -SHRA FEW018 BKN033 OVC038 07/06 Q0995 REDZ BLU",
                "EHEH 050225Z AUTO 21014KT 9999 DZ FEW017 SCT041 BKN059 08/05 Q0995 BLU",
                "EHEH 050155Z AUTO 21012KT 9999 FEW034 SCT048 OVC054 08/04 Q0995 BLU",
                "EHEH 050125Z AUTO 22012KT 190V250 9999 FEW015CB SCT083 BKN091 07/04 Q0995 BLU",
                "EHEH 050055Z AUTO 23013KT 200V260 9999 FEW074 SCT085 OVC091 08/04 Q0995 BLU",
                "EHEH 050025Z AUTO 23014KT 200V270 9999 FEW028 SCT081 OVC100 08/03 Q0995 BLU",
                "EHEH 042355Z AUTO 23016KT 190V260 9999 FEW025 BKN091 OVC097 08/03 Q0995 BLU",
                "COR EHEH 042325Z AUTO 23016KT 210V270 9999 FEW094 OVC100 08/03 Q0995 BLU",
                "EHEH 042255Z AUTO 24019G29KT 190V290 9999 FEW029 08/03 Q0995 BLU",
                "EHEH 042225Z AUTO 24017KT 200V280 9999 FEW028 BKN032 BKN036 08/03 Q0995 BLU",
                "COR EHEH 042155Z AUTO 24016KT 200V280 9999 SCT029 BKN033 08/03 Q0995 BLU",
                "EHEH 040655Z AUTO 22010KT 9999 FEW017 OVC100 07/05 Q0998 BLU 23012KT 9999 SCT025 BKN040",
                "EHEH 040625Z AUTO 22011KT 9999 OVC120 07/05 Q0998 BLU 23012KT 9999 SCT025 BKN040",
                "EHEH 040555Z AUTO 22011KT 9999 SCT050 OVC140 07/05 Q0998 BLU 23012KT 9999 SCT025 BKN040",
                "EHEH 040525Z AUTO 23013KT 190V260 9000 BR OVC047 07/05 Q0998 BLU",
                "EHEH 040455Z AUTO 23013KT 200V260 9000 BR FEW033 OVC047 06/04 Q0999 BLU",
                "EHEH 040425Z AUTO 22012KT 200V260 8000 BR BKN045 OVC180 06/04 Q0999 BLU",
                "COR EHEH 040355Z AUTO 23011KT 200V260 9000 BR OVC260 06/04 Q0999 BLU",
                "EHEH 040325Z AUTO 24012KT 210V270 9000 HZ OVC190 07/04 Q0999 BLU",
                "EHEH 040255Z AUTO 24012KT 210V270 9999 OVC190 07/04 Q0999 BLU",
                "EHEH 040225Z AUTO 25013KT 210V290 9999 BKN210 OVC270 07/04 Q0999 BLU",
                "EHEH 040155Z AUTO 24013KT 200V270 9999 OVC260 07/04 Q0999 BLU",
                "EHEH 040125Z AUTO 24014KT 210V280 9999 OVC058 08/04 Q0999 BLU",
                "EHEH 040055Z AUTO 24016KT 200V290 9999 BKN053 OVC058 08/04 Q0999 BLU",
                "EHEH 040025Z AUTO 24015KT 210V280 9999 BKN053 OVC059 08/04 Q0999 BLU",
                "EHEH 032355Z AUTO 24014KT 200V270 9999 FEW027 BKN054 OVC059 08/04 Q0999 BLU",
                "COR EHEH 032325Z AUTO 24014KT 210V290 9999 BKN025 OVC029 08/04 Q0999 BLU",
                "EHEH 032255Z AUTO 24017KT 200V270 9999 FEW027 SCT065 BKN079 08/04 Q0999 BLU",
                "EHEH 030455Z AUTO 26021G31KT 230V300 9999 FEW043 11/05 Q0986 BLU",
                "EHEH 030425Z AUTO 26018KT 200V300 9999 FEW029 BKN097 OVC100 11/07 Q0986 BLU",
                "EHEH 030355Z AUTO 26017G32KT 220V290 9999 FEW015CB SCT045 BKN054 11/08 Q0986 RERA BLU",
                "EHEH 030255Z AUTO 21022KT 6000 -RA FEW008 BKN013 FEW015CB BKN017 11/10 Q0986 RERA REDZ GRN",
                "EHEH 030225Z AUTO 20022KT 170V230 9999 -RA FEW002 SCT008 BKN010 11/10 Q0987 GRN",
                "EHEH 030055Z AUTO 18015KT 5000 +DZ FEW005 SCT007 BKN013 09/09 Q0992 GRN",
                "EHEH 030025Z AUTO 18011KT 150V210 9999 DZ SCT007 BKN008 OVC010 09/08 Q0995 GRN",
                "EHEH 022355Z AUTO 19012KT 160V220 9999 FEW007 SCT008 BKN010 09/08 Q0996 GRN",
                "EHEH 022325Z AUTO 20012KT 160V240 9999 SCT007 BKN008 BKN009 09/08 Q0998 REDZ GRN",
                "EHEH 022255Z AUTO 20015KT 9999 -RA FEW006 BKN007 BKN008 09/08 Q0999 RERA REDZ GRN",
                "EHEH 022225Z AUTO 20014KT 160V220 9999 -RA BKN005 OVC006 08/08 Q1000 RERA REDZ YLO",
                "EHEH 020825Z AUTO 24007KT 200V280 9999 FEW016 OVC034 06/04 Q1011 BLU 24010KT 9999 BKN030",
                "EHEH 020755Z AUTO 25006KT 210V300 9999 BKN030 OVC035 06/04 Q1010 BLU 24010KT 9999 BKN030",
                "EHEH 020725Z AUTO 27008KT 230V310 9999 OVC031 06/03 Q1010 BLU 27012KT 9999 BKN030",
                "EHEH 020655Z AUTO 26010KT 220V320 9999 OVC024 06/03 Q1009 WHT 27012KT 9999 SCT016 SCT022",
                "COR EHEH 020555Z AUTO 27011KT 230V320 9999 NSC 06/04 Q1008 BLU 27012KT 9999 SCT016 SCT022",
                "EHEH 020525Z AUTO 27011KT 230V320 9999 FEW009 SCT012 BKN014 06/05 Q1008 GRN",
                "EHEH 020425Z AUTO 27011KT 230V310 7000 -RA FEW019 BKN024 BKN029 06/05 Q1006 RERA REDZ WHT",
                "EHEH 020355Z AUTO 27008KT 230V320 9999 FEW006 SCT008 BKN009 FEW015CB 06/05 Q1006 GRN",
                "EHEH 020325Z AUTO 25007KT 220V310 9999 FEW005 BKN007 BKN008 FEW015CB 06/05 Q1005 GRN",
                "EHEH 020255Z AUTO 25007KT 200V280 7000 RA FEW007 BKN011 BKN014 FEW015CB 06/05 Q1005 GRN",
                "EHEH 020225Z AUTO 24008KT 210V270 9999 FEW008 FEW015CB SCT017 BKN021 06/05 Q1004 REDZ WHT",
                "EHEH 020125Z AUTO 23007KT 190V260 6000 -RA FEW007 SCT012 BKN014 FEW015CB 05/05 Q1004 GRN",
                "EHEH 020025Z AUTO 22008KT 9999 DZ FEW015CB BKN019 BKN024 BKN036 05/04 Q1003 WHT",
                "EHEH 012355Z AUTO 23008KT 9999 SCT023 BKN028 BKN032 05/04 Q1003 WHT",
                "EHEH 012325Z AUTO 24008KT 210V270 9999 FEW014 SCT017 BKN033 05/04 Q1002 WHT",
                "EHEH 012255Z AUTO 24009KT 210V270 9999 FEW058 BKN063 OVC069 05/04 Q1002 BLU",
                "EHEH 012225Z AUTO 24008KT 210V270 9999 FEW032 SCT048 BKN060 05/04 Q1002 BLU",
                "COR EHEH 312355Z AUTO 21009KT 9999 NSC 02/01 Q1000 BLU", "EHEH 312255Z AUTO 23010KT 190V270 9999 -DZ FEW033 SCT040 BKN059 03/01 Q1000 BLU", "COR EHEH 312225Z AUTO 22009KT 9999 NSC 02/01 Q1000 BLU",
                "COR EHEH 312155Z AUTO 23009KT 200V260 9999 NSC 03/00 Q1000 BLU 22010KT CAVOK",
                "COR EHEH 312125Z AUTO 24009KT 9999 NSC 04/01 Q1000 BLU 22010KT CAVOK",
                "EHEH 312055Z AUTO 24011KT 200V260 9999 FEW058 SCT063 BKN140 04/02 Q1000 BLU 22010KT CAVOK TEMPO FEW018CB SCT040",
                "EHEH 312025Z AUTO 23011KT 9999 OVC100 04/03 Q1000 BLU 22010KT CAVOK TEMPO FEW018CB SCT040",
                "EHEH 311925Z AUTO 22011KT 9999 SCT092 OVC099 04/03 Q1000 BLU 22010KT 9999 FEW020 SCT050",
                "EHEH 311855Z AUTO 21010KT 9999 FEW024 SCT028 BKN093 03/03 Q1000 BLU 22010KT 9999 FEW020 SCT050",
                "EHEH 311825Z AUTO 21007KT 9999 OVC110 03/03 Q1000 BLU 22010KT 9999 FEW020 SCT050",
                "COR EHEH 311755Z AUTO 22008KT 180V240 9999 FEW008 BKN092 OVC098 04/03 Q1000 BLU 22010KT 9999 FEW020 SCT050",
                "EHEH 311725Z AUTO 21007KT 9999 BKN081 OVC087 04/03 Q1000 BLU 24010KT 9999 FEW020 SCT050",
                "EHEH 311655Z AUTO 20009KT 180V240 9999 FEW013 SCT045 BKN052 04/03 Q1000 BLU 24010KT 9999 FEW013 BKN050",
                "EHEH 310525Z AUTO 22015KT 190V250 3400 +DZ FEW005 SCT007 BKN009 10/09 Q1010 YLO", "EHEH 310455Z AUTO 22015KT 4300 -RA FEW005 SCT006 BKN007 10/09 Q1010 RERA REDZ YLO", "EHEH 310425Z AUTO 23019G29KT 190V260 6000 DZ FEW007 SCT008 BKN010 10/09 Q1011 GRN",
                "EHEH 310355Z AUTO 22016KT 200V260 3500 DZ FEW006 SCT007 BKN008 10/09 Q1011 YLO", "EHEH 310325Z AUTO 21013KT 190V250 2900 -SHRA SCT005 BKN006 BKN008 09/09 Q1012 REDZ YLO", "EHEH 310255Z AUTO 21013KT 190V250 2600 -RA FEW004 BKN005 BKN008 09/09 Q1013 RERA REDZ YLO",
                "EHEH 310225Z AUTO 21012KT 2500 +DZRA FEW004 BKN005 OVC007 09/09 Q1013 YLO",
                "EHEH 310155Z AUTO 20011KT 170V230 2100 +DZRA FEW003 BKN005 BKN006 FEW015CB 09/08 Q1014 YLO",
                "EHEH 310125Z AUTO 19008KT 2500 DZ FEW003 BKN004 OVC005 08/08 Q1015 YLO", "EHEH 310055Z AUTO 19008KT 160V220 2400 DZ FEW003 BKN005 OVC006 08/07 Q1016 YLO", "EHEH 310025Z AUTO 19008KT 160V220 6000 BR BKN006 OVC007 08/07 Q1017 YLO",
                "EHEH 302355Z AUTO 20007KT 7000 BR SCT008 BKN009 BKN010 07/06 Q1017 GRN", "EHEH 302325Z AUTO 19007KT 8000 BR SCT010 BKN013 BKN015 06/05 Q1018 GRN", "EHEH 302255Z AUTO 18006KT 9999 FEW021 OVC030 05/04 Q1019 BLU",
                "EHEH 302155Z AUTO 16008KT 130V220 9999 SCT016 OVC210 04/03 Q1020 WHT 17008KT 9999 BKN015", "EHEH 302125Z AUTO 15006KT 9999 BKN021 BKN040 OVC220 03/02 Q1021 WHT 17005KT 9999 SCT035", "EHEH 302055Z AUTO 14005KT 120V240 9999 FEW033 OVC220 03/02 Q1021 BLU 17005KT 9999 SCT035",
                "EHEH 302025Z AUTO 15003KT 130V230 9999 FEW023 BKN035 OVC260 03/01 Q1022 BLU 17005KT 9999 SCT035",
                "EHEH 301955Z AUTO 16005KT 9999 OVC270 04/02 Q1022 BLU 17005KT 9999 SCT035", "EHEH 301925Z AUTO 16005KT 150V250 9999 OVC037 03/02 Q1023 BLU VRB02KT 9999 SCT035", "EHEH 301855Z AUTO VRB01KT 9999 OVC038 03/02 Q1023 BLU VRB02KT 9999 SCT035",
                "EHEH 301825Z AUTO 14004KT 110V250 9999 OVC038 02/02 Q1024 BLU VRB02KT 9999 SCT035", "EHEH 301755Z AUTO 15003KT 090V230 9999 SCT390 02/01 Q1024 BLU VRB02KT 9999 FEW030", "EHEH 301725Z AUTO 16004KT 130V230 8000 BR OVC350 02/01 Q1024 BLU VRB02KT 9999 FEW015",
                "EHEH 301655Z AUTO VRB02KT 9999 OVC340 03/02 Q1025 BLU VRB02KT 9999 FEW015", "COR EHEH 301625Z AUTO VRB01KT 9999 NSC 05/03 Q1025 BLU VRB02KT 9999 FEW015", "EHEH 301555Z AUTO VRB02KT 9999 BKN340 05/02 Q1026 BLU 23008KT 9999 FEW015 BKN250",
                "EHEH 301525Z AUTO 26003KT 230V290 9999 FEW240 OVC300 07/03 Q1026 BLU 23008KT 9999 FEW015 BKN250",
                "EHEH 301455Z AUTO 25006KT 190V300 9999 OVC290 07/03 Q1027 BLU 23008KT 9999 FEW015 BKN250",
                "EHEH 301425Z AUTO 22004KT 200V260 9999 BKN018 BKN022 OVC240 08/04 Q1027 WHT 23008KT 9999 FEW015 BKN250",
                "EHEH 301355Z AUTO 23007KT 200V260 9999 BKN230 OVC290 07/04 Q1027 BLU 23008KT 9999 FEW015 BKN250",
                "EHEH 301325Z AUTO 25006KT 200V300 9999 FEW015 BKN230 OVC290 07/04 Q1028 BLU 23008KT 9999 SCT010 BKN250 BECMG SCT015 BKN020",
                "EHEH 301255Z AUTO 25007KT 210V300 9999 FEW015 SCT019 OVC220 07/04 Q1028 WHT 23008KT 9999 SCT010 BKN250 BECMG SCT015 BKN020",
                "EHEH 301225Z AUTO 25006KT 210V290 9999 FEW011 BKN014 BKN017 07/05 Q1029 GRN 23008KT 9999 SCT010 BKN250 BECMG SCT015 BKN020",
                "COR EHEH 301155Z AUTO 25007KT 210V290 9999 FEW009 BKN011 BKN013 07/04 Q1029 GRN 23008KT 9999 SCT010 BKN250 BECMG SCT015 BKN020",
                "COR EHEH 301125Z AUTO 23008KT 180V260 9999 FEW008 SCT009 OVC220 06/04 Q1029 GRN 23008KT 9999 SCT010 BKN250",
                "EHEH 301055Z AUTO 22007KT 180V270 6000 BR FEW005 OVC230 06/05 Q1030 WHT 22006 4000 BR NSC BECMG 5000 SCT010 BKN250",
                "EHEH 301025Z AUTO 21006KT 2200 R21/1200U BR BKN000 OVC001 04/04 Q1030 RED 22006 2000 BR BKN003 BECMG 4000 SCT005 BKN250",
                "EHEH 300955Z AUTO 21006KT 0250 R21/0175N FG OVC000 03/02 Q1030 RED 22006 0500 BCFG BKN001 BECMG 0800 BKN003",
                "EHEH 300925Z AUTO 21005KT 0150 R21/0175N FG OVC000 02/02 Q1030 RED 22006 0500 BCFG BKN001 BECMG 0800 BKN003",
                "EHEH 300855Z AUTO 22006KT 0200 R21/0900D FG OVC000 01/01 Q1030 RED 22005KT 2500 MIFG NSC TEMPO 0800 BCFG OVC001",
                "EHEH 300825Z AUTO 20004KT 180V250 2300 R21/2300U BR FEW001 BKN220 01/01 Q1030 YLO 22005KT 2500 MIFG NSC",
                "EHEH 300755Z AUTO 21004KT 0350 R21/0550N FG BKN370 01/01 Q1030 RED 22005KT 2500 MIFG NSC",
                "EHEH 300725Z AUTO 21004KT 0750 R21/0700D FG NSC 01/00 Q1030 RED 22005KT 2500 MIFG NSC",
                "EHEH 300655Z AUTO 20004KT 1800 R21/2400D BR SCT340 01/00 Q1030 YLO 22005KT 2500 MIFG NSC",
                "EHEH 300625Z AUTO 21004KT 2800 R21/P3000U BR OVC120 02/01 Q1030 YLO 22005KT 2500 MIFG NSC",
                "EHEH 300555Z AUTO 22004KT 2100 BR OVC130 00/M00 Q1030 YLO 22005KT 2500 MIFG NSC", "EHEH 300525Z AUTO 22004KT 190V250 2400 BR FEW140 01/00 Q1030 YLO 22005KT 2500 MIFG NSC", "EHEH 300455Z AUTO 21005KT 4700 BR OVC130 01/01 Q1029 GRN",
                "EHEH 300425Z AUTO 22005KT 0550 FZFG BKN360 M00/M01 Q1030 RED", "EHEH 300355Z AUTO 24003KT 3900 BR OVC350 01/00 Q1030 GRN", "EHEH 300255Z AUTO 24006KT 9000 BR BKN340 01/01 Q1030 BLU",
                "EHEH 300225Z AUTO 23005KT 8000 BR OVC330 01/00 Q1030 BLU", "EHEH 300155Z AUTO 21005KT 5000 BR FEW230 OVC340 02/01 Q1030 WHT", "COR EHEH 300055Z AUTO 24005KT 9999 NSC 03/02 Q1030 BLU",
                "COR EHEH 300025Z AUTO 25004KT 9999 NSC 03/02 Q1030 BLU", "COR EHEH 292355Z AUTO 25006KT 9999 NSC 04/03 Q1029 BLU 25005KT 9999 FEW015", "COR EHEH 292325Z AUTO 24005KT 9999 NSC 03/02 Q1029 BLU 25005KT 9999 FEW015",
                "COR EHEH 292255Z AUTO 25005KT 9999 NSC 04/04 Q1029 BLU 25005KT 9999 FEW015", "COR EHEH 292225Z AUTO 25005KT 9999 NSC 05/04 Q1029 BLU 25005KT 9999 FEW015", "COR EHEH 292155Z AUTO 25006KT 220V290 9999 NSC 05/05 Q1028 BLU 25005KT 9999 FEW015",
                "EHEH 292125Z AUTO 26005KT 230V310 9999 FEW012 BKN017 BKN020 07/05 Q1028 WHT 29008KT 9999 FEW015",
                "EHEH 292055Z AUTO 28005KT 230V350 9999 SCT020 SCT024 07/05 Q1027 WHT 29008KT 9999 FEW015", "COR EHEH 292025Z AUTO 29006KT 240V360 9999 NSC 07/05 Q1027 BLU 29008KT 9999 FEW015", "COR EHEH 291955Z AUTO 30007KT 240V360 9999 NSC 07/06 Q1026 BLU 29008KT 9999 FEW015",
                "EHEH 291925Z AUTO 29008KT 240V350 9999 FEW016 SCT020 BKN060 08/06 Q1026 WHT 29010KT 9999 FEW015 BKN025",
                "COR EHEH 291855Z AUTO 29009KT 250V330 9999 -RADZ FEW013 FEW015CB SCT034 OVC039 09/07 Q1025 BLU 29010KT 9999 FEW015 BKN025",
                "EHEH 291425Z AUTO 23016KT 200V270 9999 FEW020 SCT025 BKN029 11/06 Q1022 BLU 25015G25KT 9999 SCT025 BKN030 TEMPO 27018G30KT",
                "EHEH 291355Z AUTO 23017KT 200V270 9999 FEW023 SCT027 OVC031 11/06 Q1023 BLU 25015G25KT 9999 SCT025 BKN030 TEMPO 27018G30KT",
                "EHEH 291325Z AUTO 24015G25KT 200V270 9999 SCT021 OVC025 10/06 Q1024 WHT 25015G25KT 9999 SCT025 BKN030 TEMPO 27018G30KT",
                "EHEH 291255Z AUTO 24016G26KT 200V290 9999 FEW021 SCT025 BKN029 10/06 Q1024 BLU 25015G25KT 9999 SCT025 BKN030 TEMPO 27018G30KT",
                "EHEH 291225Z AUTO 26015KT 220V300 9999 FEW022 OVC025 11/06 Q1025 BLU 25015G25KT 9999 SCT020 BKN025 TEMPO 27018G30KT",
                "EHEH 291155Z AUTO 24015G26KT 210V280 9999 BKN022 OVC026 11/06 Q1025 WHT 25015G25KT 9999 SCT020 BKN025 TEMPO 27018G30KT",
                "EHEH 291125Z AUTO 25017KT 190V280 9999 BKN024 OVC027 11/06 Q1025 WHT 25015G28KT 9999 SCT020 BKN025",
                "EHEH 291055Z AUTO 25015KT 200V290 9999 BKN023 OVC026 11/06 Q1026 WHT 25015G28KT 9999 SCT020 BKN025",
                "EHEH 291025Z AUTO 24018KT 210V290 9999 SCT022 BKN025 OVC029 11/06 Q1026 WHT 25015G28KT 9999 SCT020 BKN025",
                "EHEH 290955Z AUTO 24016KT 210V290 9999 SCT022 BKN025 OVC029 11/06 Q1026 WHT 25015G25KT 9999 SCT020 BKN025",
                "EHEH 290925Z AUTO 25014KT 210V290 9999 SCT019 BKN022 OVC028 11/07 Q1026 WHT 25015G25KT 9999 SCT020 BKN025",
                "EHEH 290855Z AUTO 24013KT 210V290 9999 SCT020 BKN023 OVC027 11/07 Q1026 WHT 25015G25KT 9999 SCT020 BKN025",
                "COR EHEH 290825Z AUTO 24013KT 210V300 9999 SCT020 BKN023 OVC028 11/07 Q1026 WHT 25015G25KT 9999 SCT020 BKN025",
                "EHEH 290755Z AUTO 24014KT 210V310 9999 BKN020 OVC023 11/07 Q1026 WHT 25015G25KT 9999 SCT017 BKN020",
                "EHEH 290725Z AUTO 25011KT 210V290 9999 BKN018 OVC022 10/07 Q1027 WHT 25015G25KT 9999 SCT017 BKN020",
                "EHEH 290655Z AUTO 24013KT 220V290 9999 BKN018 OVC021 11/07 Q1027 WHT 25015G25KT 9999 SCT017 BKN020",
                "EHEH 290625Z AUTO 24017KT 210V280 9999 BKN019 OVC022 11/07 Q1027 WHT 25015G25KT 9999 SCT017 BKN020",
                "EHEH 290555Z AUTO 25015KT 200V280 9999 BKN019 OVC023 11/07 Q1027 WHT 25015G25KT 9999 SCT017 BKN020",
                "EHEH 290525Z AUTO 24017KT 210V270 9999 OVC019 11/07 Q1027 WHT 25015G25KT 9999 SCT017 BKN020",
                "EHEH 290455Z AUTO 25016KT 210V280 9999 FEW017 BKN021 OVC024 11/07 Q1027 WHT", "EHEH 290425Z AUTO 24015KT 210V280 9999 BKN017 OVC021 11/07 Q1027 WHT", "EHEH 290355Z AUTO 24016KT 210V280 9999 SCT016 BKN019 OVC023 11/07 Q1027 WHT",
                "EHEH 290325Z AUTO 24017KT 180V290 9999 BKN016 OVC020 11/08 Q1027 WHT", "EHEH 290255Z AUTO 23015KT 190V270 9999 FEW014 BKN016 OVC020 10/08 Q1027 WHT", "EHEH 290225Z AUTO 23016KT 180V260 9999 FEW014 BKN017 OVC020 10/08 Q1028 WHT",
                "EHEH 290155Z AUTO 23015KT 190V270 9999 FEW008 SCT010 BKN012 10/09 Q1028 GRN", "EHEH 290125Z AUTO 22012KT 190V250 9999 SCT007 OVC008 10/09 Q1029 GRN", "EHEH 290055Z AUTO 22011KT 190V250 9999 BKN007 OVC009 10/09 Q1029 GRN",
                "EHEH 290025Z AUTO 23012KT 210V270 9999 SCT008 OVC009 10/09 Q1029 GRN", "EHEH 282355Z AUTO 23013KT 210V270 9999 SCT009 BKN010 OVC012 10/09 Q1029 GRN", "EHEH 282325Z AUTO 24016KT 210V270 9999 OVC010 11/09 Q1029 GRN",
                "EHEH 282255Z AUTO 24013KT 200V270 9999 FEW007 BKN010 OVC012 11/09 Q1030 GRN", "EHEH 282225Z AUTO 24014KT 220V280 9999 OVC010 11/09 Q1030 GRN", "EHEH 282155Z AUTO 23015KT 9999 OVC010 11/09 Q1030 GRN 23014KT 9999 BKN010 BKN012",
                "EHEH 282125Z AUTO 22015KT 190V250 9999 OVC010 11/09 Q1030 GRN 23014KT 9999 BKN010 BKN012 TEMPO BKN008",
                "EHEH 282055Z AUTO 23013KT 200V270 9999 OVC011 11/08 Q1030 GRN 23014KT 9999 BKN010 BKN012 BECMG",
                "EHEH 282025Z AUTO 23011KT 200V260 9999 OVC012 11/08 Q1030 GRN 23014KT 9999 BKN011 BKN014 BECMG BKN008 BKN010",
                "EHEH 281955Z AUTO 23013G23KT 210V280 9999 OVC013 11/08 Q1030 GRN 23014KT 9999 BKN011 BKN014 BECMG BKN008 BKN010",
                "EHEH 281925Z AUTO 24014KT 210V270 9999 BKN013 OVC016 11/08 Q1030 GRN 23014KT 9999 BKN011 BKN014 BECMG BKN008 BKN010",
                "EHEH 281855Z AUTO 24011KT 9999 SCT013 OVC015 11/09 Q1030 GRN 23014KT 9999 BKN011 BKN014 BECMG BKN008 BKN010",
                "EHEH 281825Z AUTO 23013KT 200V260 9999 BKN012 OVC014 11/09 Q1030 GRN 23014KT 9999 BKN011 BKN014 BECMG BKN008 BKN010",
                "EHEH 281755Z AUTO 24013KT 200V280 9999 BKN011 OVC014 11/09 Q1030 GRN 23014KT 9999 BKN011 BKN014 BECMG BKN008 BKN010",
                "EHEH 281725Z AUTO 24014KT 200V270 9999 SCT012 OVC014 11/09 Q1030 GRN 23013KT 9999 BKN012 BKN014",
                "EHEH 281655Z AUTO 25014KT 210V280 9999 OVC012 11/09 Q1030 GRN 23013KT 9999 BKN012 BKN014",
                "EHEH 281625Z AUTO 24013KT 220V280 9999 BKN013 OVC015 12/09 Q1030 GRN 23013KT 9999 BKN012 BKN014",
                "EHEH 281555Z AUTO 24010KT 210V280 9999 OVC014 12/09 Q1030 GRN 23013KT 9999 BKN012 BKN014", "EHEH 281525Z AUTO 23013KT 210V270 9999 OVC015 12/09 Q1030 WHT 23014KT 9999 BKN016 BKN020", "EHEH 281455Z AUTO 24014KT 200V270 9999 OVC017 12/09 Q1029 WHT 23014KT 9999 BKN016 BKN020",
                "COR EHEH 281425Z AUTO 23013KT 210V270 9999 OVC018 12/09 Q1029 WHT 23014KT 9999 BKN016 BKN020",
                "EHEH 281355Z AUTO 23013KT 200V290 9999 BKN019 OVC022 12/08 Q1029 WHT 23014KT 9999 BKN016 BKN020",
                "EHEH 281325Z AUTO 23014KT 200V270 9999 BKN019 OVC022 12/08 Q1029 WHT 23014KT 9999 BR BKN016 BKN020",
                "EHEH 281255Z AUTO 24013KT 200V270 9999 BKN016 BKN020 OVC023 11/08 Q1030 WHT 23014KT 9999 BR BKN016 BKN020",
                "EHEH 281225Z AUTO 25013KT 210V290 9999 SCT016 BKN019 OVC055 11/08 Q1030 WHT 23010KT 9999 BR FEW008 BKN012 BKN018",
                "EHEH 281155Z AUTO 24012KT 200V260 9999 FEW012 BKN015 OVC018 11/08 Q1030 WHT 23010KT 9999 BR FEW008 BKN012 BKN018",
                "EHEH 281125Z AUTO 24014KT 190V300 9999 SCT014 OVC016 11/09 Q1030 GRN 23010KT 9999 BR FEW008 BKN012 BKN018",
                "EHEH 281055Z AUTO 23012KT 9999 FEW008 BKN010 BKN012 10/09 Q1030 GRN 23010KT 9999 BR FEW008 BKN012 BKN018",
                "EHEH 281025Z AUTO 23011KT 200V260 9000 BR FEW007 BKN009 BKN010 10/09 Q1030 GRN 23010KT 9999 BR FEW008 BKN012 BKN018",
                "EHEH 280955Z AUTO 24012KT 210V270 8000 BR FEW007 SCT008 BKN010 10/09 Q1030 GRN 23010KT 7000 BR SCT008 BKN010",
                "COR EHEH 280925Z AUTO 23009KT 6000 BR FEW005 BKN006 BKN008 09/09 Q1030 YLO 23010KT 7000 BR SCT008 BKN010",
                "EHEH 280855Z AUTO 23011KT 5000 BR SCT004 BKN006 BKN007 09/08 Q1030 YLO 23015KT 3000 BR BKN003 OVC004 BECMG 6000 SCT006 BKN008",
                "EHEH 280825Z AUTO 22011KT 3600 R21/P3000U BR OVC002 09/08 Q1029 AMB 23015KT 3000 BR BKN002 OVC003",
                "COR EHEH 280755Z AUTO 22011KT 3000 R21/3000U BR OVC002 08/08 Q1029 AMB 23015KT 3000 BR BKN002 OVC003",
                "EHEH 280725Z AUTO 22012KT 190V260 2700 R21/P3000N BR OVC002 08/08 Q1029 AMB 23015KT 2000 BR DZ BKN002 OVC003",
                "EHEH 280655Z AUTO 23011KT 190V260 3200 R21/P3000N BR OVC002 08/08 Q1029 AMB 23015KT 2000 BR DZ BKN002 OVC003",
                "EHEH 280625Z AUTO 23011KT 190V260 2900 R21/P3000N BR OVC002 08/08 Q1028 AMB 23015KT 2000 BR DZ BKN002 OVC003",
                "EHEH 280555Z AUTO 23014KT 200V260 2600 R21/2700U BR OVC002 08/08 Q1028 AMB 23015KT 2000 BR DZ BKN002 OVC003",
                "EHEH 280525Z AUTO 23014KT 200V270 2600 BR OVC002 08/07 Q1028 AMB", "EHEH 280455Z AUTO 23014KT 3500 BR BKN003 OVC004 08/07 Q1028 YLO", "EHEH 280425Z AUTO 23013KT 190V270 6000 BR OVC004 07/07 Q1027 YLO",
                "EHEH 280355Z AUTO 22013KT 190V250 8000 BR OVC004 07/07 Q1027 YLO", "EHEH 280325Z AUTO 22013KT 190V250 2700 -RADZ BKN004 OVC006 07/06 Q1027 YLO", "EHEH 280255Z AUTO 22015KT 200V260 4300 DZ BKN005 OVC006 07/06 Q1027 YLO",
                "EHEH 280225Z AUTO 22015KT 190V250 4400 DZ BKN005 OVC006 07/06 Q1027 YLO", "EHEH 280155Z AUTO 22015KT 190V250 6000 BR OVC005 06/06 Q1027 YLO", "EHEH 280125Z AUTO 22016KT 190V260 8000 BR BKN005 OVC006 06/06 Q1027 YLO",
                "EHEH 280055Z AUTO 22018KT 6000 BR BKN005 OVC006 06/05 Q1026 YLO", "EHEH 280025Z AUTO 21017KT 190V250 3700 BR SCT005 BKN006 OVC008 06/05 Q1027 YLO", "EHEH 272355Z AUTO 22016KT 190V260 4200 -DZ FEW005 BKN006 OVC008 06/05 Q1027 REDZ YLO",
                "EHEH 272325Z AUTO 22017KT 190V250 2300 -RA FEW005 BKN006 BKN008 06/05 Q1027 RERA REDZ YLO",
                "EHEH 272255Z AUTO 21016KT 180V260 2400 DZ SCT005 BKN006 BKN008 05/05 Q1027 YLO",
                "EHEH 272125Z AUTO 21017KT 9999 BKN016 OVC020 06/03 Q1027 WHT 21015G25KT 9999 SCT018 BKN020 TEMPO 4500 DZRA SCT010 BKN015",
                "EHEH 272055Z AUTO 21015KT 170V230 6000 DZ OVC021 05/03 Q1026 WHT 21015G25KT 9999 SCT018 BKN020 TEMPO 4500 DZRA SCT010 BKN015",
                "EHEH 272025Z AUTO 21015KT 9999 FEW019 BKN022 OVC025 06/03 Q1027 WHT 21015G25KT 9999 SCT018 BKN020",
                "EHEH 271955Z AUTO 20014KT 170V230 9999 FEW033 OVC044 06/03 Q1026 BLU 21015G25KT 9999 SCT018 BKN020",
                "EHEH 271925Z AUTO 21015KT 9999 -DZ OVC045 06/03 Q1027 BLU 21015G25KT 9999 SCT018 BKN020",
                "EHEH 271855Z AUTO 20015KT 9999 -DZ FEW070 OVC087 06/03 Q1027 BLU 21015G25KT 9999 SCT018 BKN020",
                "EHEH 271825Z AUTO 20014KT 9999 FEW083 SCT093 BKN100 06/03 Q1027 BLU 21012KT 9999 SCT018 BKN020",
                "EHEH 271755Z AUTO 20014KT 9999 SCT084 BKN089 OVC097 06/03 Q1028 BLU 21012KT 9999 SCT018 BKN020",
                "EHEH 271725Z AUTO 20012KT 170V240 9999 BKN090 OVC120 06/03 Q1028 BLU 21012KT 9999 SCT018 BKN020",
                "EHEH 271655Z AUTO 20011KT 9999 FEW099 BKN100 OVC160 06/03 Q1028 BLU 21012KT 9999 SCT018 BKN200",
                "EHEH 271625Z AUTO 20011KT 170V230 9999 OVC200 06/03 Q1028 BLU 21012KT 9999 SCT018 BKN200", "EHEH 271555Z AUTO 20009KT 9999 OVC210 06/03 Q1029 BLU 21012KT 9999 SCT018 BKN200", "EHEH 271525Z AUTO 19009KT 9999 OVC230 06/03 Q1029 BLU 21012KT 9999 SCT018 BKN020",
                "EHEH 271455Z AUTO 20010KT 170V230 9999 OVC250 06/03 Q1029 BLU 21012KT 9999 SCT018 BKN020",
                "EHEH 271425Z AUTO 20011KT 160V230 9999 FEW017 BKN300 07/03 Q1029 BLU 21012KT 9999 SCT018 BKN020",
                "EHEH 271355Z AUTO 19012KT 9999 BKN017 07/03 Q1029 WHT 21012KT 9999 SCT018 BKN020", "EHEH 271325Z AUTO 21012KT 180V240 9999 BKN018 07/03 Q1029 WHT 21010KT 9999 BKN020", "EHEH 271255Z AUTO 19011KT 170V230 9999 FEW019 07/02 Q1029 BLU 21010KT 9999 SCT020",
                "EHEH 271225Z AUTO 20012KT 9999 SCT019 07/02 Q1030 WHT 21010KT 9999 BKN020", "EHEH 271155Z AUTO 21011KT 170V230 9999 BKN019 07/03 Q1030 WHT 21010KT 9999 BKN020", "EHEH 271125Z AUTO 22010KT 190V250 9999 OVC019 06/02 Q1031 WHT 21010KT 9999 BKN020",
                "EHEH 271055Z AUTO 21010KT 180V250 9999 OVC019 06/02 Q1031 WHT 21010KT 9999 BKN020", "EHEH 271025Z AUTO 22009KT 190V250 9999 OVC019 06/02 Q1031 WHT 21010KT 9999 BKN020", "EHEH 270955Z AUTO 22009KT 180V250 9999 OVC018 06/03 Q1030 WHT 20004KT 9999 BKN020",
                "EHEH 270925Z AUTO 22007KT 9999 OVC017 05/03 Q1031 WHT 20004KT 9999 BKN020", "EHEH 270855Z AUTO 23005KT 9999 OVC017 05/03 Q1030 WHT 20004KT 9999 BKN020", "EHEH 270825Z AUTO 19004KT 9999 OVC019 05/02 Q1030 WHT 20004KT 9999 BKN020",
                "COR EHEH 270755Z AUTO 19005KT 9999 OVC020 05/03 Q1030 WHT 20004KT 9999 BKN020", "EHEH 270725Z AUTO 19005KT 6000 BR FEW019 OVC022 05/03 Q1030 WHT 20004KT 6000 BR BKN020", "COR EHEH 270655Z AUTO 20003KT 6000 BR FEW018 OVC021 05/03 Q1030 WHT 20004KT 6000 BR BKN020",
                "EHEH 270625Z AUTO 23004KT 200V260 8000 BR OVC018 05/03 Q1030 WHT 25004KT 9999 OVC020", "EHEH 270555Z AUTO VRB02KT 9999 OVC018 04/03 Q1029 WHT 25004KT 9999 OVC020", "EHEH 270525Z AUTO 25003KT 210V270 9999 OVC017 04/03 Q1029 WHT",
                "COR EHEH 270455Z AUTO 25005KT 220V300 9999 OVC016 05/03 Q1029 WHT",
                "EHEH 270425Z AUTO 23005KT 210V270 9999 OVC017 04/03 Q1029 WHT VRB02KT 4000 BR BKN015 TEMPO 1200 MIFG",
                "EHEH 270355Z AUTO 25004KT 210V280 9000 BR OVC018 04/03 Q1028 WHT VRB02KT 4000 BR BKN015 TEMPO 1200 MIFG",
                "EHEH 270325Z AUTO 24004KT 5000 BR OVC020 03/02 Q1028 WHT VRB02KT 4000 BR BKN015 TEMPO 1200 MIFG",
                "EHEH 270255Z AUTO 25004KT 1300 BR OVC018 02/01 Q1028 AMB VRB02KT 4000 BR BKN015 TEMPO 1200 MIFG",
                "EHEH 270225Z AUTO 20003KT 0400 FG FEW000 BKN022 01/01 Q1027 RED VRB02KT 4000 BR BKN015 TEMPO 1200 MIFG",
                "EHEH 270155Z AUTO 21003KT 1000 BR BKN024 02/02 Q1027 AMB VRB02KT 4000 BR BKN015 TEMPO 1200 MIFG",
                "EHEH 270125Z AUTO 21003KT 2200 BR OVC027 03/02 Q1027 YLO VRB02KT 4000 BR BKN015 TEMPO 1200 MIFG",
                "EHEH 270055Z AUTO 24003KT 240V310 2600 BR OVC025 02/01 Q1027 YLO VRB02KT 4000 BR BKN015 TEMPO 1200 MIFG",
                "EHEH 270025Z AUTO VRB02KT 2800 BR OVC022 02/02 Q1027 YLO VRB02KT 4000 BR BKN015 TEMPO 1200 MIFG",
                "EHEH 262355Z AUTO 25003KT 210V300 1100 BR OVC021 01/00 Q1027 AMB VRB02KT 4000 BR BKN015 TEMPO 1200 MIFG",
                "EHEH 262325Z AUTO 29003KT 250V330 0350 FG OVC022 01/00 Q1027 RED VRB02KT 4000 BR BKN015 TEMPO 1200 MIFG",
                "EHEH 262255Z AUTO VRB02KT 0400 FG FEW000 02/02 Q1026 RED VRB02KT 4000 BR BKN015 TEMPO 1200 MIFG",
                "COR EHEH 262225Z AUTO VRB01KT 1100 BR NSC 04/03 Q1026 AMB VRB02KT 4000 BR BKN015 TEMPO 1200 MIFG",
                "EHEH 262155Z AUTO VRB02KT 2500 R21/2800U BR SCT010 SCT027 BKN043 04/03 Q1026 YLO VRB02KT 4000 BR BKN015 TEMPO 1200 MIFG",
                "EHEH 262125Z AUTO 22002KT 2300 R21/2700N BR FEW012 BKN018 OVC022 04/03 Q1025 YLO VRB02KT 4000 BR BKN015 TEMPO 1200 MIFG",
                "EHEH 262055Z AUTO VRB01KT 2300 R21/2700N BR OVC013 04/03 Q1025 YLO VRB02KT 4000 BR BKN015 TEMPO 1200 MIFG",
                "EHEH 262025Z AUTO 21001KT 1900 R21/1900D BR BKN014 OVC016 03/03 Q1024 YLO VRB02KT 4000 BR BKN040 TEMPO 1200 MIFG",
                "EHEH 261955Z AUTO 20001KT 1900 R21/1800D BR OVC041 03/03 Q1024 YLO VRB02KT 4000 BR BKN040 TEMPO 1200 MIFG",
                "EHEH 261925Z AUTO 00000KT 0650 R21/2300U FG SCT041 OVC045 03/03 Q1024 RED VRB02KT 4000 BR BKN040 TEMPO 1200 MIFG",
                "EHEH 261855Z AUTO VRB01KT 1900 R21/3000D BR FEW040 BKN045 03/02 Q1023 YLO VRB02KT 4000 BR BKN040 TEMPO 2000",
                "EHEH 261825Z AUTO 31004KT 4300 BR FEW045 SCT050 04/04 Q1023 GRN VRB02KT 5000 BR BKN040", "EHEH 261755Z AUTO 25001KT 4200 BR OVC043 05/04 Q1022 GRN VRB02KT 5000 BR BKN040", "EHEH 261725Z AUTO VRB01KT 6000 BR OVC041 05/04 Q1022 WHT VRB02KT 5000 BR BKN040",
                "EHEH 261655Z AUTO VRB01KT 9000 BR BKN040 BKN044 06/04 Q1021 BLU VRB02KT 5000 BR BKN040",
                "EHEH 261625Z AUTO VRB01KT 8000 BR OVC041 06/04 Q1021 BLU VRB02KT 8000 BR BKN040",
                "EHEH 261555Z AUTO VRB01KT 7000 BR BKN040 OVC044 06/04 Q1021 WHT 25003KT 8000 SCT008 BKN010 BECMG SCT010",
                "EHEH 261525Z AUTO 28005KT 230V320 8000 BR SCT009 OVC011 07/04 Q1020 GRN 25003KT 8000 SCT008 BKN010 BECMG SCT010",
                "EHEH 261455Z AUTO 25007KT 230V290 9999 BKN009 OVC010 07/05 Q1020 GRN 25003KT 8000 SCT008 BKN010 BECMG SCT010",
                "EHEH 261425Z AUTO 27004KT 210V310 9999 OVC010 07/05 Q1019 GRN 25003KT 8000 SCT008 BKN010 BECMG SCT010",
                "EHEH 261355Z AUTO 22006KT 200V260 9999 OVC010 07/05 Q1019 GRN 25003KT 8000 SCT008 BKN010 BECMG SCT010",
                "EHEH 261325Z AUTO 26006KT 200V260 9000 BR BKN010 OVC012 07/05 Q1019 GRN 25003KT 8000 SCT008 BKN010 BECMG SCT010",
                "EHEH 261255Z AUTO 28003KT 200V300 7000 BR SCT008 BKN009 OVC010 07/05 Q1018 GRN 22003KT 7000 SCT007 BKN008 BECMG SCT010",
                "EHEH 261225Z AUTO 23003KT 200V270 7000 BR SCT007 BKN008 07/05 Q1018 GRN 22003KT 7000 SCT007 BKN008 BECMG SCT010",
                "EHEH 261155Z AUTO 23005KT 190V250 5000 BR SCT005 BKN006 BKN008 07/06 Q1018 YLO 22005KT 5000 SCT005 BKN006 BECMG 8000 SCT010",
                "EHEH 261125Z AUTO 24007KT 190V260 5000 BR OVC005 07/06 Q1018 YLO 22005KT 5000 BKN005 BECMG 8000 SCT010",
                "EHEH 261055Z AUTO 21005KT 180V240 6000 BR BKN005 OVC006 06/06 Q1018 YLO 22005KT 7000 SCT005 BKN006 BECMG SCT010",
                "EHEH 261025Z AUTO 23005KT 200V260 6000 BR BKN220 OVC270 06/06 Q1017 WHT 22005KT 8000 SCT015 BECMG SCT010 BKN015",
                "EHEH 260955Z AUTO 22005KT 5000 BR OVC220 05/05 Q1017 WHT 20005KT 4000 BR BKN200 BECMG 8000 NSW FEW010 BKN200",
                "EHEH 260925Z AUTO 20004KT 4300 BR OVC200 05/05 Q1017 GRN 20005KT 4000 BR BKN200 BECMG 8000 NSW FEW010 BKN200",
                "EHEH 260855Z AUTO 21005KT 180V240 4000 BR OVC200 04/03 Q1016 GRN 20005KT 4000 BR BKN200 BECMG 8000 NSW FEW010 BKN200",
                "EHEH 260825Z AUTO 19005KT 3800 BR OVC200 03/03 Q1016 GRN 18005KT 4000 BR MIFG BKN150 BECMG 8000 NSW BKN200",
                "EHEH 260755Z AUTO 20004KT 160V230 2300 R21/P3000D BR OVC190 03/03 Q1016 YLO 18005KT 1500 BR MIFG BKN150 BECMG 5000 NSW BKN150",
                "EHEH 260725Z AUTO 19003KT 1600 R21/2300U BR OVC190 04/04 Q1015 YLO 18005KT 1500 BR MIFG BKN150",
                "EHEH 260655Z AUTO 20003KT 4400 R21/0750D BR OVC180 04/04 Q1015 GRN 18005KT 4000 BR BKN150",
                "EHEH 260625Z AUTO 20004KT 4000 R21/2700D BR SCT027 OVC150 04/04 Q1015 GRN 18005KT 4000 BR BKN150",
                "COR EHEH 260555Z AUTO 18004KT 5000 R21/2300N BR OVC150 04/04 Q1014 WHT 18005KT 4000 BR BKN150", "COR EHEH 260525Z AUTO 18006KT 4400 BR OVC150 05/04 Q1014 GRN 18005KT 4000 BR BKN150", "EHEH 260455Z AUTO 18006KT 3900 BR OVC150 05/04 Q1014 GRN",
                "EHEH 260425Z AUTO 19004KT 3100 BR OVC160 04/04 Q1014 YLO", "EHEH 260355Z AUTO 20004KT 2400 BR OVC170 04/04 Q1013 YLO", "EHEH 260325Z AUTO 19005KT 4300 BR OVC170 05/04 Q1013 GRN",
                "EHEH 260255Z AUTO 19004KT 5000 BR OVC170 05/04 Q1013 WHT", "EHEH 260225Z AUTO 17005KT 4800 BR OVC180 05/04 Q1013 GRN", "EHEH 260155Z AUTO 20003KT 4200 BR OVC200 05/04 Q1013 GRN",
                "EHEH 260125Z AUTO 18005KT 7000 BR OVC170 05/05 Q1013 WHT", "EHEH 260055Z AUTO 19005KT 8000 BR OVC140 06/05 Q1013 BLU", "EHEH 260025Z AUTO 19005KT 9000 BR FEW013 OVC140 06/05 Q1013 BLU",
                "EHEH 252355Z AUTO 19005KT 8000 BR FEW017 OVC130 06/05 Q1013 BLU", "EHEH 252325Z AUTO 18005KT 9000 BR OVC130 06/05 Q1013 BLU", "EHEH 252255Z AUTO 19006KT 9999 FEW026 OVC140 06/05 Q1013 BLU",
                "EHEH 252225Z AUTO 20006KT 9999 FEW015 OVC130 06/06 Q1012 BLU",
                "EHEH 252155Z AUTO 20005KT 9999 SCT024 OVC130 06/05 Q1012 WHT",
                "EHEH 252125Z AUTO 18005KT 150V220 9999 OVC140 07/06 Q1011 BLU 19006KT 9999 FEW015 SCT020 BKN040",
                "EHEH 252055Z AUTO 18006KT 160V230 9999 FEW016 SCT019 BKN036 07/06 Q1012 WHT 19006KT 9999 FEW015 SCT020 BKN040",
                "EHEH 252025Z AUTO 19005KT 9999 OVC140 07/06 Q1012 BLU 19006KT 9999 FEW015 SCT020 BKN040",
                "EHEH 251955Z AUTO 19006KT 9999 FEW017 BKN022 OVC025 07/06 Q1012 WHT 20006KT 9999 SCT020 BKN070 TEMPO FEW015CB BKN025",
                "EHEH 251925Z AUTO 19006KT 160V220 9999 FEW017 SCT021 OVC130 07/06 Q1012 WHT 20006KT 9999 SCT020 BKN070 TEMPO FEW015CB BKN025",
                "EHEH 251855Z AUTO 17006KT 9999 FEW020 SCT058 OVC120 07/06 Q1011 BLU 20006KT 9999 SCT020 BKN070 TEMPO FEW015CB BKN025",
                "EHEH 251825Z AUTO 18005KT 9999 BKN056 OVC062 07/05 Q1011 BLU 20006KT 9999 SCT020 BKN070 TEMPO FEW015CB BKN025",
                "EHEH 251755Z AUTO 19006KT 9999 FEW048 SCT084 BKN090 08/05 Q1011 BLU 20006KT 9999 SCT020 BKN070 TEMPO FEW015CB BKN025",
                "EHEH 251625Z AUTO 17005KT 140V220 9999 OVC100 08/06 Q1010 BLU 20006KT 9999 FEW015 SCT020 BKN090 TEMPO 3500 SHRA SCT015CB BKN025",
                "EHEH 251555Z AUTO 17004KT 130V200 9999 FEW022 OVC120 08/07 Q1011 BLU 20006KT 9999 FEW015 BKN090 TEMPO 3500 SHRA SCT015CB BKN025",
                "EHEH 251525Z AUTO 18003KT 9999 FEW086 OVC110 08/07 Q1011 BLU 20006KT 9999 FEW015 BKN090 TEMPO 3500 SHRA SCT015CB BKN025",
                "EHEH 251455Z AUTO 19003KT 9999 BKN099 OVC100 09/07 Q1011 BLU 20006KT 9999 FEW015 BKN090 TEMPO 3500 SHRA SCT015CB BKN025",
                "EHEH 251425Z AUTO 21007KT 9999 OVC110 09/07 Q1011 BLU 22008KT 9999 FEW014 BKN100 TEMPO 3500 SHRA SCT015CB BKN025",
                "EHEH 251355Z AUTO 20006KT 170V240 9999 OVC120 09/07 Q1011 BLU 22008KT 9999 FEW014 BKN100 TEMPO 3500 SHRA SCT015CB BKN025",
                "EHEH 251155Z AUTO 20008KT 170V230 9999 -RA FEW006 SCT019 BKN024 08/07 Q1012 WHT 22008KT 9999 FEW014 BKN100 TEMPO BKN015 BKN025",
                "EHEH 251125Z AUTO 20008KT 9999 FEW012 SCT048 OVC063 09/07 Q1012 BLU 22008KT 9999 FEW014 BKN100 TEMPO SCT015",
                "EHEH 251055Z AUTO 20009KT 9999 BKN026 OVC110 09/07 Q1012 BLU 22008KT 9999 FEW014 BKN100 TEMPO SCT015",
                "EHEH 251025Z AUTO 20008KT 170V240 9999 FEW013 OVC110 08/06 Q1012 BLU 22008KT 9999 FEW014 BKN100",
                "EHEH 250955Z AUTO 19007KT 170V230 9999 BKN089 OVC110 08/06 Q1012 BLU 22008KT 9999 FEW014 BKN100",
                "COR EHEH 250925Z AUTO 19008KT 9999 BKN017 OVC130 08/06 Q1012 WHT 22008KT 9999 FEW014 BKN100", "EHEH 250855Z AUTO 19007KT 9999 OVC140 07/06 Q1012 BLU 22008KT 9999 FEW014 BKN100", "EHEH 250825Z AUTO 20006KT 170V230 9999 OVC140 07/06 Q1012 BLU 22008KT 9999 FEW014 BKN100",
                "EHEH 250755Z AUTO 20006KT 9999 OVC110 07/06 Q1012 BLU 22008KT 9999 FEW014 BKN100", "EHEH 250725Z AUTO 20008KT 9999 OVC110 07/06 Q1011 BLU 22008KT 9999 FEW014 BKN180", "COR EHEH 250655Z AUTO 20008KT 9999 OVC120 07/06 Q1012 BLU 22008KT 9999 FEW014 BKN180",
                "EHEH 250625Z AUTO 19007KT 9999 FEW013 SCT016 OVC180 07/06 Q1012 WHT 22008KT 9999 FEW014 BKN180",
                "EHEH 250555Z AUTO 20008KT 9999 OVC180 07/06 Q1011 BLU 22008KT 9999 FEW014 BKN180", "EHEH 250525Z AUTO 21008KT 9999 FEW012 OVC180 07/06 Q1011 BLU 22008KT 9999 FEW014 BKN180", "EHEH 250455Z AUTO 21008KT 190V250 9999 OVC170 07/06 Q1011 BLU",
                "EHEH 250425Z AUTO 20009KT 9999 SCT016 OVC170 07/05 Q1011 WHT", "COR EHEH 250355Z AUTO 20008KT 9999 OVC170 07/05 Q1011 BLU", "COR EHEH 250325Z AUTO 20009KT 9999 BKN033 OVC170 07/05 Q1011 BLU",
                "EHEH 250255Z AUTO 20010KT 9999 FEW028 SCT031 BKN040 08/06 Q1011 REDZ BLU", "COR EHEH 250225Z AUTO 21010KT 9999 -DZ FEW050 SCT058 BKN067 08/06 Q1011 REDZ BLU", "EHEH 250155Z AUTO 22011KT 190V250 9999 DZ FEW031 OVC063 08/07 Q1011 BLU",
                "EHEH 250125Z AUTO 22011KT 190V250 9999 DZRA FEW008 SCT048 OVC059 08/07 Q1011 BLU", "EHEH 250055Z AUTO 23010KT 200V260 9999 FEW008 SCT010 OVC050 08/07 Q1010 GRN", "EHEH 250025Z AUTO 23010KT 190V260 9999 FEW009 BKN044 OVC050 08/07 Q1011 BLU",
                "EHEH 242355Z AUTO 23009KT 200V260 9999 FEW010 OVC044 08/07 Q1010 BLU", "EHEH 242325Z AUTO 24008KT 200V270 9999 -DZ BKN036 OVC041 08/07 Q1010 REDZ BLU", "EHEH 242255Z AUTO 26010KT 220V300 8000 +DZ FEW007 FEW015CB BKN025 OVC030 08/07 Q1010 BLU",
                "EHEH 242225Z AUTO 28011KT 240V320 5000 DZ FEW008 OVC021 08/07 Q1010 WHT",
                "EHEH 242155Z AUTO 27018KT 200V310 9999 -RADZ SCT018 OVC022 11/08 Q1009 WHT",
                "EHEH 242125Z AUTO 21017KT 9999 BKN024 OVC029 12/08 Q1008 WHT 21020G32KT 9999 SCT020 BKN025",
                "EHEH 242055Z AUTO 21018KT 190V250 9999 SCT022 OVC026 12/08 Q1008 WHT 21020G32KT 9999 SCT020 BKN025",
                "EHEH 242025Z AUTO 20020G30KT 170V230 9999 BKN029 OVC032 13/07 Q1008 BLU 20020G32KT 9999 SCT025 BKN030",
                "EHEH 241955Z AUTO 20019KT 170V230 9999 BKN026 OVC030 13/07 Q1008 BLU 20020G32KT 9999 SCT025 BKN030",
                "EHEH 241925Z AUTO 20017G28KT 160V230 9999 SCT028 OVC031 13/07 Q1008 BLU 20020G32KT 9999 SCT025 BKN030",
                "EHEH 241855Z AUTO 20018KT 160V230 9999 SCT028 OVC031 13/07 Q1008 BLU 20020G32KT 9999 SCT025 BKN030",
                "EHEH 241825Z AUTO 20020KT 160V230 9999 BKN032 OVC037 13/07 Q1009 BLU 20020G35KT 9999 SCT025 BKN035",
                "EHEH 241755Z AUTO 20018KT 170V230 9999 BKN031 OVC035 13/07 Q1009 BLU 20017G32KT 9999 SCT025 BKN035",
                "EHEH 241725Z AUTO 20019KT 160V230 9999 SCT029 BKN033 OVC052 13/07 Q1009 BLU 20017G32KT 9999 SCT025 BKN035",
                "EHEH 241655Z AUTO 20017KT 170V230 9999 BKN030 BKN034 OVC040 13/08 Q1009 BLU 20017G32KT 9999 SCT025 BKN035",
                "COR EHEH 241625Z AUTO 20016KT 170V230 9999 SCT028 OVC032 13/08 Q1009 BLU 20017G32KT 9999 SCT025 BKN035",
                "COR EHEH 241555Z AUTO 20019KT 170V240 9999 BKN029 OVC032 13/08 Q1010 BLU 20017G32KT 9999 SCT025 BKN035",
                "EHEH 241525Z AUTO 20021G31KT 170V230 9999 SCT028 BKN031 OVC036 14/08 Q1010 BLU 20017G32KT 9999 SCT025 BKN035",
                "EHEH 241455Z AUTO 20018G31KT 170V230 9999 FEW027 SCT037 OVC042 13/09 Q1010 BLU 20017G32KT 9999 SCT025 BKN035",
                "EHEH 241425Z AUTO 21016G27KT 180V240 9999 SCT020 BKN024 BKN028 13/09 Q1011 WHT 20017G32KT 9999 SCT015 BKN018",
                "EHEH 241355Z AUTO 20018KT 170V230 9999 -DZ FEW017 SCT022 BKN026 13/10 Q1011 WHT 20017G32KT 9999 SCT015 BKN018",
                "EHEH 241325Z AUTO 20019G31KT 170V230 9999 SCT018 OVC021 13/10 Q1011 WHT 20017G32KT 9999 SCT015 BKN018",
                "EHEH 241255Z AUTO 20019G34KT 170V230 9999 SCT020 BKN024 OVC028 14/10 Q1011 WHT 20017G32KT 9999 SCT015 BKN018",
                "EHEH 241225Z AUTO 20018KT 180V240 9999 BKN019 OVC022 14/10 Q1012 WHT 20017G32KT 9999 SCT015 BKN018",
                "EHEH 241155Z AUTO 20018KT 170V240 9999 BKN017 OVC021 14/10 Q1012 WHT 20017G32KT 9999 SCT015 BKN018",
                "EHEH 241125Z AUTO 20017KT 180V240 9999 BKN016 OVC020 14/10 Q1013 WHT 20017G32KT 9999 SCT015 BKN018",
                "EHEH 241055Z AUTO 20018KT 9999 OVC016 14/10 Q1013 WHT 20017G32KT 9999 SCT015 BKN018",
                "COR EHEH 241025Z AUTO 20016G29KT 170V230 9999 BKN016 OVC019 13/10 Q1013 WHT 20017G32KT 9999 SCT015 BKN018",
                "EHEH 240955Z AUTO 19016G26KT 9999 FEW014 BKN016 OVC020 13/10 Q1013 WHT 20014G25KT 9999 FEW008 SCT010 OVC013 TEMPO SCT006 BKN010",
                "EHEH 240855Z AUTO 20012KT 150V230 9999 SCT013 OVC015 12/10 Q1015 GRN 20014G25KT 9999 FEW008 SCT010 OVC013 TEMPO SCT006 BKN010",
                "EHEH 240825Z AUTO 20013KT 9999 FEW007 SCT013 BKN016 12/10 Q1015 GRN 20014G25KT 9999 FEW008 SCT010 OVC013 TEMPO SCT006 BKN010",
                "EHEH 240655Z AUTO 20012KT 9999 BKN016 OVC019 12/10 Q1015 WHT 20014G25KT 9999 FEW008 SCT010 OVC013 TEMPO SCT006 BKN010",
                "EHEH 240625Z AUTO 20012KT 170V230 9999 BKN015 OVC018 12/10 Q1016 WHT 20014G25KT 9999 FEW008 SCT010 OVC013 TEMPO SCT006 BKN010",
                "EHEH 240525Z AUTO 20011KT 170V230 9999 SCT010 OVC012 12/10 Q1016 GRN", "EHEH 240455Z AUTO 20012KT 160V230 9999 BKN014 BKN017 OVC020 12/10 Q1016 GRN", "EHEH 240425Z AUTO 21014KT 180V240 9999 SCT014 OVC016 13/10 Q1016 GRN",
                "EHEH 240355Z AUTO 21014KT 9999 BKN012 OVC014 12/11 Q1016 GRN", "EHEH 240325Z AUTO 21013KT 9999 SCT010 OVC013 12/11 Q1016 GRN", "EHEH 240255Z AUTO 21013KT 180V240 9999 FEW009 BKN010 OVC013 12/11 Q1017 REDZ GRN",
                "EHEH 240225Z AUTO 21012KT 180V240 9999 FEW009 OVC011 12/11 Q1017 GRN", "EHEH 240155Z AUTO 22011KT 190V250 9999 BKN011 BKN013 OVC015 12/10 Q1017 GRN", "EHEH 240125Z AUTO 22011KT 190V260 9999 FEW011 BKN013 OVC015 12/10 Q1017 GRN",
                "EHEH 240055Z AUTO 22012KT 190V260 9999 SCT008 BKN009 OVC011 12/10 Q1017 GRN", "EHEH 240025Z AUTO 22014KT 190V250 9999 FEW007 BKN012 OVC015 12/10 Q1017 GRN", "EHEH 232355Z AUTO 22014KT 190V250 7000 BR FEW008 BKN011 BKN013 11/10 Q1017 GRN",
                "EHEH 232325Z AUTO 22015KT 190V260 9999 BKN012 OVC014 12/10 Q1017 GRN", "EHEH 232255Z AUTO 22014KT 190V250 9999 BKN010 OVC012 11/10 Q1017 GRN", "EHEH 232225Z AUTO 21016KT 9999 FEW008 BKN010 OVC013 11/10 Q1017 GRN",
                "EHEH 232155Z AUTO 21015KT 170V240 7000 BR FEW007 BKN009 BKN010 11/09 Q1017 GRN",
                "EHEH 231655Z AUTO 19011KT 9999 SCT014 OVC016 09/07 Q1018 GRN 20012KT 9999 FEW010 BKN015 OVC022 BECMG SCT010 BKN012 OVC015",
                "EHEH 231455Z AUTO 19012KT 9999 OVC020 10/06 Q1018 WHT 19012KT 9999 -RADZ FEW010 BKN015 OVC022 BECMG SCT010 BKN012 OVC015",
                "EHEH 231325Z AUTO 20013KT 170V230 9999 FEW025 OVC038 10/05 Q1019 BLU 21014KT 9999 FEW025 BECMG FEW015 SCT018 BKN040",
                "COR EHEH 231255Z AUTO 20015KT 160V230 9999 FEW025 BKN061 OVC160 10/05 Q1019 BLU 21010KT 9999 FEW025 BECMG FEW015 SCT018 BKN040",
                "COR EHEH 231225Z AUTO 20013KT 170V230 9999 OVC170 10/05 Q1020 BLU 21010KT 9999 FEW025 BECMG FEW015 SCT018 BKN040",
                "EHEH 231155Z AUTO 20012KT 160V230 9999 BKN036 OVC170 10/05 Q1020 BLU 21010KT 9999 FEW038", "COR EHEH 231125Z AUTO 20010KT 9999 OVC036 10/06 Q1021 BLU 21010KT 9999 SCT038", "EHEH 231055Z AUTO 20010KT 9999 OVC035 09/06 Q1021 BLU 21010KT 9999 OVC038",
                "EHEH 231025Z AUTO 19010KT 150V230 9999 OVC037 09/06 Q1021 BLU 21010KT 9999 OVC038", "COR EHEH 230955Z AUTO 20009KT 9999 OVC038 08/05 Q1021 BLU 21010KT 9999 OVC038", "EHEH 230925Z AUTO 19010KT 9999 OVC033 08/05 Q1021 BLU 21010KT 9999 OVC030",
                "EHEH 230855Z AUTO 19009KT 9999 OVC032 07/04 Q1021 BLU 21010KT 9999 OVC030", "COR EHEH 230825Z AUTO 20010KT 9999 OVC030 07/04 Q1021 BLU 21010KT 9999 OVC030", "EHEH 230755Z AUTO 20009KT 9999 BKN030 OVC034 07/04 Q1021 BLU 21008KT 9999 OVC037",
                "EHEH 230725Z AUTO 20008KT 170V230 9999 OVC032 07/04 Q1021 BLU 21008KT 9999 OVC037", "EHEH 230655Z AUTO 20008KT 170V230 9999 OVC036 07/04 Q1020 BLU 21008KT 9999 OVC037", "EHEH 230625Z AUTO 21008KT 9999 OVC037 07/04 Q1020 BLU 21008KT 9999 OVC037",
                "EHEH 230555Z AUTO 21007KT 9999 OVC036 07/04 Q1020 BLU 21008KT 9999 OVC037", "EHEH 230525Z AUTO 21007KT 9999 OVC037 07/04 Q1020 BLU 21008KT 9999 OVC037", "COR EHEH 230355Z AUTO 22005KT 9999 OVC040 06/04 Q1020 BLU",
                "EHEH 230125Z AUTO 24007KT 210V270 9999 BKN031 OVC041 07/05 Q1019 BLU", "EHEH 230055Z AUTO 24008KT 210V290 9999 FEW037 OVC041 07/05 Q1019 BLU", "EHEH 230025Z AUTO 25007KT 210V270 9999 SCT033 SCT038 OVC044 07/05 Q1019 BLU",
                "EHEH 222355Z AUTO 24007KT 9999 SCT034 BKN043 OVC047 07/05 Q1019 BLU", "EHEH 222325Z AUTO 24007KT 9999 BKN032 BKN039 OVC046 07/05 Q1018 BLU", "EHEH 222255Z AUTO 24007KT 9999 BKN032 OVC037 07/05 Q1018 BLU",
                "EHEH 222225Z AUTO 25007KT 210V270 9999 FEW027 SCT034 OVC038 07/05 Q1018 BLU",
                "EHEH 222155Z AUTO 25006KT 210V280 9999 SCT028 SCT033 OVC040 07/05 Q1017 BLU 29008KT 9999 FEW015 SCT020 BKN050",
                "EHEH 222125Z AUTO 25007KT 220V280 9999 FEW031 OVC042 07/05 Q1017 BLU 29008KT 9999 FEW015 SCT020 BKN050",
                "EHEH 222055Z AUTO 25008KT 210V290 9999 FEW037 BKN043 OVC047 07/05 Q1016 BLU 29008KT 9999 FEW015 SCT020 BKN050",
                "EHEH 222025Z AUTO 25007KT 9999 BKN032 BKN038 OVC042 07/05 Q1016 BLU 29008KT 9999 FEW015 SCT020 BKN050",
                "EHEH 221955Z AUTO 25006KT 220V280 9999 SCT035 BKN039 OVC045 07/05 Q1016 BLU 29008KT 9999 FEW015 SCT020 BKN050",
                "EHEH 221925Z AUTO 25007KT 220V290 9999 BKN036 OVC040 07/05 Q1015 BLU 29008KT 9999 FEW015 SCT020 BKN050",
                "EHEH 221855Z AUTO 26006KT 220V290 9999 BKN025 OVC028 07/05 Q1015 BLU 29008KT 9999 FEW015 SCT020 BKN050",
                "EHEH 221825Z AUTO 27007KT 230V320 9999 OVC019 07/05 Q1014 WHT 29008KT 9999 FEW015 SCT020 BKN050",
                "EHEH 221755Z AUTO 27007KT 230V290 9999 FEW020 OVC055 07/05 Q1014 BLU 29008KT 9999 FEW015 SCT020 BKN050",
                "EHEH 221725Z AUTO 27007KT 220V320 9999 OVC047 07/05 Q1013 BLU 29008KT 9999 FEW015 SCT020 BKN050",
                "EHEH 221655Z AUTO 26006KT 230V300 9999 FEW016 OVC048 08/05 Q1012 BLU 29008KT 9999 FEW015 SCT020 BKN050",
                "EHEH 221625Z AUTO 27007KT 240V340 9999 FEW017 OVC048 08/05 Q1012 BLU 29008KT 9999 FEW015 SCT020 BKN050",
                "EHEH 221555Z AUTO 28007KT 230V330 9999 BKN016 BKN020 BKN026 08/05 Q1011 WHT 29008KT 9999 FEW015 SCT020 BKN050",
                "EHEH 221525Z AUTO 28005KT 230V320 9999 FEW016 OVC047 08/06 Q1011 BLU 29008KT 9999 FEW015 SCT020 BKN050",
                "EHEH 221455Z AUTO 28007KT 230V320 9999 FEW017 SCT020 OVC047 09/06 Q1010 WHT 29008KT 9999 FEW015 SCT020 BKN050",
                "EHEH 221425Z AUTO 29007KT 250V350 9999 FEW016 SCT020 BKN046 09/06 Q1009 WHT 29008KT 9999 FEW015 SCT020 BKN050",
                "EHEH 221355Z AUTO 29007KT 240V320 9999 FEW019 OVC045 09/06 Q1009 BLU 29008KT 9999 FEW015 SCT020 BKN050",
                "EHEH 221325Z AUTO 27007KT 240V320 9999 OVC048 09/06 Q1008 BLU 28008KT 9999 FEW012 BKN050",
                "EHEH 221255Z AUTO 28006KT 230V330 9999 OVC048 09/06 Q1008 BLU 28008KT 9999 FEW012 BKN050",
                "EHEH 221225Z AUTO 28006KT 240V320 9999 FEW009 OVC050 09/07 Q1008 BLU 28008KT 9999 FEW012 BKN050",
                "EHEH 221155Z AUTO 28006KT 240V320 9999 FEW010 OVC052 09/07 Q1008 BLU 28008KT 9999 FEW016 BKN050",
                "EHEH 221125Z AUTO 27008KT 240V320 9999 OVC053 09/07 Q1008 BLU 26009KT 9999 BKN048", "EHEH 221055Z AUTO 27007KT 240V310 9999 OVC052 09/07 Q1007 BLU 26009KT 9999 BKN048", "COR EHEH 221025Z AUTO 27006KT 240V300 9999 FEW048 OVC053 08/07 Q1007 BLU 26009KT 9999 BKN048",
                "COR EHEH 220955Z AUTO 26006KT 220V300 9999 OVC052 08/07 Q1007 BLU 26009KT 9999 BKN048", "EHEH 220925Z AUTO 26006KT 230V300 9999 OVC053 08/06 Q1007 BLU 26009KT 9999 BKN048", "EHEH 220855Z AUTO 26005KT 220V290 9999 OVC052 08/07 Q1006 BLU 26009KT 9999 BKN048",
                "EHEH 220825Z AUTO 26007KT 210V310 9999 OVC046 08/07 Q1006 BLU 26009KT 9000 BR FEW018 OVC048",
                "COR EHEH 220755Z AUTO 24008KT 8000 BR BKN044 OVC048 08/07 Q1006 BLU 26009KT 9000 BR FEW018 OVC048",
                "EHEH 220725Z AUTO 24006KT 210V270 5000 BR FEW016 OVC046 07/07 Q1006 WHT 26009KT 4500 BR FEW018 OVC044",
                "EHEH 220555Z AUTO 25010KT 200V280 3800 BR SCT003 OVC004 07/07 Q1005 YLO 26009KT 4500 BR BKN003 OVC005",
                "EHEH 220525Z AUTO 25010KT 220V300 5000 BR BKN003 OVC004 07/06 Q1005 REDZ YLO", "COR EHEH 220455Z AUTO 23009KT 3200 BR SCT003 BKN004 OVC005 06/05 Q1004 YLO", "EHEH 220425Z AUTO 20006KT 2800 -DZ BKN002 OVC003 04/04 Q1005 REDZ AMB",
                "EHEH 220355Z AUTO 19006KT 3300 BR FEW001 BKN003 OVC004 04/03 Q1005 REDZ YLO",
                "EHEH 220325Z AUTO 17005KT 2200 -RADZ FEW002 BKN003 OVC004 03/03 Q1005 YLO",
                "EHEH 220155Z AUTO 16008KT 130V190 3600 -DZ SCT003 BKN004 OVC005 02/02 Q1006 YLO", "EHEH 220125Z AUTO 15008KT 110V180 3200 DZ FEW004 SCT006 BKN007 02/02 Q1006 YLO", "EHEH 220055Z AUTO 17007KT 110V230 2800 +DZ SCT003 BKN004 BKN007 02/02 Q1007 YLO",
                "EHEH 220025Z AUTO 14009KT 2500 BR FEW004 SCT005 BKN006 02/01 Q1007 YLO", "EHEH 212355Z AUTO 14009KT 100V170 6000 BR FEW004 BKN006 BKN007 02/01 Q1008 YLO", "EHEH 212325Z AUTO 14010KT 100V170 8000 -DZ FEW004 SCT005 BKN007 02/01 Q1008 YLO",
                "EHEH 212255Z AUTO 13010KT 5000 -RA SCT004 BKN006 OVC007 02/01 Q1009 YLO", "COR EHEH 212225Z AUTO 13008KT 090V160 9000 -RA SCT005 BKN007 OVC009 02/01 Q1010 YLO", "COR EHEH 212155Z AUTO 14009KT 110V200 7000 -RA SCT007 BKN008 BKN010 02/01 Q1010 GRN",
                "EHEH 212055Z AUTO 16009KT 120V200 8000 -RADZ FEW010 SCT015 BKN018 03/01 Q1012 WHT 16006KT CAVOK BECMG SCT010 BKN020 OVC040",
                "COR EHEH 212025Z AUTO 16006KT 140V200 9999 DZ SCT033 BKN038 OVC042 04/01 Q1012 BLU 16006KT CAVOK BECMG SCT010 BKN020 OVC040",
                "EHEH 211955Z AUTO 16008KT 130V210 9999 FEW036 OVC040 04/01 Q1012 BLU 16006KT CAVOK BECMG SCT010 BKN020 OVC040",
                "EHEH 211925Z AUTO 16009KT 130V200 9999 OVC050 04/01 Q1013 BLU 16006KT CAVOK BECMG SCT010 BKN020 OVC040",
                "EHEH 211855Z AUTO 15007KT 130V200 9999 SCT063 BKN071 OVC098 04/01 Q1014 BLU 16006KT CAVOK BECMG SCT010 BKN020 OVC040",
                "EHEH 211825Z AUTO 15006KT 110V170 9999 SCT067 BKN093 OVC100 04/02 Q1014 BLU 16006KT CAVOK BECMG SCT020 OVC040",
                "COR EHEH 211755Z AUTO 16006KT 130V200 9999 FEW075 SCT085 OVC092 04/02 Q1014 BLU 16006KT CAVOK BECMG SCT020 OVC040",
                "EHEH 211725Z AUTO 16006KT 9999 BKN078 OVC110 04/02 Q1014 BLU 16006KT CAVOK", "EHEH 211655Z AUTO 17006KT 140V200 9999 SCT081 OVC092 04/02 Q1015 BLU 16006KT CAVOK", "COR EHEH 211625Z AUTO 17006KT 130V200 9999 OVC080 04/02 Q1015 BLU 16006KT CAVOK",
                "EHEH 211555Z AUTO 17005KT 130V210 9999 BKN085 OVC099 04/02 Q1016 BLU 23006KT 9999 FEW018 SCT220",
                "EHEH 211525Z AUTO 17005KT 9999 BKN091 OVC096 04/02 Q1016 BLU 23006KT 9999 FEW018 SCT220", "EHEH 211455Z AUTO 20005KT 160V220 9999 OVC100 05/02 Q1016 BLU 23006KT 9999 FEW018 SCT220", "EHEH 211425Z AUTO 21006KT 9999 BKN043 OVC140 05/02 Q1016 BLU 23006KT 9999 FEW018 SCT220",
                "EHEH 211355Z AUTO 22007KT 180V240 9999 OVC040 05/02 Q1016 BLU 23006KT 9999 FEW018 SCT220",
                "EHEH 211325Z AUTO 23007KT 200V260 9999 BKN036 OVC200 05/02 Q1016 BLU 23006KT 9999 FEW018 SCT220",
                "EHEH 211255Z AUTO 23006KT 200V270 9999 BKN036 BKN260 06/02 Q1016 BLU 23006KT 9999 FEW018 SCT220",
                "EHEH 211225Z AUTO 24006KT 200V270 9999 OVC220 06/03 Q1016 BLU 23006KT 9999 FEW018 SCT220", "EHEH 211155Z AUTO 24006KT 170V270 9999 BKN220 05/02 Q1016 BLU 23006KT 9999 FEW025 SCT220", "EHEH 211125Z AUTO 22006KT 200V280 9999 BKN120 BKN190 04/02 Q1016 BLU 22005KT CAVOK",
                "EHEH 211055Z AUTO 23005KT 9999 OVC120 04/02 Q1016 BLU 24005KT CAVOK", "EHEH 211025Z AUTO 23006KT 210V270 9999 OVC120 03/01 Q1016 BLU 24005KT CAVOK", "EHEH 210955Z AUTO 24006KT 220V280 9999 OVC120 02/01 Q1016 BLU 24005KT 9999 FEW025 BKN140",
                "EHEH 210925Z AUTO 24005KT 210V280 9999 OVC130 02/00 Q1015 BLU 24005KT 9999 FEW025 BKN140", "EHEH 210855Z AUTO 24005KT 9999 OVC140 01/M00 Q1015 BLU 24005KT 9999 FEW025 BKN140", "EHEH 210825Z AUTO 25005KT 9999 OVC140 01/M00 Q1014 BLU 25004KT 9999 FEW025 BKN160",
                "EHEH 210755Z AUTO 25004KT 9999 OVC170 M01/M02 Q1014 BLU 25004KT 9999 FEW025 BKN160", "EHEH 210725Z AUTO 25005KT 9999 SCT200 M01/M02 Q1014 BLU 26006KT 9999 SCT025", "COR EHEH 210655Z AUTO 26004KT 9999 NSC M01/M02 Q1013 BLU 26006KT 9999 SCT025",
                "EHEH 210625Z AUTO 26005KT 230V290 9999 FEW029 M00/M01 Q1013 BLU 26006KT 9999 SCT025", "COR EHEH 210555Z AUTO 26005KT 9999 NSC M00/M01 Q1012 BLU 26006KT 9999 SCT025", "COR EHEH 210525Z AUTO 26006KT 230V300 9999 NSC M00/M01 Q1012 BLU 26006KT 9999 SCT025",
                "COR EHEH 210455Z AUTO 25005KT 230V300 9999 NCD 00/M01 Q1011 BLU", "COR EHEH 210425Z AUTO 28005KT 240V320 9999 NCD 01/00 Q1011 BLU", "COR EHEH 210355Z AUTO 26006KT 230V300 9999 NCD 01/00 Q1010 BLU",
                "COR EHEH 210325Z AUTO 25006KT 8000 BR NSC 01/00 Q1010 BLU", "EHEH 210255Z AUTO 26006KT 8000 BR SCT280 01/00 Q1009 BLU", "EHEH 210225Z AUTO 26006KT 230V290 6000 BR FEW028 01/01 Q1009 WHT",
                "COR EHEH 210155Z AUTO 25006KT 220V290 3400 BR NSC 01/01 Q1008 YLO", "COR EHEH 210125Z AUTO 26005KT 3600 BR NSC 02/01 Q1007 YLO", "EHEH 210055Z AUTO 26005KT 230V290 3500 BR FEW005 BKN040 BKN045 02/01 Q1007 YLO",
                "EHEH 210025Z AUTO 27006KT 230V320 4600 SHRA FEW002 SCT014 FEW015CB BKN017 02/02 Q1006 GRN",
                "EHEH 202355Z AUTO 28004KT 240V350 8000 BR BKN016 BKN026 OVC044 02/02 Q1005 WHT", "EHEH 202325Z AUTO 30005KT 250V350 6000 -DZ FEW006 SCT007 BKN033 03/02 Q1005 GRN", "EHEH 202255Z AUTO 28004KT 250V350 3700 -DZ SCT005 OVC006 02/02 Q1004 YLO",
                "EHEH 202225Z AUTO 31003KT 270V350 3000 -DZ SCT006 BKN008 BKN010 02/02 Q1004 YLO",
                "EHEH 202155Z AUTO 33005KT 250V040 5000 BR FEW004 OVC074 02/02 Q1003 WHT 32005KT 5000 BR SCT006 BKN035 TEMPO 1200",
                "EHEH 202125Z AUTO 34006KT 280V050 5000 BR SCT004 OVC005 02/02 Q1003 YLO 32005KT 5000 BR SCT006 BKN035 TEMPO 1200",
                "EHEH 202025Z AUTO VRB02KT 2400 R21/2400D BR BKN005 OVC034 01/01 Q1001 YLO VRB03KT 5000 BR BKN006 BKN035 TEMPO 1200",
                "EHEH 201725Z AUTO VRB01KT 9000 BR OVC007 02/02 Q0999 GRN 12005KT 7000 -RADZ SCT010 OVC025 TEMPO BKN005 OVC010",
                "EHEH 201655Z AUTO VRB02KT 9999 SCT005 BKN007 OVC009 02/02 Q0999 YLO 12005KT 7000 -RADZ SCT010 OVC025 TEMPO BKN005 OVC010",
                "EHEH 201625Z AUTO VRB01KT 9999 OVC006 02/02 Q0999 YLO 12005KT 7000 -RADZ SCT010 OVC025 TEMPO BKN005 OVC010",
                "EHEH 201555Z AUTO 13003KT 9999 -DZ FEW005 BKN006 BKN008 02/01 Q0999 YLO 12005KT 7000 -RADZ SCT010 OVC025 TEMPO BKN005 OVC010",
                "EHEH 201055Z AUTO 19009KT 160V220 9999 +DZ SCT008 SCT009 BKN011 03/02 Q1003 GRN 18005KT 9000 BKN010 OVC012 BECMG BKN008 OVC010",
                "EHEH 201025Z AUTO 18006KT 9999 SCT009 OVC010 03/02 Q1004 GRN 18005KT 9000 BKN010 OVC012 BECMG BKN008 OVC010",
                "EHEH 200955Z AUTO 16005KT 120V190 9999 BKN010 OVC012 03/02 Q1004 GRN 18007KT 9999 BKN006 BKN009 OVC020",
                "EHEH 200925Z AUTO 17006KT 140V210 9999 SCT008 OVC010 02/01 Q1004 GRN 18007KT 9999 BKN006 BKN009 OVC020",
                "EHEH 200855Z AUTO 18006KT 140V230 9999 OVC007 02/01 Q1005 GRN 18007KT 9999 BKN006 BKN009 OVC020",
                "EHEH 200825Z AUTO 20008KT 9999 OVC006 02/01 Q1005 YLO 18007KT 9999 BKN006 BKN009 OVC020",
                "EHEH 200755Z AUTO 19007KT 9999 FEW009 SCT010 OVC160 01/01 Q1006 GRN 18007KT 9999 FEW008 BKN180 BECMG SCT008 SCT020 BKN180",
                "EHEH 200725Z AUTO 18006KT 9999 FEW006 OVC180 01/00 Q1006 BLACKBLU 18007KT 9999 FEW008 BKN180 BECMG SCT008 SCT020 BKN180",
                "EHEH 200655Z AUTO 17006KT 130V190 9999 OVC220 01/00 Q1006 BLACKBLU 18007KT CAVOK", "EHEH 200625Z AUTO 19007KT 9999 OVC230 01/00 Q1006 BLU 19009KT CAVOK", "EHEH 200555Z AUTO 19008KT 9999 OVC220 01/00 Q1006 BLU 19009KT CAVOK",
                "COR EHEH 200525Z AUTO 20009KT 9999 NSC 01/00 Q1007 BLU 19009KT CAVOK", "COR EHEH 200455Z AUTO 20008KT 9999 NSC 01/00 Q1007 BLU", "COR EHEH 200325Z AUTO 21008KT 9999 NSC 01/00 Q1008 BLU",
                "COR EHEH 200255Z AUTO 21008KT 9999 NSC 01/00 Q1008 BLU", "EHEH 200225Z AUTO 20008KT 9999 FEW015CB 01/00 Q1008 BLU", "EHEH 200155Z AUTO 20010KT 9999 FEW028 OVC032 02/01 Q1008 BLU",
                "EHEH 200125Z AUTO 19008KT 9999 FEW025 SCT031 BKN036 02/01 Q1008 BLU", "EHEH 200055Z AUTO 20009KT 9999 FEW015CB SCT051 BKN057 02/01 Q1008 BLU", "EHEH 200025Z AUTO 18008KT 9999 FEW015CB SCT033 01/00 Q1009 BLU",
                "EHEH 192355Z AUTO 19005KT 9000 -RADZ FEW015CB BKN043 BKN048 01/00 Q1009 RESNRA BLU",
                "EHEH 192325Z AUTO 29005KT 230V310 2800 -SHRASN FEW007 SCT011 BKN013 SCT015CB 01/00 Q1009 YLO",
                "EHEH 192255Z AUTO 28007KT 230V310 2100 SHSNRA FEW006 BKN010 OVC013 01/00 Q1009 YLO",
                "EHEH 192225Z AUTO 24010KT 210V280 9999 -RA FEW019 SCT033 BKN037 03/M00 Q1009 BLU 22008KT CAVOK TEMPO FEW012 SCT017CB",
                "EHEH 192155Z AUTO 25006KT 220V300 9999 FEW027 BKN053 BKN058 02/M00 Q1009 BLU 22008KT CAVOK TEMPO FEW012 SCT017CB",
                "EHEH 192125Z AUTO 23009KT 9999 BKN098 OVC100 02/M00 Q1008 BLU 22008KT CAVOK TEMPO FEW012 SCT017CB",
                "EHEH 192055Z AUTO 23012KT 200V260 9999 FEW033 SCT096 BKN100 02/M00 Q1009 BLU 22008KT CAVOK TEMPO FEW012 SCT017CB",
                "EHEH 192025Z AUTO 22009KT 9999 SCT170 01/M01 Q1008 BLU 22008KT CAVOK TEMPO FEW012 SCT017CB",
                "COR EHEH 191955Z AUTO 21006KT 9999 BKN140 01/M01 Q1008 BLU 22008KT CAVOK TEMPO FEW012 SCT017CB",
                "EHEH 191925Z AUTO 22009KT 9999 SCT150 01/M01 Q1008 BLU 24012KT 9999 FEW015 SCT020 TEMPO SCT011 SCT015CB BKN020",
                "COR EHEH 191855Z AUTO 21007KT 9999 NSC 01/M01 Q1008 BLU 24012KT 9999 FEW015 SCT020 TEMPO SCT011 SCT015CB BKN020",
                "EHEH 191825Z AUTO 22006KT 9999 FEW041 SCT049 BKN055 02/M00 Q1008 BLU 24012KT 9999 FEW015 SCT020 TEMPO SCT011 SCT015CB BKN020",
                "EHEH 191725Z AUTO 20006KT 9999 SCT033 OVC039 03/01 Q1008 BLU 24012KT 9999 FEW015 SCT020 TEMPO SCT011 SCT015CB BKN020",
                "EHEH 191655Z AUTO 24006KT 220V280 9999 FEW025 SCT029 03/00 Q1008 BLU 24012KT 9999 FEW015 SCT020 TEMPO SCT011 SCT015CB BKN020",
                "EHEH 191455Z AUTO 23012KT 200V260 9999 FEW044 05/01 Q1008 BLU 24012KT 9999 FEW015 SCT020 TEMPO SCT011 SCT015CB BKN020",
                "EHEH 191425Z AUTO 23012KT 9999 SCT040 BKN045 05/02 Q1008 BLU 24012KT 9999 FEW015 SCT020 TEMPO SCT011 SCT015CB BKN020",
                "COR EHEH 191255Z AUTO 23011KT 200V270 9999 NSC 05/02 Q1008 BLU 24012KT 9999 FEW015 SCT020 TEMPO SCT011 SCT015CB BKN020",
                "EHEH 191155Z AUTO 23014KT 9999 FEW013 SCT017 05/02 Q1008 WHT 24012KT 9999 FEW015 SCT020 TEMPO SCT011 SCT013",
                "EHEH 191125Z AUTO 22011KT 190V250 9999 SCT013 SCT015 05/03 Q1009 GRN 24012KT 9999 FEW016 SCT020 TEMPO FEW009 SCT013",
                "COR EHEH 191055Z AUTO 23012KT 190V270 9999 NSC 05/03 Q1009 BLU 24012KT 9999 FEW016 SCT020 TEMPO FEW009 SCT013",
                "EHEH 191025Z AUTO 22008KT 180V250 9999 FEW009 BKN010 04/02 Q1009 GRN 24010KT 9999 FEW016 SCT020 TEMPO FEW009 SCT013 BKN020",
                "EHEH 190955Z AUTO 23010KT 180V260 9999 FEW008 SCT019 04/02 Q1009 WHT 24010KT 9999 FEW016 SCT020 TEMPO FEW009 SCT013 BKN020",
                "EHEH 190925Z AUTO 22010KT 9999 SCT018 03/02 Q1008 WHT 24010KT 9999 FEW016 SCT020",
                "EHEH 190855Z AUTO 22009KT 190V250 9999 FEW019 SCT022 03/02 Q1008 WHT 24010KT 9999 FEW016 SCT020",
                "EHEH 190825Z AUTO 22009KT 9999 FEW019 BKN023 OVC027 03/02 Q1008 WHT 24010KT 9999 FEW016 SCT020 TEMPO SCT006 SCT016",
                "EHEH 190755Z AUTO 23010KT 9999 FEW018 BKN023 BKN027 03/02 Q1007 WHT 24010KT 9999 FEW016 SCT020 TEMPO SCT006 SCT016",
                "EHEH 190725Z AUTO 22007KT 8000 BR SCT043 02/02 Q1007 BLU 25008KT 9999 FEW016 SCT020 TEMPO SCT006 FEW015CB SCT020",
                "EHEH 190525Z AUTO 24006KT 9999 -UP FEW015 SCT020 BKN027 03/02 Q1005 WHT 25006KT 9999 FEW016 SCT020 TEMPO FEW010 SCT015CB BKN025",
                "EHEH 190455Z AUTO 26009KT 220V300 9999 FEW008 SCT009 BKN011 FEW015CB 03/02 Q1005 GRN", "EHEH 190425Z AUTO 25006KT 220V280 9999 BKN014 BKN016 BKN020 03/02 Q1005 GRN", "EHEH 190355Z AUTO 25009KT 220V290 6000 -RA FEW007 SCT010 BKN015CB 03/02 Q1005 RERA GRN",
                "EHEH 190325Z AUTO 24008KT 210V270 9999 SCT017 BKN022 02/02 Q1004 WHT",
                "EHEH 190255Z AUTO 26008KT 210V300 9999 -RA SCT015CB SCT019 BKN023 03/02 Q1004 RERA REDZ WHT",
                "EHEH 190225Z AUTO 24010KT 200V270 9999 FEW005 SCT009 BKN022 03/02 Q1004 GRN", "EHEH 190155Z AUTO 25006KT 200V280 8000 BR FEW006 SCT008 BKN009 FEW015CB 03/02 Q1004 GRN", "EHEH 190125Z AUTO 23006KT 9999 FEW006 SCT007 BKN009 03/02 Q1003 GRN",
                "EHEH 190055Z AUTO 23009KT 210V270 4300 SHRA FEW013 SCT018 BKN033 03/02 Q1003 REDZ GRN", "EHEH 190025Z AUTO 25005KT 210V270 9000 -DZ SCT011 BKN015CB BKN032 02/02 Q1003 GRN", "EHEH 182355Z AUTO 25011KT 220V320 3600 RA FEW007 SCT015CB OVC018 02/01 Q1003 RERA REDZ YLO",
                "EHEH 182325Z AUTO 23011KT 200V260 9999 FEW007 SCT008 BKN029 03/02 Q1003 GRN", "EHEH 182255Z AUTO 23009KT 9999 SCT027 BKN031 BKN048 03/02 Q1002 BLU", "EHEH 182225Z AUTO 23008KT 9999 SCT029 BKN060 OVC140 03/02 Q1002 BLU",
                "EHEH 182155Z AUTO 24009KT 200V290 9999 -RA SCT034 BKN039 BKN050 04/02 Q1002 RERA REDZ BLU",
                "EHEH 181855Z AUTO 20005KT 9999 BKN150 01/00 Q1002 BLU 27008KT 9999 SCT025 BKN035 TEMPO 4500 -SHRAGS FEW010 SCT015CB BKN030",
                "EHEH 181525Z AUTO 27006KT 240V330 9999 FEW024 SCT028 OVC040 06/02 Q1001 BLU 27012G23KT 9999 SCT025 BKN035",
                "EHEH 181455Z AUTO 27009KT 240V320 9999 FEW026 SCT029 OVC036 06/02 Q1001 BLU 27012G23KT 9999 SCT025 BKN035",
                "COR EHEH 181425Z AUTO 26014KT 220V300 9999 FEW023 BKN030 OVC034 06/01 Q1001 BLU 27012G23KT 9999 SCT025 BKN035",
                "EHEH 181325Z AUTO 27019G31KT 250V340 9999 SCT025 OVC030 06/01 Q1000 BLU 27018G28KT 9999 SCT020 BKN025 TEMPO SCT015CB BKN020",
                "EHEH 181255Z AUTO 27018G28KT 220V330 9999 BKN021 OVC025 06/02 Q0999 WHT 27018G28KT 9999 SCT020 BKN025 TEMPO SCT015CB BKN020",
                "EHEH 181225Z AUTO 27018KT 220V320 9999 SCT019 OVC022 06/02 Q0999 REDZ WHT 27018G28KT 9999 SCT020 BKN025 TEMPO SCT015CB BKN020",
                "EHEH 181155Z AUTO 27016G29KT 230V020 9999 +DZRA BKN016 OVC020 06/03 Q0998 WHT 27020G35KT 9999 SCT020 BKN030 BECMG 27015G25KT",
                "EHEH 181125Z AUTO 27021G34KT 220V320 9999 DZ BKN017 BKN021 OVC025 06/03 Q0997 WHT 27020G35KT 9999 SCT020 BKN030 BECMG 27015G25KT",
                "COR EHEH 181055Z AUTO 27023G33KT 230V310 9999 DZ SCT018 BKN023 OVC029 06/02 Q0996 WHT 27030G45KT 9999 SCT025 BKN030 BECMG 28025G40KT",
                "COR EHEH 181025Z AUTO 27029G46KT 220V320 9999 DZ SCT023 BKN026 OVC031 06/02 Q0994 WHT 27030G50KT 9999 SCT025 BKN030 BECMG 28025G40KT",
                "EHEH 180955Z AUTO 27029G46KT 230V310 9999 BKN030 OVC035 07/01 Q0993 BLU 25035G50KT 9999 SCT025 BKN030 TEMPO 27040G60KT",
                "EHEH 180925Z AUTO 26037G55KT 220V310 9999 BKN034 OVC038 08/01 Q0991 BLU 25035G50KT 9999 SCT025 BKN030 TEMPO 27040G60KT",
                "EHEH 180855Z AUTO 26030G57KT 220V310 9999 BKN036 OVC042 10/02 Q0989 BLU 25035G50KT 9999 SCT025 BKN030 TEMPO 27040G60KT",
                "EHEH 180825Z AUTO 25042G52KT 220V310 9999 FEW034 BKN039 BKN044 10/03 Q0988 BLU 25035G50KT 9999 SCT025 BKN030 TEMPO 27040G60KT",
                "EHEH 180755Z AUTO 25028G42KT 210V290 9999 FEW033 SCT038 BKN043 11/05 Q0988 BLU 25028G50KT 9999 SCT025 BKN030 TEMPO 27035G60KT",
                "COR EHEH 180725Z AUTO 24024KT 190V280 9999 FEW027 SCT032 BKN047 10/07 Q0988 BLU 23025G35KT 9999 SCT025 BKN030 BECMG 25030G45KT",
                "EHEH 180655Z AUTO 22023KT 190V260 9999 -DZ FEW014 FEW015CB SCT016 BKN020 08/07 Q0988 WHT 21025G35KT 9999 SCT008 BKN010 BKN015 BECMG 23028G42KT",
                "EHEH 180455Z AUTO 21019KT 180V240 6000 -RA SCT006 BKN008 BKN010 05/04 Q0992 RERA REDZ YLO", "EHEH 180425Z AUTO 18017G27KT 150V220 5000 DZRA FEW006 SCT007 BKN011 04/03 Q0993 REDZ GRN", "EHEH 180355Z AUTO 19016KT 160V220 6000 +DZ FEW007 BKN008 BKN009 04/03 Q0995 GRN",
                "EHEH 180325Z AUTO 19016KT 160V220 6000 -SHRA FEW007 SCT008 BKN010 04/02 Q0997 GRN", "EHEH 180255Z AUTO 19013KT 150V230 9000 SHRA FEW008 BKN010 OVC013 04/03 Q0999 GRN", "EHEH 180225Z AUTO 20014KT 160V230 9999 -RA FEW008 SCT012 BKN014 04/03 Q1000 GRN",
                "EHEH 180155Z AUTO 19011KT 160V220 9999 -RA BKN016 OVC019 04/02 Q1002 RERA REDZ WHT", "EHEH 180125Z AUTO 19010KT 9999 -DZ FEW026 SCT033 BKN038 05/01 Q1002 BLU", "EHEH 180055Z AUTO 20012KT 9999 FEW072 SCT091 BKN099 05/01 Q1003 BLU",
                "EHEH 180025Z AUTO 22012KT 9999 SCT089 BKN095 OVC110 04/01 Q1004 BLU", "EHEH 172355Z AUTO 22012KT 9999 FEW057 BKN099 OVC100 04/01 Q1005 BLU", "EHEH 172325Z AUTO 22012KT 200V260 9999 OVC110 04/01 Q1006 BLU",
                "EHEH 172225Z AUTO 22011KT 190V250 9999 OVC130 04/00 Q1006 BLU",
                "EHEH 172155Z AUTO 21010KT 9999 SCT034 BKN042 BKN048 04/00 Q1007 BLU 23012KT 9999 FEW025 SCT035 BKN045",
                "EHEH 172125Z AUTO 23012KT 200V260 9999 OVC180 04/01 Q1007 BLU 23012KT 9999 FEW025 SCT035 BKN045",
                "EHEH 171825Z AUTO 23012KT 210V270 9999 FEW016CB BKN055 OVC190 05/01 Q1007 BLU 25012G22KT 9999 FEW025 SCT035 BKN045",
                "EHEH 171755Z AUTO 25012KT 210V290 9999 FEW049 SCT055 05/00 Q1006 BLU 25012G22KT 9999 FEW025 SCT035 BKN045",
                "EHEH 171725Z AUTO 25014KT 220V290 9999 FEW040 BKN051 OVC056 05/01 Q1007 BLU 25012G22KT 9999 FEW025 SCT035 BKN045",
                "EHEH 171655Z AUTO 26011KT 220V280 9999 FEW031 SCT035 BKN042 05/00 Q1006 BLU 25012G22KT 9999 FEW025 SCT035 BKN045",
                "EHEH 170455Z AUTO 25014KT 210V280 5000 -RA FEW017 SCT025 BKN030 02/00 Q0995 WHT",
                "EHEH 170425Z AUTO 24014KT 210V280 9999 -RA FEW020 SCT055 BKN062 02/00 Q0994 RERA REDZ BLU",
                "COR EHEH 170355Z AUTO 24014KT 210V270 9999 -RA FEW006 SCT011 BKN028 02/01 Q0994 RERA REDZ GRN",
                "EHEH 170325Z AUTO 24011KT 210V270 9999 -UP FEW022 SCT027 BKN034 03/01 Q0993 BLU", "EHEH 170255Z AUTO 25010KT 210V270 9999 -UP SCT021 BKN025 BKN030 03/01 Q0993 WHT", "EHEH 170225Z AUTO 26010KT 230V330 9999 -RA FEW017 BKN023 BKN028 03/01 Q0993 RERA REDZ WHT",
                "EHEH 170155Z AUTO 25016KT 220V310 9999 -RADZ FEW015CB SCT027 BKN037 03/01 Q0992 BLU", "EHEH 170125Z AUTO 25012KT 220V310 9999 FEW021 SCT057 BKN064 03/01 Q0992 BLU", "EHEH 170055Z AUTO 26013KT 220V280 9999 FEW015CB BKN026 OVC030 03/01 Q0992 BLU",
                "EHEH 170025Z AUTO 28013KT 220V340 7000 SHRA FEW000 BKN013 BKN015CB 03/01 Q0992 GRN", "EHEH 162355Z AUTO 23010KT 190V260 9999 +DZRA FEW016 SCT021 BKN024 04/02 Q0992 WHT", "EHEH 162325Z AUTO 21012KT 190V250 9999 -RA FEW027 SCT031 BKN036 04/02 Q0992 BLU",
                "EHEH 162255Z AUTO 21011KT 9999 FEW026 SCT110 04/01 Q0992 BLU", "EHEH 162225Z AUTO 22013KT 9999 FEW028 OVC160 04/01 Q0992 BLU", "COR EHEH 162155Z AUTO 22013KT 200V260 9999 FEW083 BKN096 OVC100 04/01 Q0993 BLU 22010KT CAVOK",
                "EHEH 162125Z AUTO 23013KT 9999 OVC110 04/01 Q0993 BLU 22010KT CAVOK", "COR EHEH 162055Z AUTO 22012KT 9999 OVC130 03/01 Q0993 BLU 22010KT CAVOK", "EHEH 162025Z AUTO 21008KT 9999 FEW041 OVC140 03/01 Q0993 BLU 22010KT 9999 FEW040 BKN160",
                "EHEH 161955Z AUTO 22009KT 200V260 9999 FEW015CB OVC160 03/00 Q0993 BLU 22010KT 9999 SCT020 SCT040",
                "EHEH 161925Z AUTO 21007KT 9999 FEW015CB SCT039 BKN065 02/00 Q0994 BLU 22010KT 9999 SCT020 SCT040",
                "EHEH 161855Z AUTO 21008KT 9999 FEW048 02/00 Q0994 BLU 24011KT 9999 SCT020 SCT040", "EHEH 161825Z AUTO 23009KT 9999 FEW039 BKN150 02/00 Q0994 BLU 24011KT 9999 SCT020 SCT040", "COR EHEH 161755Z AUTO 23010KT 9999 FEW015CB 03/01 Q0994 BLU 24011KT 9999 SCT020 SCT040",
                "EHEH 160455Z AUTO 23013KT 190V270 9999 DZ BKN017 BKN021 OVC030 06/04 Q0991 WHT", "EHEH 160425Z AUTO 23015KT 200V260 9999 FEW015CB SCT024 OVC110 06/04 Q0991 REDZ WHT", "COR EHEH 160355Z AUTO 23015KT 200V260 9999 -UP FEW019 SCT025 BKN032 07/04 Q0991 BLU",
                "EHEH 160325Z AUTO 23014KT 200V260 9999 SCT022 BKN025 BKN029 06/04 Q0992 WHT", "EHEH 160255Z AUTO 22012KT 190V270 9999 FEW015CB BKN020 BKN027 BKN030 06/04 Q0992 WHT", "EHEH 160225Z AUTO 22011KT 190V250 9999 FEW018 SCT021 BKN026 06/04 Q0992 WHT",
                "EHEH 160155Z AUTO 23012KT 9999 BKN016 OVC019 06/04 Q0993 WHT", "EHEH 160125Z AUTO 22009KT 9999 SCT014 OVC016 06/05 Q0993 GRN", "EHEH 160055Z AUTO 24015KT 200V290 9999 -RA FEW001 FEW015CB SCT023 BKN028 06/05 Q0993 RERA WHT",
                "EHEH 160025Z AUTO 24010KT 9999 SCT074 BKN080 06/04 Q0993 REDZ BLU", "EHEH 152355Z AUTO 23012KT 200V260 9999 DZ FEW014 SCT045 OVC071 06/05 Q0994 BLU", "EHEH 152325Z AUTO 24013KT 210V280 9999 FEW077 06/05 Q0993 BLU",
                "EHEH 152255Z AUTO 24011KT 200V270 9999 BKN036 OVC068 07/05 Q0993 BLU",
                "EHEH 152225Z AUTO 24010KT 210V270 9999 FEW015CB BKN021 07/05 Q0992 WHT",
                "EHEH 151125Z AUTO 18015KT 150V210 9999 FEW016 SCT019 BKN022 07/04 Q1004 WHT 20014G25KT 9999 FEW015 BKN076 BECMG SCT012 BKN015",
                "EHEH 151055Z AUTO 19015KT 150V220 9999 DZRA FEW017 SCT051 BKN057 06/04 Q1006 BLU 20014G25KT 9999 FEW015 BKN076 BECMG SCT012 BKN015",
                "EHEH 151025Z AUTO 18015KT 160V220 9999 -RADZ FEW016 SCT026 BKN050 06/03 Q1007 BLU 20014KT 9999 FEW015 BKN076 BECMG SCT012 BKN015",
                "COR EHEH 150955Z AUTO 18014KT 150V230 9999 FEW016 SCT076 BKN097 06/03 Q1007 BLU 20014KT 9999 FEW015 BKN076 BECMG SCT012 BKN015",
                "EHEH 150925Z AUTO 18012KT 160V220 9999 FEW012 OVC015 05/03 Q1008 WHT 20010KT 9999 OVC010",
                "COR EHEH 150855Z AUTO 20011KT 170V230 9999 OVC011 05/03 Q1009 GRN 20010KT 9999 OVC010",
                "EHEH 150825Z AUTO 19011KT 160V220 9999 OVC010 05/03 Q1009 GRN 20010KT 9999 OVC010 BECMG SCT005 BKN008",
                "EHEH 150755Z AUTO 21013KT 180V240 9999 BKN010 OVC012 05/03 Q1010 GRN 20010KT 9999 OVC010 BECMG SCT005 BKN008",
                "EHEH 150725Z AUTO 21013KT 180V240 8000 BR OVC009 05/03 Q1010 GRN 20010KT 9999 OVC010 BECMG SCT005 BKN008",
                "COR EHEH 150655Z AUTO 20011KT 9000 BR OVC010 05/03 Q1011 GRN 20010KT 9999 OVC010 BECMG SCT005 BKN008",
                "EHEH 150625Z AUTO 20010KT 170V230 9999 OVC011 05/03 Q1011 GRN 19010KT 9999 SCT012 BKN015", "EHEH 150555Z AUTO 19008KT 9999 OVC013 05/02 Q1011 GRN 19010KT 9999 SCT012 BKN015", "EHEH 150525Z AUTO 19009KT 160V220 9999 OVC013 05/02 Q1012 GRN",
                "EHEH 150455Z AUTO 18010KT 130V210 9999 OVC014 04/02 Q1012 GRN", "EHEH 150255Z AUTO 16006KT 9999 FEW018 OVC025 02/00 Q1014 BLU", "EHEH 150225Z AUTO 16006KT 9000 BR OVC028 02/00 Q1015 BLU",
                "COR EHEH 150155Z AUTO 17005KT 150V210 8000 BR OVC029 01/M00 Q1015 BLU", "EHEH 150125Z AUTO 16007KT 8000 BR FEW029 00/M01 Q1015 BLU", "EHEH 150055Z AUTO 17007KT 140V220 8000 BR FEW290 01/M01 Q1016 BLU",
                "EHEH 150025Z AUTO 17006KT 150V210 7000 BR BKN150 01/M01 Q1016 WHT", "COR EHEH 142355Z AUTO 16006KT 120V190 7000 BR NCD 01/M01 Q1017 WHT", "COR EHEH 142325Z AUTO 16006KT 7000 BR NSC 01/M00 Q1017 WHT",
                "EHEH 142255Z AUTO 16005KT 7000 BR SCT150 01/M01 Q1018 WHT", "EHEH 142225Z AUTO 16005KT 7000 BR OVC140 01/M00 Q1018 WHT", "EHEH 142155Z AUTO 15006KT 110V170 7000 BR OVC150 01/M00 Q1018 WHT 16006KT 8000 NSC",
                "EHEH 142125Z AUTO 15005KT 120V230 7000 BR OVC130 01/M00 Q1018 WHT 16006KT CAVOK", "EHEH 142055Z AUTO 15006KT 130V230 7000 BR OVC130 01/M00 Q1018 WHT 16006KT CAVOK", "EHEH 142025Z AUTO 15006KT 110V200 7000 BR SCT150 02/M00 Q1018 WHT 13006KT CAVOK",
                "EHEH 141955Z AUTO 14007KT 8000 BR OVC140 02/M00 Q1018 BLU 13006KT CAVOK", "EHEH 141925Z AUTO 13006KT 110V190 9000 BR BKN150 02/M00 Q1018 BLU 13006KT CAVOK", "EHEH 141855Z AUTO 14005KT 090V220 9000 BR SCT150 02/M00 Q1018 BLU 13006KT CAVOK",
                "COR EHEH 141825Z AUTO 13005KT 100V180 9999 NSC 02/M00 Q1018 BLU 12006KT CAVOK", "COR EHEH 141755Z AUTO 12005KT 9999 NCD 03/00 Q1019 BLU 12006KT CAVOK", "COR EHEH 141725Z AUTO 11005KT 080V180 9999 NSC 03/00 Q1019 BLU 12006KT CAVOK",
                "COR EHEH 141655Z AUTO 11005KT 080V200 9999 NSC 04/00 Q1019 BLU 12008KT CAVOK", "COR EHEH 141625Z AUTO 12005KT 050V200 9999 NSC 04/01 Q1019 BLU 12008KT CAVOK", "COR EHEH 141555Z AUTO 11005KT 080V210 9999 NSC 04/01 Q1019 BLU 12008KT CAVOK",
                "COR EHEH 141525Z AUTO 12006KT 090V190 9999 NSC 05/01 Q1019 BLU 12008KT CAVOK", "COR EHEH 141455Z AUTO 11006KT 060V200 9999 NCD 05/01 Q1019 BLU 12008KT CAVOK", "COR EHEH 141425Z AUTO 12007KT 090V190 9999 NSC 06/01 Q1019 BLU 12008KT CAVOK",
                "COR EHEH 141355Z AUTO 12009KT 080V170 9999 NSC 06/01 Q1019 BLU 12008KT CAVOK", "COR EHEH 141325Z AUTO 13008KT 060V220 9999 NCD 06/01 Q1019 BLU 12008KT CAVOK", "COR EHEH 141255Z AUTO 12007KT 080V150 9999 NSC 06/01 Q1019 BLU 12008KT CAVOK",
                "COR EHEH 141225Z AUTO 13008KT 070V150 9999 NSC 06/01 Q1019 BLU 12008KT CAVOK", "COR EHEH 141155Z AUTO 12009KT 080V150 9999 NSC 05/01 Q1020 BLU 12008KT CAVOK", "COR EHEH 141125Z AUTO 12009KT 080V160 9999 NSC 05/01 Q1020 BLU 12008KT CAVOK",
                "COR EHEH 141055Z AUTO 12011KT 040V150 9999 NSC 05/00 Q1020 BLU 12008KT CAVOK", "COR EHEH 141025Z AUTO 12009KT 050V160 9999 NSC 04/00 Q1020 BLU 11008KT CAVOK", "COR EHEH 140955Z AUTO 11008KT 060V140 9999 NSC 04/M00 Q1020 BLU 09008KT CAVOK",
                "COR EHEH 140925Z AUTO 10007KT 050V160 9999 NSC 04/M00 Q1020 BLU 09008KT CAVOK", "COR EHEH 140855Z AUTO 09008KT 060V130 9999 NSC 03/M01 Q1020 BLU 09008KT CAVOK", "COR EHEH 140825Z AUTO 09006KT 060V140 9999 NCD 03/M01 Q1020 BLU 09008KT CAVOK",
                "COR EHEH 140755Z AUTO 08007KT 060V120 9999 NSC 03/M01 Q1020 BLU 09008KT CAVOK", "COR EHEH 140725Z AUTO 08006KT 360V130 9999 NSC 03/M01 Q1020 BLU 09008KT CAVOK", "COR EHEH 140655Z AUTO VRB07KT 9999 NSC 03/M01 Q1020 BLU 09008KT CAVOK",
                "COR EHEH 140625Z AUTO 09007KT 040V140 9999 NCD 03/M00 Q1020 BLU 09008KT CAVOK", "COR EHEH 140555Z AUTO 09007KT 060V120 9999 NCD 04/M00 Q1020 BLU 09008KT CAVOK", "COR EHEH 140525Z AUTO 08006KT 050V120 9999 NSC 04/M00 Q1020 BLU 09008KT CAVOK",
                "EHEH 140425Z AUTO 09007KT 060V120 9999 SCT030 04/00 Q1020 BLU", "EHEH 140355Z AUTO 08007KT 060V120 9999 OVC031 04/00 Q1020 BLU", "EHEH 140325Z AUTO 08007KT 050V130 9999 OVC033 05/00 Q1020 BLU",
                "EHEH 140255Z AUTO 08007KT 060V120 9999 OVC031 05/00 Q1020 BLU", "EHEH 140225Z AUTO 08007KT 050V110 9999 OVC030 05/00 Q1020 BLU", "EHEH 140155Z AUTO 08006KT 040V110 9999 OVC028 05/00 Q1020 BLU",
                "EHEH 140055Z AUTO 07008KT 040V110 9999 OVC027 05/00 Q1021 BLU", "EHEH 140025Z AUTO 07007KT 040V100 9999 OVC027 05/00 Q1021 BLU", "EHEH 132355Z AUTO 08007KT 040V100 9999 OVC027 05/00 Q1021 BLU",
                "EHEH 132325Z AUTO 08006KT 040V110 9999 OVC028 05/00 Q1021 BLU", "EHEH 132255Z AUTO 08007KT 040V100 9999 OVC029 05/00 Q1021 BLU", "EHEH 132225Z AUTO 07007KT 050V110 9999 OVC029 05/00 Q1021 BLU",
                "EHEH 132155Z AUTO 07007KT 050V110 9999 OVC030 05/00 Q1022 BLU 09007KT 9999 BKN025", "EHEH 132125Z AUTO 07007KT 050V120 9999 OVC030 04/M00 Q1022 BLU 09007KT 9999 BKN025", "EHEH 132055Z AUTO 08006KT 050V120 9999 SCT033 04/M00 Q1022 BLU 11007KT 9999 BKN025",
                "EHEH 132025Z AUTO 10005KT 060V120 9999 OVC028 04/M00 Q1022 BLU 11007KT 9999 BKN025", "EHEH 131955Z AUTO 10005KT 070V150 9999 SCT029 04/M00 Q1022 BLU 11007KT 9999 BKN025", "COR EHEH 131925Z AUTO 10006KT 050V120 9999 NSC 04/M00 Q1022 BLU 11007KT 9999 BKN025",
                "COR EHEH 131855Z AUTO 09005KT 040V140 9999 NSC 04/00 Q1022 BLU 11007KT 9999 BKN025", "COR EHEH 131825Z AUTO 10005KT 050V150 9999 NSC 05/01 Q1022 BLU 11007KT 9999 BKN025", "EHEH 131755Z AUTO 12005KT 040V140 9999 OVC025 05/01 Q1022 BLU 11007KT 9999 BKN025",
                "EHEH 131725Z AUTO 12006KT 080V170 9999 OVC025 05/01 Q1023 BLU 11007KT 9999 BKN025", "EHEH 131655Z AUTO 11007KT 070V150 9999 OVC025 05/01 Q1023 BLU 11007KT 9999 BKN025", "COR EHEH 131625Z AUTO 11006KT 080V140 9999 NSC 05/01 Q1023 BLU 11007KT 9999 FEW015 BKN022",
                "COR EHEH 131555Z AUTO 11005KT 070V140 9999 NSC 05/01 Q1022 BLU 11007KT 9999 FEW015 BKN022", "COR EHEH 131525Z AUTO 11008KT 080V150 9999 NSC 05/01 Q1023 BLU 12008KT 9999 FEW015 BKN020", "EHEH 131455Z AUTO 10009KT 070V150 9999 OVC018 06/01 Q1023 WHT 12008KT 9999 FEW015 BKN020",
                "EHEH 131425Z AUTO 10008KT 360V140 9999 FEW018 OVC021 06/02 Q1023 WHT 12008KT 9999 FEW015 BKN020",
                "EHEH 131355Z AUTO 11007KT 070V150 9999 OVC021 06/02 Q1023 WHT 12008KT 9999 FEW015 BKN020",
                "EHEH 131325Z AUTO 12008KT 080V140 9999 OVC023 07/02 Q1023 WHT 12008KT 9999 FEW015 BKN020",
                "EHEH 131255Z AUTO 13006KT 100V160 9999 BKN021 OVC024 07/03 Q1023 WHT 12008KT 9999 FEW015 BKN020",
                "EHEH 131225Z AUTO 12009KT 100V160 9999 BKN016 BKN020 OVC025 07/03 Q1024 WHT 12008KT 8000 SCT015 BKN024",
                "EHEH 131155Z AUTO VRB08KT 9999 SCT016 OVC025 07/03 Q1024 WHT 12008KT 8000 SCT015 BKN024", "EHEH 131125Z AUTO 12008KT 090V160 8000 BR FEW015 OVC025 07/04 Q1024 BLU 12008KT 8000 BKN024", "EHEH 131055Z AUTO 11006KT 040V150 6000 BR OVC024 06/04 Q1025 WHT 11005KT 7000 BKN024",
                "EHEH 131025Z AUTO 11005KT 070V140 4500 BR FEW008 BKN019 BKN035 06/04 Q1025 GRN 11005KT 5000 SCT008 BKN035 BECMG 8000 SCT035",
                "EHEH 130855Z AUTO 10005KT 060V130 1700 R03/1700N BR OVC003 05/04 Q1025 YLO 10004KT 1500 BR BKN003 BKN005 TEMPO 0500 FG BKN001",
                "EHEH 130655Z AUTO 12005KT 050V150 2100 R03/1900N BR OVC003 05/04 Q1024 YLO 12004KT 2000 BR BKN003 BKN005 TEMPO 0500 FG BKN001",
                "EHEH 130555Z AUTO 10005KT 070V130 2300 R03/2200N BR OVC005 05/04 Q1025 YLO 12004KT 2000 BR BKN003 BKN005 TEMPO 0500 FG BKN001",
                "COR EHEH 130525Z AUTO 12004KT 070V140 2300 BR BKN004 OVC005 05/04 Q1025 YLO 12004KT 2000 BR BKN003 BKN005 TEMPO 0500 FG BKN001",
                "EHEH 130455Z AUTO 10004KT 080V150 2100 BR OVC003 05/04 Q1025 YLO", "EHEH 130425Z AUTO 10003KT 2200 BR BKN003 OVC004 05/04 Q1025 YLO", "EHEH 130355Z AUTO 12004KT 090V150 2100 BR FEW002 BKN003 OVC005 04/04 Q1025 YLO",
                "EHEH 130325Z AUTO 10004KT 050V130 2100 BR OVC002 04/04 Q1025 AMB", "EHEH 130255Z AUTO 09003KT 060V130 1900 BR BKN002 OVC003 04/04 Q1026 AMB", "EHEH 130225Z AUTO 12003KT 060V150 1800 BR BKN001 OVC002 04/04 Q1026 RED",
                "EHEH 130155Z AUTO 11004KT 0750 FG OVC000 04/04 Q1026 RED", "EHEH 130125Z AUTO 10004KT 110V170 0650 FG OVC000 04/04 Q1026 RED", "EHEH 130055Z AUTO 14005KT 1100 BR OVC001 04/04 Q1026 RED",
                "EHEH 130025Z AUTO 14006KT 100V170 2200 BR OVC002 05/04 Q1026 AMB", "EHEH 122355Z AUTO 11005KT 090V160 2600 BR OVC004 05/04 Q1026 YLO", "EHEH 122325Z AUTO 10004KT 080V170 2600 BR OVC004 05/04 Q1026 YLO",
                "EHEH 122255Z AUTO 11003KT 080V140 2700 BR OVC005 05/04 Q1026 YLO", "EHEH 122225Z AUTO 11003KT 3000 BR BKN005 OVC006 05/05 Q1026 YLO", "EHEH 122155Z AUTO 09003KT 050V110 2800 BR OVC005 05/04 Q1027 YLO",
                "COR EHEH 122125Z AUTO 09003KT 050V110 2800 BR OVC005 05/04 Q1027 YLO",
                "EHEH 122055Z AUTO 11002KT 2900 R03/2900N BR BKN005 OVC006 06/05 Q1027 YLO VRB02KT 3500 BR BKN005 OVC007 BECMG 14005KT",
                "EHEH 122025Z AUTO 10002KT 3100 R03/P3000N BR OVC005 06/05 Q1027 YLO VRB02KT 3500 BR BKN005 OVC007 BECMG 14005KT",
                "EHEH 121955Z AUTO 09002KT 2900 R03/2900N BR FEW005 OVC006 06/05 Q1027 YLO VRB02KT 3500 BR BKN005 OVC007 BECMG 14005KT",
                "EHEH 121925Z AUTO 11002KT 3200 R03/P3000N BR OVC005 06/05 Q1026 YLO VRB02KT 3500 BR BKN005 OVC007 BECMG 14005KT",
                "EHEH 121855Z AUTO VRB02KT 3000 R03/3000N BR BKN006 OVC007 06/05 Q1026 YLO VRB02KT 3500 BR BKN005 OVC007 BECMG 14005KT",
                "EHEH 121825Z AUTO VRB02KT 3200 R03/P3000N BR FEW006 OVC007 06/05 Q1026 YLO VRB02KT 3500 BR BKN005 OVC007 BECMG 14005KT",
                "EHEH 121755Z AUTO VRB02KT 3200 R03/P3000N BR SCT005 OVC006 06/05 Q1026 YLO VRB02KT 3500 BR BKN005 OVC007 BECMG 14005KT",
                "EHEH 121725Z AUTO 08003KT 040V120 3400 R03/P3000N BR BKN006 OVC007 06/05 Q1026 YLO VRB02KT 3500 BR BKN005 OVC007 BECMG 14005KT",
                "EHEH 121655Z AUTO 08003KT 360V090 3300 R03/P3000N BR OVC006 06/04 Q1026 YLO VRB02KT 3500 BR BKN005 OVC007 BECMG 14005KT",
                "EHEH 121625Z AUTO VRB02KT 3300 R03/P3000N BR OVC006 06/05 Q1026 YLO VRB02KT 3500 BR BKN005 OVC007 BECMG 14005KT",
                "EHEH 121555Z AUTO VRB01KT 3500 R03/P3000N BR OVC007 06/05 Q1026 YLO VRB02KT 3500 BR BKN005 OVC007 BECMG 14005KT",
                "COR EHEH 121525Z AUTO 00000KT 3300 R03/P3000D BR BKN005 OVC007 06/04 Q1026 YLO VRB02KT 3500 BR BKN005 OVC007 BECMG 14005KT",
                "EHEH 121455Z AUTO 00000KT 3800 BR OVC006 06/05 Q1026 YLO 01004KT 3500 BR BKN004 OVC006",
                "EHEH 121425Z AUTO 06003KT 020V140 3100 R03/P3000U BR BKN005 OVC006 06/05 Q1026 YLO 01004KT 3500 BR BKN004 OVC006",
                "EHEH 121355Z AUTO VRB02KT 3300 R03/P3000N BR OVC004 06/05 Q1026 YLO 01004KT 3500 BR BKN004 OVC006",
                "EHEH 121325Z AUTO 04003KT 2900 R03/2900D BR OVC004 06/05 Q1026 YLO 01004KT 3500 BR BKN004 OVC006",
                "EHEH 121255Z AUTO 03005KT 010V130 3400 R03/P3000N BR OVC005 06/05 Q1026 YLO 01004KT 3500 BR BKN004 OVC006",
                "EHEH 121225Z AUTO VRB02KT 3000 R03/3000N BR OVC004 06/05 Q1026 YLO 01004KT 3500 BR BKN004 OVC006",
                "EHEH 121155Z AUTO VRB02KT 3400 R03/P3000U BR OVC004 05/05 Q1026 YLO 01004KT 3500 BR BKN004 OVC006",
                "EHEH 121125Z AUTO 02003KT 270V030 3100 R03/P3000N BR OVC004 05/05 Q1026 YLO 01004KT 3500 BR BKN004 OVC006",
                "COR EHEH 121055Z AUTO 01004KT 340V040 3500 R03/P3000N BR OVC004 05/05 Q1026 YLO 01004KT 3500 BR BKN004 OVC006",
                "EHEH 121025Z AUTO 35004KT 330V040 2900 R21/P3000N BR SCT004 OVC005 05/05 Q1027 YLO VRB02KT 2000 BR BKN005 OVC007",
                "EHEH 120955Z AUTO 34004KT 310V060 3100 R21/3000N BR OVC003 05/05 Q1027 YLO VRB02KT 2000 BR BKN005 OVC007",
                "EHEH 120925Z AUTO 36003KT 330V040 3200 R21/P3000U BR BKN003 OVC005 05/05 Q1026 YLO VRB02KT 2000 BR BKN005 OVC007",
                "EHEH 120855Z AUTO 31003KT 260V350 2500 R21/P3000N BR FEW003 OVC004 05/05 Q1026 YLO VRB02KT 2000 BR BKN005 OVC007",
                "COR EHEH 120825Z AUTO VRB02KT 2200 R21/2600N BR BKN004 OVC006 05/05 Q1026 YLO VRB02KT 2000 BR BKN005 OVC007",
                "EHEH 120455Z AUTO VRB02KT 2300 BR FEW002 BKN005 BKN006 05/05 Q1025 YLO", "EHEH 120425Z AUTO VRB02KT 2400 BR OVC003 05/05 Q1025 YLO", "EHEH 120355Z AUTO VRB01KT 2400 BR SCT003 OVC005 05/05 Q1025 YLO",
                "EHEH 120325Z AUTO VRB02KT 2600 BR SCT003 OVC005 05/05 Q1025 YLO", "EHEH 120255Z AUTO 01003KT 2500 BR SCT003 BKN005 OVC006 06/05 Q1024 YLO", "EHEH 120225Z AUTO 35004KT 300V020 2300 BR SCT003 OVC004 06/05 Q1024 YLO",
                "EHEH 120155Z AUTO 33004KT 260V020 1900 BR FEW002 BKN003 OVC004 06/05 Q1024 YLO", "EHEH 120125Z AUTO VRB02KT 1800 BR OVC002 06/05 Q1024 AMB", "EHEH 120055Z AUTO 34004KT 2200 BR FEW002 BKN003 OVC004 06/05 Q1024 YLO",
                "EHEH 120025Z AUTO VRB02KT 2400 BR OVC003 06/05 Q1024 YLO", "EHEH 112355Z AUTO VRB02KT 2300 BR OVC003 05/05 Q1024 YLO", "EHEH 112325Z AUTO 34003KT 290V010 2400 BR OVC002 05/05 Q1023 AMB",
                "EHEH 112255Z AUTO 35006KT 320V020 2400 BR OVC002 05/05 Q1023 AMB", "EHEH 112225Z AUTO 01006KT 330V030 3200 BR BKN003 OVC005 06/05 Q1023 YLO", "EHEH 112155Z AUTO 35006KT 340V040 3700 BR OVC004 06/06 Q1023 YLO",
                "EHEH 111625Z AUTO 36004KT 5000 BR FEW009 BKN010 OVC013 08/06 Q1020 GRN 02005KT 7000 BR BKN008 OVC040 BECMG 4000 SCT003 OVC008",
                "EHEH 111455Z AUTO 01006KT 340V060 8000 BR FEW008 BKN010 OVC051 08/06 Q1018 GRN 36005KT 9999 BKN046 BECMG 4000 BR SCT003 BKN046",
                "EHEH 111425Z AUTO 36005KT 290V040 9000 BR OVC049 08/06 Q1018 BLU 36005KT 9999 BKN046 BECMG 4000 BR SCT003 BKN046",
                "EHEH 111355Z AUTO 02005KT 280V050 8000 BR OVC049 08/07 Q1018 BLU 36005KT 9999 BKN046 BECMG 4000 BR SCT003 BKN046",
                "EHEH 111325Z AUTO 35003KT 320V060 9000 BR OVC048 08/06 Q1017 BLU 36005KT 9999 BKN046 BECMG 4000 BR SCT003 BKN046",
                "EHEH 111255Z AUTO VRB03KT 9999 OVC048 09/06 Q1017 BLU 36005KT 9999 BKN046 BECMG 4000 BR SCT003 BKN046",
                "EHEH 111225Z AUTO VRB02KT 9999 OVC048 08/06 Q1017 BLU 36005KT 9999 BKN040", "COR EHEH 111155Z AUTO 03004KT 270V050 9999 OVC044 08/06 Q1017 BLU 36005KT 9999 BKN040", "COR EHEH 111125Z AUTO 01004KT 300V040 9999 OVC045 08/06 Q1017 BLU VRB02KT 9000 OVC040",
                "COR EHEH 111055Z AUTO 36003KT 300V030 8000 BR OVC046 08/07 Q1016 BLU VRB02KT 9000 OVC040", "EHEH 111025Z AUTO VRB02KT 9000 BR OVC045 07/06 Q1016 BLU VRB02KT 9000 OVC040", "EHEH 110955Z AUTO 03002KT 6000 BR OVC044 07/06 Q1016 WHT VRB02KT 7000 BR OVC040",
                "EHEH 110925Z AUTO VRB02KT 5000 BR OVC044 06/06 Q1016 WHT VRB02KT 3500 BR RADZ OVC040 TEMPO 1500 BCFG",
                "EHEH 110855Z AUTO 00000KT 4100 BR OVC043 06/05 Q1015 GRN VRB02KT 3500 BR RADZ OVC040 TEMPO 1500 BCFG",
                "EHEH 110825Z AUTO 00000KT 7000 BR OVC042 05/05 Q1015 WHT VRB02KT 3500 BR RADZ OVC040 TEMPO 1500 BCFG",
                "EHEH 110755Z AUTO 00000KT 2000 R03/2000D BR OVC043 05/05 Q1014 YLO VRB02KT 3500 BR RADZ OVC040 TEMPO 1500 BCFG",
                "EHEH 110725Z AUTO VRB02KT 7000 BR OVC042 05/04 Q1014 WHT VRB02KT 3500 BR RADZ OVC040 TEMPO 1500 BCFG",
                "EHEH 110655Z AUTO 14001KT 1500 R03/2000U BR OVC043 05/05 Q1013 AMB VRB02KT 3500 BR RADZ OVC040 TEMPO 1500 BCFG",
                "EHEH 110625Z AUTO 00000KT 2500 R03/2900U BR OVC041 05/05 Q1013 YLO VRB02KT 3500 BR RADZ OVC040 TEMPO 1500 BCFG",
                "EHEH 110555Z AUTO 11001KT 2600 R03/2600D BR OVC041 05/05 Q1013 YLO VRB02KT 3500 BR RADZ OVC040 TEMPO 0800 FG BKN016 OVC040",
                "EHEH 110525Z AUTO VRB01KT 1500 R03/1200D BR OVC041 06/05 Q1012 AMB VRB02KT 3500 BR RADZ OVC040 TEMPO 0800 FG BKN016 OVC040",
                "EHEH 110455Z AUTO VRB01KT 2600 BR OVC039 06/05 Q1012 YLO", "EHEH 110425Z AUTO VRB01KT 5000 BR OVC040 06/05 Q1012 WHT", "EHEH 110355Z AUTO VRB02KT 5000 BR OVC040 06/06 Q1012 WHT",
                "EHEH 110325Z AUTO 15003KT 6000 BR OVC040 06/06 Q1011 WHT", "EHEH 110255Z AUTO 16003KT 140V210 6000 BR OVC040 06/05 Q1011 WHT", "EHEH 110225Z AUTO 12002KT 6000 BR OVC040 06/05 Q1011 WHT",
                "EHEH 110155Z AUTO 13001KT 3200 BR OVC039 06/06 Q1011 YLO", "EHEH 110125Z AUTO VRB01KT 8000 BR OVC038 06/06 Q1011 BLU", "EHEH 110055Z AUTO 18004KT 8000 BR OVC037 06/06 Q1010 BLU",
                "EHEH 102355Z AUTO 18005KT 150V210 9000 BR OVC038 06/06 Q1010 BLU", "EHEH 102325Z AUTO 17005KT 9000 BR OVC037 06/06 Q1010 BLU", "EHEH 102255Z AUTO 17005KT 150V210 9000 BR FEW028 OVC036 07/06 Q1010 BLU",
                "EHEH 102225Z AUTO 15004KT 120V180 9000 BR OVC023 07/06 Q1010 WHT",
                "EHEH 102155Z AUTO 16005KT 130V290 9000 BR SCT011 BKN021 OVC025 07/06 Q1010 GRN 19008KT 9999 BKN020 TEMPO 4000 -RADZ SCT008 BKN010",
                "EHEH 102125Z AUTO 15005KT 9999 FEW004 BKN011 OVC025 07/06 Q1010 GRN 19008KT 9999 BKN020 TEMPO 4000 -RADZ SCT008 BKN010",
                "EHEH 102055Z AUTO 15005KT 9999 -DZ SCT011 SCT013 BKN023 07/06 Q1009 GRN 19008KT 9999 BKN020 TEMPO 4000 -RADZ SCT008 BKN010",
                "EHEH 102025Z AUTO 15005KT 9999 DZ OVC011 07/06 Q1009 GRN 19008KT 9999 BKN020 TEMPO 4000 -RADZ SCT008 BKN010",
                "EHEH 101955Z AUTO 16005KT 9999 +DZ FEW008 OVC010 07/06 Q1009 GRN 19008KT 9999 BKN020 TEMPO SCT010 BKN015",
                "EHEH 101925Z AUTO 17006KT 140V210 9999 -RADZ OVC011 07/06 Q1009 GRN 19008KT 9999 BKN020 TEMPO SCT010 BKN015",
                "EHEH 101855Z AUTO 17005KT 9999 -DZ BKN017 OVC024 07/05 Q1009 REDZ WHT 19008KT 9999 BKN020 TEMPO SCT010 BKN015",
                "EHEH 101825Z AUTO 18005KT 9999 -DZ SCT023 BKN026 OVC042 07/05 Q1009 WHT 19008KT 9999 BKN020 TEMPO SCT010 BKN015",
                "EHEH 101755Z AUTO 19007KT 150V220 9999 BKN024 OVC027 08/05 Q1008 WHT 19008KT 9999 BKN018 TEMPO SCT010 BKN015",
                "EHEH 101725Z AUTO 17007KT 9999 BKN022 OVC025 08/05 Q1008 WHT 19008KT 9999 BKN018 TEMPO SCT010 BKN015",
                "EHEH 101655Z AUTO 17006KT 140V210 9999 FEW020 OVC025 08/05 Q1008 BLU 19008KT 9999 BKN018 TEMPO SCT010 BKN015",
                "EHEH 101625Z AUTO 16008KT 140V210 9999 BKN016 OVC019 08/05 Q1008 WHT 19008KT 9999 BKN018 TEMPO SCT010 BKN015",
                "EHEH 101555Z AUTO 17006KT 140V230 9999 BKN016 OVC020 08/05 Q1008 WHT 19008KT 9999 BKN018 TEMPO SCT010 BKN015",
                "EHEH 101525Z AUTO 17007KT 130V190 9999 FEW016 OVC019 08/06 Q1007 WHT 19008KT 9999 BKN018 TEMPO SCT010 BKN015",
                "EHEH 101455Z AUTO 18006KT 9999 OVC018 08/06 Q1007 WHT 19008KT 9999 BKN018 TEMPO SCT010 BKN015",
                "EHEH 101425Z AUTO 18006KT 150V230 9999 FEW012 OVC017 08/06 Q1007 WHT 19008KT 9999 SCT010 BKN013 BKN015",
                "EHEH 101355Z AUTO 20009KT 9999 BKN012 OVC014 08/06 Q1007 GRN 19008KT 9999 SCT010 BKN013 BKN015",
                "EHEH 101325Z AUTO 20008KT 9999 OVC011 08/06 Q1007 GRN 19008KT 9999 BKN015 BKN030 TEMPO -RA FEW007 SCT010 BKN015",
                "EHEH 101225Z AUTO 19009KT 160V220 9999 BKN013 OVC015 08/06 Q1007 GRN 19008KT 9999 BKN015 BKN030 TEMPO -RA FEW007 SCT010 BKN015",
                "EHEH 101155Z AUTO 19008KT 150V220 9999 OVC015 08/06 Q1007 WHT 19008KT 9999 FEW015 SCT030 BKN035 TEMPO -RA FEW007 SCT010 BKN015",
                "COR EHEH 100955Z AUTO 17007KT 130V200 9999 OVC030 08/06 Q1008 BLU 18008KT 9999 FEW015 SCT030 BKN035 TEMPO -RA FEW007 SCT010 BKN015",
                "EHEH 100925Z AUTO 17007KT 120V200 9999 OVC032 07/06 Q1008 BLU 18008KT 9999 FEW015 SCT023 OVC035 TEMPO DZRA FEW007 SCT010 BKN015",
                "EHEH 100555Z AUTO 16005KT 9999 BKN015CB 07/06 Q1007 WHT 16006KT 9999 BKN015 OVC019 TEMPO DZRA SCT009 SCT012 BKN015",
                "EHEH 100455Z AUTO 16005KT 120V180 9999 BKN015 OVC019 07/06 Q1007 WHT", "EHEH 100325Z AUTO 15005KT 9999 SCT014 OVC016 07/06 Q1008 GRN", "EHEH 100255Z AUTO 15005KT 9999 BKN017 OVC020 07/06 Q1008 WHT",
                "EHEH 100155Z AUTO 16005KT 140V200 9999 FEW023 OVC058 07/06 Q1008 BLU", "EHEH 100125Z AUTO 17005KT 9999 BKN017 BKN020 BKN046 07/06 Q1008 WHT", "EHEH 100055Z AUTO 16005KT 9999 SCT020 BKN050 OVC057 07/05 Q1008 WHT",
                "EHEH 100025Z AUTO 16005KT 9999 BKN041 OVC069 06/05 Q1008 BLU", "EHEH 092355Z AUTO 16006KT 9999 SCT034 BKN049 OVC055 06/05 Q1008 BLU", "EHEH 092325Z AUTO 18005KT 9999 FEW025 SCT032 OVC065 06/05 Q1008 BLU",
                "EHEH 092255Z AUTO 16005KT 9999 BKN018 OVC022 06/05 Q1009 WHT", "EHEH 092225Z AUTO 16006KT 9999 SCT018 OVC021 07/05 Q1009 WHT", "EHEH 092155Z AUTO 16005KT 9999 BKN018 OVC021 06/05 Q1009 WHT 14005KT 9999 BKN015",
                "EHEH 092125Z AUTO 17005KT 150V240 9999 OVC021 06/04 Q1008 WHT 14005KT 9999 BKN015", "EHEH 092055Z AUTO 15005KT 120V200 9999 OVC024 06/04 Q1008 WHT 14005KT 9999 BKN015", "EHEH 092025Z AUTO 13005KT 9999 OVC023 06/04 Q1009 WHT 14005KT 9999 BKN015",
                "EHEH 091955Z AUTO 14005KT 110V170 9999 OVC020 06/04 Q1008 WHT 14005KT 9999 BKN015", "EHEH 091925Z AUTO 13005KT 9999 OVC018 06/04 Q1009 WHT 14005KT 9999 BKN015", "EHEH 091855Z AUTO 14005KT 110V190 9999 OVC019 06/04 Q1008 WHT 14005KT 9999 BKN015",
                "EHEH 091825Z AUTO 14003KT 120V220 9999 OVC019 05/04 Q1008 WHT 14005KT 9999 BKN015",
                "EHEH 091755Z AUTO 14005KT 110V240 9999 OVC016 05/04 Q1008 WHT 14005KT 9999 BKN015",
                "EHEH 091725Z AUTO 14005KT 130V200 9999 OVC016 05/03 Q1008 WHT 14005KT 9999 BKN018 BECMG BKN014",
                "EHEH 091655Z AUTO 14004KT 090V160 9999 OVC018 05/03 Q1008 WHT 14005KT 9999 SCT018 BKN100", "EHEH 091625Z AUTO 14005KT 110V190 9999 OVC250 04/03 Q1008 BLU 14005KT 9999 SCT018 BKN100", "EHEH 091555Z AUTO 14004KT 100V250 9999 OVC110 05/03 Q1008 BLU 14005KT 9999 SCT018 BKN100",
                "EHEH 091525Z AUTO 15004KT 120V200 9999 BKN022 BKN027 BKN088 05/03 Q1008 WHT 14005KT 9999 SCT018 BKN100",
                "COR EHEH 091455Z AUTO 15004KT 110V170 9999 SCT057 BKN065 OVC070 05/03 Q1008 BLU 14005KT 9999 SCT018 BKN100",
                "COR EHEH 091425Z AUTO 14004KT 110V190 9999 BKN019 OVC094 05/03 Q1008 WHT 14005KT 9999 SCT018 BKN100",
                "EHEH 091355Z AUTO 15005KT 130V210 9999 FEW020 OVC110 05/03 Q1008 BLU 14005KT 9999 SCT025 BKN100",
                "COR EHEH 091325Z AUTO 13004KT 110V200 9999 OVC170 05/03 Q1008 BLU 14005KT 9999 SCT025 BKN200",
                "COR EHEH 091255Z AUTO 14004KT 110V250 9999 OVC220 05/03 Q1009 BLU 14005KT 9999 SCT025 BKN200",
                "EHEH 091225Z AUTO 13004KT 100V210 9999 FEW027 OVC210 05/02 Q1009 BLU 14005KT 9999 SCT025 BKN200",
                "EHEH 091155Z AUTO 13004KT 130V190 9999 OVC025 04/02 Q1009 BLU 13005KT 9999 BKN025", "EHEH 091125Z AUTO 12004KT 070V160 9999 OVC210 04/02 Q1009 BLU 13005KT CAVOK", "EHEH 091055Z AUTO 13003KT 020V170 9999 OVC210 03/02 Q1010 BLU 13005KT CAVOK",
                "EHEH 091025Z AUTO 13005KT 070V200 9999 OVC200 03/02 Q1010 BLU 13005KT CAVOK", "EHEH 090955Z AUTO 13005KT 9000 BR OVC240 03/01 Q1010 BLU 13005KT 9999 CAVOK", "EHEH 090925Z AUTO 12004KT 080V150 9000 BR OVC210 03/01 Q1010 BLU 13005KT 9999 CAVOK",
                "EHEH 090855Z AUTO 13005KT 8000 BR OVC230 02/01 Q1011 BLU 13005KT 9999 CAVOK", "EHEH 090825Z AUTO 12005KT 080V190 8000 BR OVC230 02/01 Q1011 BLU 12005KT 9999 CAVOK", "EHEH 090755Z AUTO 11005KT 070V130 8000 BR OVC220 02/01 Q1011 BLU 09007KT 9999 CAVOK",
                "EHEH 090725Z AUTO 10006KT 060V120 9000 BR OVC230 02/01 Q1011 BLU 07010KT 9999 CAVOK", "EHEH 090655Z AUTO 11005KT 070V130 8000 BR OVC260 02/01 Q1011 BLU 07010KT 9999 CAVOK", "EHEH 090625Z AUTO 10005KT 070V130 9000 BR OVC250 02/01 Q1011 BLU 07010KT 9999 CAVOK",
                "EHEH 090555Z AUTO 08005KT 9000 BR OVC240 02/01 Q1011 BLU 07010KT 9999 CAVOK", "EHEH 090525Z AUTO 07007KT 9000 BR OVC250 02/01 Q1012 BLU 07010KT 9999 CAVOK", "EHEH 090455Z AUTO 06006KT 9000 BR OVC250 02/01 Q1012 BLU",
                "EHEH 090425Z AUTO 10005KT 060V130 9999 OVC230 03/01 Q1013 BLU", "EHEH 090355Z AUTO 07007KT 040V100 9999 OVC220 03/01 Q1013 BLU", "EHEH 090325Z AUTO 08006KT 040V110 9999 OVC210 03/01 Q1013 BLU",
                "EHEH 090255Z AUTO 07008KT 040V100 9999 OVC220 03/01 Q1013 BLU", "EHEH 090225Z AUTO 07008KT 030V100 9999 OVC250 03/01 Q1013 BLU", "EHEH 090125Z AUTO 08008KT 050V110 9999 OVC240 03/00 Q1014 BLU",
                "EHEH 090055Z AUTO 07008KT 030V100 9999 OVC230 02/00 Q1015 BLU", "EHEH 090025Z AUTO 07009KT 030V090 9000 BR OVC230 02/00 Q1015 BLU", "EHEH 082355Z AUTO 07007KT 040V100 9999 OVC200 02/00 Q1016 BLU",
                "EHEH 082325Z AUTO 08007KT 040V100 9999 OVC210 02/00 Q1016 BLU", "EHEH 082225Z AUTO 08007KT 050V110 9999 OVC210 02/00 Q1017 BLU", "COR EHEH 082155Z AUTO 08007KT 9999 OVC190 03/00 Q1018 BLU 07009KT CAVOK",
                "EHEH 082125Z AUTO 08007KT 030V100 9999 OVC200 03/00 Q1018 BLU 07009KT CAVOK", "EHEH 082055Z AUTO 07010KT 030V100 9999 OVC200 03/00 Q1018 BLU 07009KT CAVOK", "EHEH 082025Z AUTO 07010KT 030V100 9999 OVC220 03/00 Q1018 BLU 07009KT CAVOK",
                "EHEH 081955Z AUTO 07010KT 9999 BKN210 OVC290 03/00 Q1018 BLU 07009KT CAVOK", "EHEH 081925Z AUTO 07009KT 040V100 9999 SCT210 BKN270 03/00 Q1019 BLU 07010KT 9999 FEW018", "COR EHEH 081855Z AUTO 07009KT 040V110 9999 OVC200 04/00 Q1019 BLU 07010KT 9999 FEW018",
                "EHEH 081825Z AUTO 07009KT 040V100 9999 OVC210 03/00 Q1019 BLU 07010KT 9999 FEW018", "EHEH 081755Z AUTO 07008KT 020V130 9999 OVC220 04/00 Q1019 BLU 07010KT 9999 FEW018", "EHEH 081725Z AUTO 07010KT 040V110 9999 FEW220 OVC280 04/00 Q1020 BLU 07010KT 9999 FEW018",
                "EHEH 081655Z AUTO 07009KT 040V100 9999 OVC290 04/M00 Q1020 BLU 07010KT 9999 FEW018", "COR EHEH 081625Z AUTO 07009KT 020V130 9999 NSC 04/00 Q1020 BLU 07010KT 9999 FEW018", "COR EHEH 081555Z AUTO 07009KT 9999 NSC 04/00 Q1020 BLU 07010KT 9999 FEW018",
                "EHEH 081525Z AUTO 06009KT 350V110 9999 SCT020 04/00 Q1020 WHT 07010KT 9999 SCT018", "EHEH 081455Z AUTO 07010KT 030V100 9999 OVC017 05/00 Q1021 WHT 07010KT 9999 BKN016", "EHEH 081425Z AUTO 06010KT 020V100 9999 OVC016 05/01 Q1021 WHT 07010KT 9999 BKN016",
                "EHEH 081355Z AUTO 07010KT 030V100 9999 OVC017 05/00 Q1021 WHT 07009KT 9999 BKN016", "EHEH 081325Z AUTO 07009KT 030V100 9999 OVC016 04/00 Q1022 WHT 07009KT 9999 BKN016", "EHEH 081255Z AUTO 07009KT 050V110 9999 OVC015 04/M00 Q1022 WHT 07009KT 9999 BKN016",
                "EHEH 081225Z AUTO 07010KT 360V110 9999 OVC016 03/M01 Q1022 WHT 07012KT 9999 BKN016", "EHEH 081155Z AUTO 07010KT 030V100 9999 OVC016 03/M01 Q1022 WHT 07012KT 9999 BKN016", "EHEH 081125Z AUTO 07012KT 010V100 9999 OVC016 03/M01 Q1023 WHT 06013KT 9999 BKN018",
                "EHEH 081055Z AUTO 06012KT 020V080 9999 OVC016 03/M01 Q1023 WHT 06013KT 9999 BKN018", "EHEH 081025Z AUTO 06011KT 010V130 9999 OVC016 03/M01 Q1023 WHT 06013KT 9999 BKN020", "EHEH 080955Z AUTO 06012KT 030V090 9999 OVC017 03/M01 Q1024 WHT 06013KT 9999 BKN020",
                "EHEH 080925Z AUTO 06010KT 020V080 9999 OVC020 02/M01 Q1024 WHT 06013KT 9999 BKN020", "EHEH 080855Z AUTO 06012KT 020V090 9999 OVC019 02/M01 Q1024 WHT 06013KT 9999 BKN020", "EHEH 080825Z AUTO 06011KT 020V090 9999 OVC021 02/M01 Q1024 WHT 06013KT 9999 BKN020",
                "EHEH 080755Z AUTO 06011KT 020V090 9999 OVC023 02/M01 Q1024 WHT 06013KT 9999 BKN020", "EHEH 080725Z AUTO 06010KT 020V090 9999 OVC026 02/M01 Q1024 BLU 06015KT 9999 BKN020", "COR EHEH 080655Z AUTO 07011KT 030V100 9999 OVC026 02/M01 Q1024 BLU 06015KT 9999 BKN020",
                "EHEH 080625Z AUTO 06011KT 9999 OVC027 02/M01 Q1025 BLU 06015KT 9999 BKN020", "EHEH 080555Z AUTO 06010KT 030V100 9999 OVC027 02/M01 Q1025 BLU 06015KT 9999 BKN020", "EHEH 080525Z AUTO 07010KT 030V100 9999 FEW014 OVC026 02/M01 Q1025 BLU",
                "EHEH 080455Z AUTO 06013KT 020V090 9999 FEW013 OVC025 02/M01 Q1025 BLU", "EHEH 080425Z AUTO 06014KT 360V090 9999 OVC022 02/M01 Q1025 WHT", "EHEH 080355Z AUTO 06012KT 020V080 9999 OVC021 02/M01 Q1025 WHT",
                "EHEH 080325Z AUTO 05014KT 020V080 9999 OVC018 02/M01 Q1025 WHT", "EHEH 080255Z AUTO 06012KT 020V080 9999 FEW013 OVC019 02/M01 Q1025 WHT", "EHEH 080225Z AUTO 07011KT 030V090 9999 FEW014 OVC019 02/M01 Q1025 WHT",
                "EHEH 080155Z AUTO 06013KT 9999 FEW014 OVC019 02/M01 Q1025 WHT", "EHEH 080125Z AUTO 06014KT 030V090 9999 FEW013 OVC019 01/M02 Q1025 WHT", "EHEH 080055Z AUTO 06014KT 030V100 9999 FEW015 OVC018 01/M02 Q1025 WHT",
                "EHEH 080025Z AUTO 05015KT 020V090 9999 OVC018 01/M02 Q1025 WHT", "EHEH 072355Z AUTO 06015KT 030V090 9999 OVC019 01/M02 Q1026 WHT", "EHEH 072325Z AUTO 06016KT 020V090 9999 OVC019 01/M02 Q1026 WHT",
                "EHEH 072255Z AUTO 05016KT 030V100 9999 OVC020 01/M02 Q1026 WHT", "EHEH 072225Z AUTO 06013KT 020V080 9999 OVC020 01/M02 Q1026 WHT", "COR EHEH 072155Z AUTO 06013KT 010V090 9999 OVC021 01/M02 Q1026 WHT 05016KT 9999 OVC017",
                "EHEH 072125Z AUTO 06014KT 020V100 9999 OVC021 01/M02 Q1026 WHT 05016KT 9999 OVC017", "EHEH 072055Z AUTO 06014KT 020V090 9999 OVC020 01/M02 Q1026 WHT 05016KT 9999 OVC017", "EHEH 072025Z AUTO 06016KT 020V090 9999 SCT018 OVC021 01/M02 Q1026 WHT 05016KT 9999 OVC017",
                "EHEH 071955Z AUTO 06014KT 020V100 9999 OVC018 01/M02 Q1026 WHT 05016KT 9999 OVC017", "EHEH 071925Z AUTO 06014KT 020V090 9999 OVC017 01/M02 Q1026 WHT 05016KT 9999 OVC017", "COR EHEH 071855Z AUTO 05014KT 360V100 9999 OVC016 01/M02 Q1026 WHT 05016KT 9999 FEW020",
                "EHEH 071825Z AUTO 05014KT 020V080 9999 OVC016 01/M02 Q1026 WHT 05016KT 9999 FEW020", "EHEH 071755Z AUTO 06012KT 030V090 9999 OVC017 01/M02 Q1026 WHT 05016KT 9999 FEW020", "EHEH 071725Z AUTO 06012KT 030V100 9999 BKN021 01/M02 Q1026 WHT 05016KT 9999 FEW020",
                "EHEH 071655Z AUTO 05014KT 360V080 9999 OVC280 01/M02 Q1026 BLU 05016KT 9999 FEW020", "COR EHEH 071625Z AUTO 05013KT 020V080 9999 NSC 01/M02 Q1025 BLU 05016KT 9999 FEW020", "COR EHEH 071555Z AUTO 05015KT 360V070 9999 NSC 02/M02 Q1025 BLU 05016KT 9999 FEW020",
                "COR EHEH 071525Z AUTO 05014KT 360V080 9999 FEW020 02/M02 Q1025 BLU 05016KT 9999 FEW020", "COR EHEH 071455Z AUTO 05015KT 020V090 9999 NSC 02/M02 Q1025 BLU 05016KT 9999 FEW016", "EHEH 071425Z AUTO 05017KT 010V080 9999 FEW018 03/M02 Q1025 BLU 05016KT 9999 FEW016",
                "EHEH 071355Z AUTO 05016KT 020V080 9999 FEW019 OVC280 03/M01 Q1025 BLU 05016KT 9999 FEW016", "EHEH 071325Z AUTO 05017KT 010V090 9999 SCT017 03/M01 Q1025 WHT 05016KT 9999 FEW016", "COR EHEH 071255Z AUTO 05015KT 010V090 9999 NSC 03/M01 Q1025 BLU 05016KT 9999 FEW016",
                "EHEH 071225Z AUTO 05015KT 010V090 9999 FEW016 BKN300 03/M01 Q1025 BLU 05016KT 9999 FEW016", "EHEH 071155Z AUTO 05017KT 010V090 9999 SCT015 OVC220 03/M01 Q1025 WHT 04018KT 9999 SCT016", "EHEH 071125Z AUTO 05014KT 020V100 9999 BKN014 BKN250 02/M01 Q1026 GRN 04018KT 9999 SCT016",
                "EHEH 071055Z AUTO 05014KT 020V080 9999 BKN013 OVC016 02/M01 Q1026 GRN 04015KT 9999 SCT018",
                "EHEH 071025Z AUTO 05016KT 9999 SCT014 BKN017 OVC270 02/M01 Q1026 GRN 04015KT 9999 SCT018",
                "EHEH 070955Z AUTO 05014KT 010V070 9999 SCT014 BKN016 BKN020 02/M01 Q1026 GRN 04015KT 9999 SCT018",
                "EHEH 070925Z AUTO 05013KT 350V090 9999 FEW014 OVC016 01/M01 Q1025 WHT 04015KT 9999 SCT018", "EHEH 070855Z AUTO 04016KT 010V070 9999 OVC015 02/M01 Q1025 WHT 04015KT 9999 OVC015", "EHEH 070825Z AUTO 05016KT 010V080 9999 OVC015 02/M01 Q1024 WHT 04015KT 9999 OVC015",
                "EHEH 070755Z AUTO 04015KT 010V070 9999 OVC016 03/M00 Q1024 WHT 04015KT 9999 OVC015",
                "EHEH 070725Z AUTO 04014KT 9999 FEW014 OVC017 03/M00 Q1023 WHT 04015KT 9999 OVC015",
                "EHEH 070655Z AUTO 04014KT 010V080 9999 SCT012 BKN015 OVC019 02/00 Q1023 GRN 04015KT 9999 OVC015",
                "EHEH 070625Z AUTO 04014KT 010V070 9999 SCT014 OVC016 03/00 Q1022 GRN 04015KT 9999 OVC015",
                "EHEH 070555Z AUTO 05014KT 010V070 9999 SCT014 OVC016 03/00 Q1022 GRN 04015KT 9999 OVC015",
                "EHEH 070525Z AUTO 04014KT 010V070 9999 OVC015 03/00 Q1021 WHT 04014KT 9999 OVC015 TEMPO 06015G25KT",
                "EHEH 070455Z AUTO 05013KT 010V080 9999 SCT014 OVC016 03/01 Q1021 GRN", "EHEH 070425Z AUTO 04013KT 010V070 9999 BKN013 OVC015 03/01 Q1021 GRN", "EHEH 070355Z AUTO 04012KT 010V070 9999 OVC012 03/01 Q1021 GRN",
                "EHEH 070325Z AUTO 04013KT 020V080 9999 SCT012 OVC014 03/01 Q1020 GRN", "EHEH 070255Z AUTO 04014KT 020V080 9999 OVC013 03/01 Q1020 GRN", "EHEH 070225Z AUTO 04014KT 020V080 9999 OVC012 03/01 Q1020 GRN",
                "EHEH 070155Z AUTO 05014KT 010V070 9999 BKN013 OVC015 03/01 Q1019 GRN", "EHEH 070125Z AUTO 04013KT 360V070 9999 SCT012 OVC014 03/01 Q1019 GRN", "EHEH 070055Z AUTO 04014KT 9999 BKN012 BKN015 BKN038 04/01 Q1018 GRN",
                "EHEH 070025Z AUTO 04013KT 020V080 9999 SCT012 OVC042 04/01 Q1018 GRN", "EHEH 062355Z AUTO 04012KT 360V060 9999 FEW010 BKN013 OVC040 04/02 Q1017 GRN", "EHEH 062325Z AUTO 03011KT 350V060 9999 FEW009 BKN011 OVC013 04/03 Q1017 GRN",
                "EHEH 062255Z AUTO 03013KT 360V060 9999 OVC009 05/03 Q1017 GRN",
                "EHEH 062225Z AUTO 03011KT 360V060 9999 BKN009 OVC010 05/03 Q1017 GRN",
                "EHEH 062025Z AUTO 04010KT 010V070 8000 BR FEW011 OVC016 06/04 Q1015 WHT 03007KT 7000 FEW010 BKN050 TEMPO 4500 BR SCT008 BKN050",
                "EHEH 061955Z AUTO 04010KT 010V070 8000 BR FEW013 OVC016 06/04 Q1014 WHT 03007KT 7000 FEW010 BKN050 TEMPO 4500 BR SCT008 BKN050",
                "EHEH 061755Z AUTO 02008KT 6000 BR SCT007 BKN008 OVC010 06/05 Q1012 GRN 03003KT 5000 BR -DZRA SCT009 SCT020 OV030",
                "EHEH 061725Z AUTO 02006KT 330V070 6000 BR FEW008 SCT009 BKN011 06/05 Q1011 GRN 03003KT 5000 BR -DZRA SCT009 SCT020 OV030",
                "EHEH 061655Z AUTO 02005KT 300V060 5000 BR FEW008 SCT012 OVC027 05/05 Q1011 GRN 03003KT 5000 BR -DZRA FEW009 SCT020 OV030",
                "COR EHEH 061625Z AUTO 03005KT 270V050 6000 BR OVC026 05/05 Q1011 WHT 03003KT 5000 BR -DZRA FEW009 SCT020 OV030",
                "EHEH 061555Z AUTO VRB05KT 5000 BR BKN037 OVC041 05/05 Q1010 WHT 03003KT 5000 BR -DZRA FEW005 SCT020 OV030",
                "EHEH 061525Z AUTO 03005KT 6000 BR FEW026 OVC036 06/05 Q1010 WHT 03003KT 6000 BR -DZRA FEW005 SCT020 OV030",
                "EHEH 061455Z AUTO 02004KT 300V100 6000 BR OVC034 06/05 Q1010 WHT 03003KT 6000 BR -DZRA FEW005 SCT020 OV030",
                "EHEH 061425Z AUTO 02003KT 340V050 7000 BR OVC033 06/05 Q1009 WHT 03003KT 9999 -DZRA FEW005 SCT020 OV030",
                "EHEH 061355Z AUTO 03003KT 360V070 7000 BR OVC032 06/05 Q1009 WHT 03003KT 9999 -DZRA FEW005 SCT020 OV030",
                "EHEH 061325Z AUTO 03004KT 7000 -DZ FEW019 SCT023 BKN027 06/05 Q1008 WHT 03003KT 9999 -DZRA FEW005 SCT020 OV030",
                "EHEH 061225Z AUTO 35003KT 300V070 9000 -RA BKN032 OVC037 06/05 Q1008 RERA REDZ BLU 03003KT 9999 -DZRA FEW005 SCT020 OV030",
                "COR EHEH 061155Z AUTO 33003KT 300V060 9999 SCT033 SCT044 OVC053 06/05 Q1008 BLU 03003KT 9999 NSW FEW005 SCT020 BKN030",
                "EHEH 061125Z AUTO 00000KT 9999 SCT043 BKN047 OVC051 05/05 Q1008 BLU VRB03KT 7000 NSC",
                "EHEH 061055Z AUTO 14003KT 100V210 9000 BR BKN049 OVC054 05/04 Q1007 BLU VRB03KT 7000 NSC",
                "COR EHEH 061025Z AUTO VRB02KT 7000 BR FEW056 BKN063 OVC140 04/03 Q1007 WHT VRB03KT 7000 NSC",
                "EHEH 060955Z AUTO VRB01KT 4900 -RA BKN021 OVC024 03/02 Q1007 GRN VRB03KT 9999 OVC020",
                "EHEH 060925Z AUTO VRB02KT 5000 BR OVC023 02/02 Q1006 WHT VRB03KT 9999 MIFG NSC TEMPO 1000 BCFG",
                "EHEH 060855Z AUTO VRB01KT 5000 BR SCT024 SCT050 OVC065 02/01 Q1006 WHT VRB03KT 9999 MIFG NSC TEMPO 1000 BCFG",
                "EHEH 060825Z AUTO VRB01KT 2600 R21/P3000N BR FEW068 OVC081 01/01 Q1005 YLO VRB03KT 9999 MIFG NSC TEMPO 1000 BCFG",
                "EHEH 060755Z AUTO VRB01KT 2700 R21/P3000N BR SCT058 BKN063 OVC070 01/01 Q1005 YLO VRB03KT 9999 MIFG NSC TEMPO 1000 BCFG",
                "COR EHEH 060725Z AUTO 16003KT 110V200 5000 BR FEW074 BKN083 OVC091 00/00 Q1005 WHT VRB03KT 9999 MIFG NSC TEMPO 1000 BCFG",
                "EHEH 060655Z AUTO VRB01KT 7000 BR SCT093 OVC099 02/02 Q1004 WHT 19007KT CAVOK", "EHEH 060625Z AUTO 15003KT 140V200 7000 BR SCT097 OVC100 02/01 Q1004 WHT 19007KT CAVOK", "EHEH 060555Z AUTO 18003KT 180V290 9999 OVC150 02/02 Q1004 BLU 19007KT CAVOK",
                "COR EHEH 060525Z AUTO 17005KT 9999 OVC150 02/01 Q1004 BLU 19007KT CAVOK", "EHEH 052355Z AUTO 21007KT 9999 BKN200 BKN290 04/03 Q1001 BLU", "COR EHEH 052325Z AUTO 20008KT 9999 NSC 05/03 Q1001 BLU",
                "COR EHEH 052155Z AUTO 21007KT 9999 NCD 05/03 Q1000 BLU", "COR EHEH 052125Z AUTO 22010KT 9999 NSC 05/03 Q1000 BLU 20010KT CAVOK", "COR EHEH 052055Z AUTO 21009KT 190V250 9999 NSC 05/04 Q0999 BLU 20010KT CAVOK",
                "COR EHEH 052025Z AUTO 21010KT 9999 NSC 06/04 Q0999 BLU 20010KT CAVOK", "COR EHEH 051955Z AUTO 21009KT 9999 NSC 06/04 Q0999 BLU 20010KT CAVOK", "COR EHEH 051925Z AUTO 20010KT 190V250 9999 NSC 06/04 Q0998 BLU 20010KT CAVOK",
                "COR EHEH 051855Z AUTO 21008KT 9999 NSC 06/05 Q0998 BLU 20010KT CAVOK", "EHEH 051825Z AUTO 20006KT 9999 BKN260 06/05 Q0998 BLU 20010KT CAVOK", "EHEH 051755Z AUTO 21006KT 9999 FEW028 SCT066 06/05 Q0997 BLU 20010KT CAVOK",
                "COR EHEH 051525Z AUTO 19008KT 160V220 9999 OVC065 09/06 Q0996 BLU 20010KT 9999 FEW017 BKN150 TEMPO 4000 SHRA SCT015 SCT018CB BKN022",
                "EHEH 051455Z AUTO 20007KT 160V220 9999 FEW084 BKN089 OVC095 09/06 Q0996 BLU 22010KT 9999 FEW017 BKN150",
                "EHEH 051425Z AUTO 20008KT 9999 SCT096 OVC100 09/06 Q0996 BLU 22010KT 9999 FEW017 BKN150",
                "EHEH 051355Z AUTO 20009KT 160V230 9999 SCT017 SCT021 OVC100 09/06 Q0996 WHT 22010KT 9999 FEW020 BKN150",
                "EHEH 051325Z AUTO 20009KT 170V230 9999 FEW018 OVC180 09/06 Q0996 BLU 22010KT 9999 FEW020 BKN150",
                "EHEH 051255Z AUTO 21009KT 180V240 9999 FEW016 OVC120 09/06 Q0996 BLU 22010KT 9999 FEW020 BKN150",
                "COR EHEH 051225Z AUTO 21011KT 9999 SCT016 BKN028 OVC150 09/06 Q0996 WHT 22010KT 9999 FEW020 BKN150",
                "EHEH 051155Z AUTO 21011KT 9999 FEW020 OVC150 09/06 Q0996 BLU 22010KT 9999 FEW020 BKN150",
                "EHEH 051125Z AUTO 21009KT 180V240 9999 FEW016 SCT020 OVC140 09/06 Q0996 WHT 22010KT 9999 FEW020 BKN150",
                "EHEH 051055Z AUTO 22010KT 9999 OVC140 09/06 Q0996 BLU 22010KT 9999 FEW020 BKN150", "EHEH 051025Z AUTO 22010KT 9999 OVC140 09/06 Q0996 BLU 26014KT 9999 SCT020 BKN150", "EHEH 050955Z AUTO 23010KT 9999 OVC140 08/06 Q0996 BLU 26014KT 9999 BKN020",
                "EHEH 050925Z AUTO 23010KT 9999 FEW019 SCT025 BKN036 08/05 Q0996 BLU 26014KT 9999 BKN020", "EHEH 050855Z AUTO 22010KT 190V250 9999 OVC140 08/05 Q0996 BLU 26014KT 9999 BKN020", "EHEH 050825Z AUTO 23009KT 200V260 9999 OVC140 07/05 Q0996 BLU 26014KT 9999 BKN020",
                "EHEH 050755Z AUTO 23010KT 9999 FEW020 SCT024 OVC150 07/05 Q0996 WHT 26014KT 9999 BKN020",
                "EHEH 050725Z AUTO 28003KT 190V300 9999 BKN018 OVC023 06/05 Q0995 WHT 26014KT 9999 SCT014 BKN020",
                "EHEH 050655Z AUTO VRB05KT 9999 SCT009 BKN011 BKN014 06/05 Q0995 GRN 26014KT 9999 SCT014 BKN020",
                "EHEH 050625Z AUTO 25005KT 230V290 9999 SCT016 BKN020 OVC023 07/05 Q0995 WHT 26014KT 9999 SCT014 BKN020",
                "EHEH 050555Z AUTO 25007KT 180V330 9999 OVC018 07/05 Q0994 WHT 26014KT 9999 SCT014 BKN020",
                "COR EHEH 050525Z AUTO 26013KT 230V320 9999 FEW012 SCT015 BKN019 08/05 Q0994 WHT 26014KT 9999 SCT014 BKN020",
                "EHEH 050455Z AUTO 24018KT 200V280 9999 SCT018 BKN021 BKN029 09/06 Q0993 WHT", "EHEH 050425Z AUTO 22017KT 190V250 9999 FEW018 SCT022 BKN025 08/06 Q0993 WHT", "EHEH 050355Z AUTO 19009KT 150V230 9999 FEW006 BKN015 OVC019 07/06 Q0993 REDZ WHT",
                "EHEH 050325Z AUTO 19011KT 160V220 9999 -DZ FEW024 SCT033 BKN039 07/06 Q0993 BLU", "EHEH 050255Z AUTO 22013KT 180V260 8000 -SHRA FEW018 BKN033 OVC038 07/06 Q0995 REDZ BLU", "EHEH 050225Z AUTO 21014KT 9999 DZ FEW017 SCT041 BKN059 08/05 Q0995 BLU",
                "EHEH 050155Z AUTO 21012KT 9999 FEW034 SCT048 OVC054 08/04 Q0995 BLU", "EHEH 050125Z AUTO 22012KT 190V250 9999 FEW015CB SCT083 BKN091 07/04 Q0995 BLU", "EHEH 050055Z AUTO 23013KT 200V260 9999 FEW074 SCT085 OVC091 08/04 Q0995 BLU",
                "EHEH 050025Z AUTO 23014KT 200V270 9999 FEW028 SCT081 OVC100 08/03 Q0995 BLU", "EHEH 042355Z AUTO 23016KT 190V260 9999 FEW025 BKN091 OVC097 08/03 Q0995 BLU", "COR EHEH 042325Z AUTO 23016KT 210V270 9999 FEW094 OVC100 08/03 Q0995 BLU",
                "EHEH 042255Z AUTO 24019G29KT 190V290 9999 FEW029 08/03 Q0995 BLU", "EHEH 042225Z AUTO 24017KT 200V280 9999 FEW028 BKN032 BKN036 08/03 Q0995 BLU", "COR EHEH 042155Z AUTO 24016KT 200V280 9999 SCT029 BKN033 08/03 Q0995 BLU",
                "COR EHEH 042125Z AUTO 25019KT 210V280 9999 BKN030 OVC035 09/03 Q0994 BLU 25020G30KT 9999 SCT025 BKN035",
                "EHEH 042055Z AUTO 26019G34KT 220V290 9999 OVC030 09/03 Q0994 BLU 25022G38KT 9999 SCT025 BKN035",
                "EHEH 042025Z AUTO 26022G35KT 220V310 9999 SCT030 BKN036 OVC040 10/03 Q0993 BLU 25022G38KT 9999 SCT025 BKN035",
                "EHEH 041955Z AUTO 26024G36KT 220V320 9999 FEW032 SCT038 OVC042 10/04 Q0992 BLU 25022G38KT 9999 SCT025 BKN035",
                "EHEH 041925Z AUTO 26022G33KT 210V300 9999 FEW021 BKN025 OVC029 10/05 Q0992 BLU 25022G38KT 9999 SCT025 BKN035",
                "COR EHEH 041855Z AUTO 25021G38KT 200V280 9999 FEW022 BKN027 OVC031 10/06 Q0991 BLU 25022G38KT 9999 SCT025 BKN035",
                "EHEH 041825Z AUTO 25020G31KT 200V280 9999 BKN026 OVC029 11/06 Q0991 BLU 25020G32KT 9999 SCT025 BKN035 BECMG 25022G38KT",
                "EHEH 041755Z AUTO 24019G29KT 210V290 9999 SCT027 BKN031 OVC037 11/06 Q0990 BLU 25020G32KT 9999 SCT025 BKN035 BECMG 25022G38KT",
                "COR EHEH 041725Z AUTO 25020KT 220V280 9999 BKN029 BKN033 BKN044 11/06 Q0990 BLU 25020G32KT 9999 SCT025 BKN035 BECMG 25022G38KT",
                "EHEH 041655Z AUTO 24018KT 200V290 9999 FEW031 BKN048 BKN053 11/07 Q0990 BLU 24015G28KT 9999 SCT015 BKN025 BECMG 25022G38KT",
                "EHEH 041625Z AUTO 24015KT 210V280 9999 FEW026 BKN030 BKN037 12/08 Q0990 BLU 24015G28KT 9999 SCT015 BKN025 BECMG 25022G38KT",
                "EHEH 041555Z AUTO 23015KT 200V260 9999 FEW021 SCT024 BKN028 12/09 Q0990 WHT 24012KT 9999 SCT015 BKN025 BECMG 25015G28KT",
                "EHEH 041525Z AUTO 24013KT 190V270 9999 FEW021 SCT027 BKN044 11/10 Q0990 BLU 24012KT 9999 SCT015 BKN025 BECMG 25015G28KT",
                "EHEH 041355Z AUTO 22011KT 7000 BR BKN005 OVC006 10/09 Q0990 YLO 17008KT 9999 SCT008 BKN010 TEMPO 3000 DZRA SCT004 BKN005 BKN007",
                "COR EHEH 040855Z AUTO 20008KT 9999 SCT059 BKN070 OVC076 07/06 Q0997 BLU 19009KT 9999 FEW010 SCT025 BKN040",
                "EHEH 040825Z AUTO 22009KT 190V250 9999 FEW011 BKN053 OVC058 07/06 Q0997 BLU 21010KT 9999 FEW010 SCT025 BKN040",
                "EHEH 040755Z AUTO 22009KT 200V260 9999 FEW011 SCT073 BKN078 07/06 Q0998 BLU 23012KT 9999 SCT025 BKN040",
                "EHEH 040725Z AUTO 21009KT 9999 SCT010 SCT014 BKN098 07/05 Q0997 GRN 23012KT 9999 SCT025 BKN040",
                "EHEH 040655Z AUTO 22010KT 9999 FEW017 OVC100 07/05 Q0998 BLU 23012KT 9999 SCT025 BKN040", "EHEH 040625Z AUTO 22011KT 9999 OVC120 07/05 Q0998 BLU 23012KT 9999 SCT025 BKN040", "EHEH 040555Z AUTO 22011KT 9999 SCT050 OVC140 07/05 Q0998 BLU 23012KT 9999 SCT025 BKN040",
                "EHEH 040525Z AUTO 23013KT 190V260 9000 BR OVC047 07/05 Q0998 BLU", "EHEH 040455Z AUTO 23013KT 200V260 9000 BR FEW033 OVC047 06/04 Q0999 BLU", "EHEH 040425Z AUTO 22012KT 200V260 8000 BR BKN045 OVC180 06/04 Q0999 BLU",
                "COR EHEH 040355Z AUTO 23011KT 200V260 9000 BR OVC260 06/04 Q0999 BLU", "EHEH 040325Z AUTO 24012KT 210V270 9000 HZ OVC190 07/04 Q0999 BLU", "EHEH 040255Z AUTO 24012KT 210V270 9999 OVC190 07/04 Q0999 BLU",
                "EHEH 040225Z AUTO 25013KT 210V290 9999 BKN210 OVC270 07/04 Q0999 BLU", "EHEH 040155Z AUTO 24013KT 200V270 9999 OVC260 07/04 Q0999 BLU", "EHEH 040125Z AUTO 24014KT 210V280 9999 OVC058 08/04 Q0999 BLU",
                "EHEH 040055Z AUTO 24016KT 200V290 9999 BKN053 OVC058 08/04 Q0999 BLU", "EHEH 040025Z AUTO 24015KT 210V280 9999 BKN053 OVC059 08/04 Q0999 BLU", "EHEH 032355Z AUTO 24014KT 200V270 9999 FEW027 BKN054 OVC059 08/04 Q0999 BLU",
                "COR EHEH 032325Z AUTO 24014KT 210V290 9999 BKN025 OVC029 08/04 Q0999 BLU",
                "EHEH 032255Z AUTO 24017KT 200V270 9999 FEW027 SCT065 BKN079 08/04 Q0999 BLU",
                "EHEH 032225Z AUTO 24018G30KT 220V290 9999 FEW041 BKN056 OVC061 08/04 Q0999 BLU 25018G30KT 9999 SCT025 BKN050",
                "COR EHEH 032155Z AUTO 24018G29KT 200V290 9999 FEW028 SCT037 BKN042 08/04 Q0999 BLU 25012G22KT 9999 SCT025 BKN040",
                "EHEH 032125Z AUTO 26011KT 210V300 9999 FEW023 BKN026 OVC031 08/04 Q0999 REDZ BLU 25012KT 9999 SCT025 BKN040",
                "COR EHEH 032055Z AUTO 26011KT 200V290 7000 +DZ SCT019 BKN022 BKN026 08/05 Q0999 WHT 25012KT 9999 BKN040",
                "EHEH 032025Z AUTO 24015KT 210V270 9999 FEW015CB SCT044 BKN048 08/05 Q0999 REDZ BLU 25014G24KT 9999 BKN040",
                "EHEH 031955Z AUTO 25016KT 210V300 9999 FEW040 BKN053 OVC059 08/05 Q0999 REDZ BLU 25015G25KT 9999 BKN040",
                "EHEH 031825Z AUTO 26022G35KT 210V290 4300 +DZRA FEW015CB SCT025 BKN031 07/05 Q0998 GRN 26022G35KT 9999 BKN040",
                "COR EHEH 031755Z AUTO 25020KT 220V290 9999 -DZ FEW020CB SCT033 BKN038 OVC044 09/04 Q0998 REDZ BLU 26022G35KT 9999 BKN040",
                "EHEH 031725Z AUTO 25020G32KT 210V310 9999 FEW038 SCT042 BKN050 09/03 Q0997 BLU 26023G40KT 9999 BKN030",
                "EHEH 031655Z AUTO 26022G33KT 220V290 9999 FEW036 SCT051 OVC057 09/03 Q0997 BLU 26023G40KT 9999 BKN030",
                "EHEH 030525Z AUTO 25017G27KT 220V300 9999 FEW034 BKN040 BKN046 10/05 Q0986 BLU 25018G32KT 9999",
                "EHEH 030455Z AUTO 26021G31KT 230V300 9999 FEW043 11/05 Q0986 BLU", "EHEH 030425Z AUTO 26018KT 200V300 9999 FEW029 BKN097 OVC100 11/07 Q0986 BLU", "EHEH 030355Z AUTO 26017G32KT 220V290 9999 FEW015CB SCT045 BKN054 11/08 Q0986 RERA BLU",
                "EHEH 030325Z AUTO 24025G40KT 220V310 4500 RA FEW000 SCT012 SCT015CB BKN019 12/11 Q0986 GRN",
                "EHEH 030255Z AUTO 21022KT 6000 -RA FEW008 BKN013 FEW015CB BKN017 11/10 Q0986 RERA REDZ GRN",
                "EHEH 030225Z AUTO 20022KT 170V230 9999 -RA FEW002 SCT008 BKN010 11/10 Q0987 GRN",
                "EHEH 030155Z AUTO 20018KT 170V240 6000 SHRA FEW007 SCT008 BKN010 FEW015CB 11/10 Q0989 GRN",
                "EHEH 030125Z AUTO 19016KT 160V220 7000 -SHRA FEW006 BKN007 BKN008 SCT015CB 10/09 Q0991 RERA REDZ GRN",
                "EHEH 030055Z AUTO 18015KT 5000 +DZ FEW005 SCT007 BKN013 09/09 Q0992 GRN", "EHEH 030025Z AUTO 18011KT 150V210 9999 DZ SCT007 BKN008 OVC010 09/08 Q0995 GRN", "EHEH 022355Z AUTO 19012KT 160V220 9999 FEW007 SCT008 BKN010 09/08 Q0996 GRN",
                "EHEH 022325Z AUTO 20012KT 160V240 9999 SCT007 BKN008 BKN009 09/08 Q0998 REDZ GRN", "EHEH 022255Z AUTO 20015KT 9999 -RA FEW006 BKN007 BKN008 09/08 Q0999 RERA REDZ GRN", "EHEH 022225Z AUTO 20014KT 160V220 9999 -RA BKN005 OVC006 08/08 Q1000 RERA REDZ YLO",
                "EHEH 021655Z AUTO 20014KT 9999 -RADZ FEW038 SCT051 BKN057 07/04 Q1008 RERA REDZ BLU 19010KT 9999 SCT017 BKN020 BKN045",
                "EHEH 021625Z AUTO 19010KT 9999 FEW016 SCT046 BKN052 07/04 Q1008 BLU 19010KT 9999 SCT017 BKN020 BKN045",
                "EHEH 021555Z AUTO 18008KT 9999 FEW022 OVC081 06/04 Q1009 BLU 19008KT 9999 FEW015 SCT020 OVC080",
                "EHEH 021525Z AUTO 18008KT 130V250 9999 FEW067 SCT072 BKN078 06/03 Q1009 BLU 20009KT 9999 FEW015 SCT045 OVC080",
                "EHEH 021455Z AUTO 20009KT 170V230 9999 FEW035 BKN094 OVC100 06/03 Q1010 BLU 21010KT 9999 FEW015 OVC100 TEMPO SCT015 OVC100",
                "EHEH 021425Z AUTO 20009KT 9999 FEW094 OVC100 06/03 Q1010 BLU 21010KT 9999 FEW015 OVC100 TEMPO SCT015 OVC100",
                "EHEH 021355Z AUTO 20009KT 180V240 9999 OVC100 06/03 Q1010 BLU 21010KT 9999 FEW015 OVC100 TEMPO SCT015 OVC100",
                "EHEH 021325Z AUTO 21011KT 190V250 9999 OVC130 06/04 Q1011 BLU 22010KT 9999 BKN030 TEMPO SCT015 BKN030",
                "EHEH 021255Z AUTO 22012KT 190V250 9999 OVC130 07/04 Q1011 BLU 22010KT 9999 BKN030 TEMPO SCT015 BKN030",
                "EHEH 021225Z AUTO 23011KT 200V260 9999 FEW015 OVC140 07/04 Q1011 BLU 22010KT 9999 BKN030 TEMPO SCT015 BKN030",
                "EHEH 021155Z AUTO 23010KT 9999 SCT016 OVC180 07/04 Q1011 WHT 22010KT 9999 BKN030 TEMPO SCT015 BKN030",
                "EHEH 021125Z AUTO 24010KT 210V290 9999 FEW016 OVC033 07/04 Q1012 BLU 22010KT 9999 BKN030 TEMPO SCT015 BKN030",
                "EHEH 021055Z AUTO 23010KT 9999 BKN015 BKN018 BKN031 07/05 Q1012 WHT 24010KT 9999 BKN030 TEMPO SCT015 BKN030",
                "EHEH 021025Z AUTO 24010KT 210V280 9999 FEW016 SCT021 BKN028 07/04 Q1012 WHT 24010KT 9999 BKN030 TEMPO SCT015 BKN030",
                "COR EHEH 020955Z AUTO 24007KT 210V270 9999 SCT016 OVC033 06/05 Q1011 WHT 24010KT 9999 BKN030 TEMPO SCT015 BKN030",
                "EHEH 020925Z AUTO 25007KT 210V280 9999 FEW015 SCT019 OVC038 06/05 Q1011 REDZ WHT 24010KT 9999 BKN030 TEMPO SCT015 BKN030",
                "EHEH 020855Z AUTO 25011KT 9999 DZ FEW023 SCT029 BKN032 06/04 Q1011 BLU 24010KT 9999 BKN030 TEMPO SCT015 BKN030",
                "EHEH 020825Z AUTO 24007KT 200V280 9999 FEW016 OVC034 06/04 Q1011 BLU 24010KT 9999 BKN030", "EHEH 020755Z AUTO 25006KT 210V300 9999 BKN030 OVC035 06/04 Q1010 BLU 24010KT 9999 BKN030", "EHEH 020725Z AUTO 27008KT 230V310 9999 OVC031 06/03 Q1010 BLU 27012KT 9999 BKN030",
                "EHEH 020655Z AUTO 26010KT 220V320 9999 OVC024 06/03 Q1009 WHT 27012KT 9999 SCT016 SCT022",
                "EHEH 020625Z AUTO 26010KT 230V300 9999 SCT021 OVC024 06/04 Q1009 WHT 27012KT 9999 SCT016 SCT022",
                "COR EHEH 020555Z AUTO 27011KT 230V320 9999 NSC 06/04 Q1008 BLU 27012KT 9999 SCT016 SCT022",
                "EHEH 020525Z AUTO 27011KT 230V320 9999 FEW009 SCT012 BKN014 06/05 Q1008 GRN",
                "EHEH 020455Z AUTO 28007KT 230V350 9999 FEW007 BKN009 BKN010 FEW015CB 06/05 Q1007 REDZ GRN",
                "EHEH 020425Z AUTO 27011KT 230V310 7000 -RA FEW019 BKN024 BKN029 06/05 Q1006 RERA REDZ WHT", "EHEH 020355Z AUTO 27008KT 230V320 9999 FEW006 SCT008 BKN009 FEW015CB 06/05 Q1006 GRN", "EHEH 020325Z AUTO 25007KT 220V310 9999 FEW005 BKN007 BKN008 FEW015CB 06/05 Q1005 GRN",
                "EHEH 020255Z AUTO 25007KT 200V280 7000 RA FEW007 BKN011 BKN014 FEW015CB 06/05 Q1005 GRN",
                "EHEH 020225Z AUTO 24008KT 210V270 9999 FEW008 FEW015CB SCT017 BKN021 06/05 Q1004 REDZ WHT",
                "EHEH 020155Z AUTO 23009KT 200V260 5000 -RADZ FEW007 SCT011 BKN013 FEW015CB 06/05 Q1004 GRN",
                "EHEH 020125Z AUTO 23007KT 190V260 6000 -RA FEW007 SCT012 BKN014 FEW015CB 05/05 Q1004 GRN",
                "EHEH 020055Z AUTO 23009KT 210V270 9999 -RA FEW015CB SCT022 BKN030 05/04 Q1003 RERA REDZ WHT",
                "EHEH 020025Z AUTO 22008KT 9999 DZ FEW015CB BKN019 BKN024 BKN036 05/04 Q1003 WHT", "EHEH 012355Z AUTO 23008KT 9999 SCT023 BKN028 BKN032 05/04 Q1003 WHT", "EHEH 012325Z AUTO 24008KT 210V270 9999 FEW014 SCT017 BKN033 05/04 Q1002 WHT",
                "EHEH 012255Z AUTO 24009KT 210V270 9999 FEW058 BKN063 OVC069 05/04 Q1002 BLU",
                "EHEH 012225Z AUTO 24008KT 210V270 9999 FEW032 SCT048 BKN060 05/04 Q1002 BLU",
                "EHEH 311955Z AUTO 23011KT 210V290 9999 FEW039 BKN096 OVC100 04/03 Q1000 BLU 22010KT 9999 FEW020 SCT050 TEMPO 4500 SHRAGS SCT018CB SCT040",
                "EHEH 311625Z AUTO 23007KT 190V270 9999 BKN038 BKN048 BKN070 04/03 Q1001 BLU 25010G20KT 9999 SCT015 BKN020 TEMPO 27015G25KT 4000 SHRAGS RA SCT008 SCT015CB BKN020",
                "COR EHEH 311555Z AUTO 26007KT 210V300 5000 RA SCT014 SCT015CB OVC021 04/03 Q1001 GRN 25010G20KT 9999 SCT012 BKN020 TEMPO 27015G25KT 4500 SHRAGS SCT008 SCT015CB BKN020",
                "EHEH 311455Z AUTO 22016KT 9999 FEW016 SCT075 BKN085 07/05 Q1000 BLU 23017G27KT 9999 FEW006 SCT012 BKN020 TEMPO 29020G35KT 2500 SHRA TSRA SCT005 BKN008 SCT015CB",
                "EHEH 311425Z AUTO 22012KT 170V260 9999 FEW025 SCT065 BKN071 07/05 Q1001 BLU 23017G27KT 9999 FEW006 SCT012 BKN020 TEMPO 24020G35KT 2500 SHRA TSRA SCT005 BKN008 SCT015CB",
                "EHEH 311355Z AUTO 23015KT 200V270 9999 FEW040 SCT050 BKN055 07/05 Q1002 REDZ BLU 23017G27KT 9999 FEW006 SCT012 BKN020 TEMPO 24020G35KT 2500 SHRA TSRA SCT005 BKN008 SCT015CB",
                "EHEH 310855Z AUTO 22018KT 190V250 4500 -RA FEW008 SCT009 BKN010 09/08 Q1006 RERA REDZ GRN 23017G27KT 6000 -DZRA FEW006 SCT009 OVC013 TEMPO 2500 DZRA BKN005 OVC008",
                "EHEH 310755Z AUTO 21018KT 190V250 7000 BR SCT007 BKN008 BKN009 09/08 Q1007 REDZ GRN 23017G27KT 6000 -DZRA FEW006 SCT009 OVC013 TEMPO 2500 DZRA BKN005 OVC008",
                "EHEH 310725Z AUTO 21018KT 4400 DZ SCT007 BKN008 OVC010 09/08 Q1008 GRN 23017G27KT 6000 -DZRA FEW006 SCT009 OVC013 TEMPO 2500 DZRA BKN005 OVC008",
                "EHEH 310625Z AUTO 21016KT 190V260 5000 +DZRA FEW007 BKN008 BKN009 10/09 Q1009 GRN 23017G27KT 6000 -DZRA FEW006 SCT009 OVC013 TEMPO 2500 DZRA BKN005 OVC008",
                "EHEH 310555Z AUTO 22016KT 190V250 9999 FEW008 SCT014 BKN016 10/09 Q1010 REDZ GRN 23017G27KT 6000 -DZRA FEW006 SCT009 OVC013 TEMPO 2500 DZRA BKN005 OVC008",
                "EHEH 291825Z AUTO 30013KT 250V350 9999 FEW015 BKN045 OVC049 09/07 Q1024 REDZ BLU 25015G25KT 9999 SCT015 BKN020 TEMPO 31018G30KT 3000 -RADZ FEW005 SCT007 BKN010",
                "EHEH 291625Z AUTO 24013KT 200V270 9000 -RADZ FEW008 BKN010 BKN014 09/08 Q1022 GRN 25015G25KT 9999 SCT015 BKN020 TEMPO 27018G30KT 3000 -RADZ FEW005 SCT007 BKN010",
                "EHEH 291555Z AUTO 23013KT 200V260 4500 +DZRA FEW006 SCT007 BKN015CB 09/08 Q1022 GRN 25015G25KT 9999 SCT015 BKN020 TEMPO 27018G30KT 3000 -RADZ FEW005 SCT007 BKN010",
                "EHEH 291455Z AUTO 24017KT 200V270 9999 -RA FEW016 BKN019 OVC023 10/07 Q1022 WHT 25015G25KT 9999 SCT015 BKN020 TEMPO 27018G30KT 3000 -RADZ FEW005 SCT007 BKN010",
                "EHEH 272225Z AUTO 21016KT 4100 DZ FEW006 SCT008 BKN009 05/04 Q1026 GRN 21015G25KT 4500 BR SCT010 BKN015 TEMPO 2500 DZRA SCT005 BKN007",
                "EHEH 272155Z AUTO 21018KT 3300 R21/P3000N DZ FEW009 SCT010 BKN013 05/04 Q1027 YLO 21015G25KT 5000 SCT010 BKN015 TEMPO 2500 DZRA SCT005 BKN007",
                "EHEH 251725Z AUTO 19007KT 160V220 9999 SCT022 BKN025 OVC030 08/06 Q1011 WHT 20006KT 9999 FEW015 SCT020 BKN090 TEMPO 3500 SHRA SCT015CB BKN025",
                "EHEH 251655Z AUTO 19005KT 090V220 9999 FEW021 SCT026 OVC030 08/06 Q1011 BLU 20006KT 9999 FEW015 SCT020 BKN090 TEMPO 3500 SHRA SCT015CB BKN025",
                "EHEH 251325Z AUTO 20008KT 170V230 9999 FEW014 SCT099 OVC100 09/07 Q1011 BLU 22008KT 9999 FEW014 BKN100 TEMPO 3500 SHRA SCT015CB BKN025",
                "EHEH 251255Z AUTO 22004KT 190V250 9999 FEW011 SCT013 BKN016 08/07 Q1011 GRN 22008KT 9999 FEW014 BKN100 TEMPO 3500 SHRA SCT015CB BKN025",
                "EHEH 251225Z AUTO 24009KT 170V300 9999 R21/2700D -RA FEW000 SCT007 BKN014 07/04 Q1011 RERA REDZ GRN 22008KT 9999 FEW014 BKN100 TEMPO 3500 SHRA SCT015CB BKN025",
                "EHEH 240925Z AUTO 19014KT 160V230 9999 SCT013 BKN015 BKN019 13/10 Q1014 GRN 20014G25KT 9999 FEW008 SCT010 OVC013 TEMPO SCT006 BKN010",
                "EHEH 240755Z AUTO 20014KT 170V230 9999 FEW013 BKN017 OVC022 12/10 Q1015 WHT 20014G25KT 9999 FEW008 SCT010 OVC013 TEMPO SCT006 BKN010",
                "EHEH 240725Z AUTO 20012KT 170V230 9999 FEW017 SCT020 OVC035 12/10 Q1015 WHT 20014G25KT 9999 FEW008 SCT010 OVC013 TEMPO SCT006 BKN010",
                "EHEH 240555Z AUTO 20010KT 170V230 9999 SCT010 BKN012 OVC015 12/10 Q1016 GRN 20014G25KT 9999 FEW008 SCT010 OVC013 TEMPO SCT006 BKN010",
                "EHEH 232125Z AUTO 21015KT 180V240 9999 BKN009 OVC010 11/09 Q1017 GRN 20012KT 6000 SCT007 BKN009 OVC011 TEMPO 20012G22KT 3000 -RADZ BR SCT005 BKN007 OVC009",
                "EHEH 232055Z AUTO 21013KT 9999 SCT008 OVC009 10/09 Q1017 GRN 20012KT 6000 SCT007 BKN009 OVC011 TEMPO 20012G22KT 3000 -RADZ BR SCT005 BKN007 OVC009",
                "EHEH 232025Z AUTO 20014KT 170V230 9999 SCT008 OVC009 10/09 Q1017 GRN 20012KT 6000 SCT007 BKN009 OVC011 TEMPO 20012G22KT 3000 -RADZ BR SCT005 BKN007 OVC009",
                "EHEH 231955Z AUTO 20013KT 8000 BR SCT007 BKN009 OVC010 10/09 Q1017 GRN 20012KT 6000 SCT007 BKN009 OVC011 TEMPO 20012G22KT 3000 -RADZ BR SCT005 BKN007 OVC009",
                "EHEH 231925Z AUTO 20012KT 180V240 5000 BR SCT006 BKN008 OVC009 09/09 Q1018 YLO 20013KT 9999 FEW008 BKN012 OVC014 TEMPO 20014G24KT 4500 -RADZ FEW006 BKN007 OVC010",
                "EHEH 231855Z AUTO 20013KT 7000 BR SCT007 BKN008 OVC009 09/08 Q1018 GRN 20013KT 9999 FEW008 BKN012 OVC014 TEMPO 20014G24KT 4500 -RADZ FEW006 BKN007 OVC010",
                "EHEH 231825Z AUTO 20010KT 9999 BKN007 OVC008 09/08 Q1018 REDZ GRN 20013KT 9999 FEW008 BKN012 OVC014 TEMPO 20014G24KT 4500 -RADZ FEW006 BKN007 OVC010",
                "EHEH 231755Z AUTO 20014KT 3900 DZ FEW007 SCT009 BKN010 09/08 Q1018 GRN 20013KT 9999 FEW008 BKN012 OVC014 TEMPO 20014G24KT 4500 -RADZ FEW006 BKN007 OVC010",
                "COR EHEH 231725Z AUTO 20013KT 170V230 9999 FEW011 OVC014 10/07 Q1018 GRN 20013KT 9999 FEW008 BKN012 OVC014 TEMPO 20014G24KT FEW006 BKN008 OVC010",
                "EHEH 231625Z AUTO 20012KT 180V240 9000 BR FEW007 SCT014 BKN017 09/07 Q1018 GRN 20012KT 9999 FEW010 BKN015 OVC022 BECMG SCT010 BKN012 OVC015",
                "EHEH 231555Z AUTO 21016KT 180V240 9999 FEW014 SCT017 BKN022 10/07 Q1018 WHT 20012KT 9999 FEW010 BKN015 OVC022 BECMG SCT010 BKN012 OVC015",
                "EHEH 231525Z AUTO 20013KT 170V230 9999 FEW016 OVC022 10/06 Q1018 WHT 20012KT 9999 FEW010 BKN015 OVC022 BECMG SCT010 BKN012 OVC015",
                "EHEH 231425Z AUTO 20012KT 160V220 9999 -DZ OVC025 10/06 Q1018 REDZ BLU 21014KT 9999 FEW015 BKN028 OVC034 BECMG FEW010 SCT015 BKN024",
                "EHEH 231355Z AUTO 20013KT 160V230 9999 SCT021 BKN027 OVC031 10/06 Q1019 WHT 21014KT 9999 FEW015 BKN028 OVC034 BECMG FEW010 SCT015 BKN024",
                "EHEH 220655Z AUTO 25008KT 5000 BR FEW016 OVC046 07/07 Q1005 WHT 26009KT 4500 BR BKN003 OVC005 BECMG 7000 NSW BKN007 BKN008 OVC009",
                "COR EHEH 220625Z AUTO 25009KT 220V310 5000 BR FEW004 SCT007 BKN011 07/07 Q1005 GRN 26009KT 4500 BR BKN003 OVC005 BECMG 7000 NSW BKN007 BKN008 OVC009",
                "EHEH 220255Z AUTO 17005KT 1700 R21/1800D +DZ OVC002 03/03 Q1005 AMB 15007KT 4500 DZRA BR BKN004 OVC006 TEMPO 1500 BR BKN002 OVC003",
                "EHEH 220225Z AUTO 16006KT 140V200 2500 R21/P3000N BR SCT002 OVC003 03/02 Q1006 AMB 15007KT 4500 DZRA BR BKN004 OVC006 TEMPO 1500 BR BKN002 OVC003",
                "EHEH 212125Z AUTO 15009KT 110V200 8000 -RA SCT009 BKN011 BKN013 03/01 Q1011 RERA REDZ GRN 16010KT 5000 -RADZ SCT010 OVC015 BECMG 4000 DZ BKN005 OVC008",
                "EHEH 202055Z AUTO 32004KT 280V360 2600 R21/P3000U BR FEW007 BKN008 OVC010 02/01 Q1002 YLO 32005KT 5000 BR SCT006 BKN035 TEMPO 1200",
                "EHEH 201955Z AUTO VRB02KT 3400 R21/P3000N -DZ BKN006 BKN010 OVC013 02/02 Q1001 REDZ YLO VRB03KT 3000 -RADZ BKN007 SCT010 OVC010 BECMG 6000 SCT010 OVC015",
                "COR EHEH 201925Z AUTO VRB02KT 3500 R21/P3000N -RA SCT005 OVC007 02/02 Q1001 RERA REDZ YLO VRB03KT 3000 -RADZ BKN007 SCT010 OVC010 BECMG 6000 SCT010 OVC015",
                "COR EHEH 201855Z AUTO VRB02KT 3900 DZ SCT005 BKN006 OVC008 02/02 Q1000 YLO VRB03KT 7000 -RADZ SCT007 SCT010 OVC010 TEMPO 2000 DZRA -RASN BKN003 OVC006",
                "EHEH 201825Z AUTO 01003KT 330V030 3300 R21/P3000N DZ SCT005 OVC006 02/02 Q1000 YLO VRB03KT 7000 -RADZ SCT007 SCT010 OVC010 TEMPO 2000 DZRA -RASN BKN004 OVC006",
                "COR EHEH 201755Z AUTO 01003KT 360V120 5000 DZRA SCT003 OVC005 02/02 Q1000 YLO VRB03KT 7000 -RADZ SCT007 SCT010 OVC010 TEMPO 2000 DZRA -RASN BKN004 OVC006",
                "EHEH 201525Z AUTO 14004KT 100V200 9999 -DZ BKN005 OVC006 02/02 Q0999 REDZ YLO 12005KT 7000 -RADZ SCT010 OVC025 TEMPO BKN005 OVC010",
                "EHEH 201455Z AUTO 13005KT 080V170 9999 DZ SCT005 BKN006 BKN015 03/01 Q0999 YLO 14005KT 7000 -RADZ SCT010 OVC025 TEMPO BKN005 OVC010",
                "EHEH 201425Z AUTO 17004KT 130V220 9999 -RA SCT007 BKN008 OVC011 03/02 Q1000 RERA REDZ GRN 18005KT 7000 -RADZ SCT010 OVC025 TEMPO BKN005 OVC010",
                "EHEH 201355Z AUTO 16005KT 130V220 9999 DZ SCT005 BKN007 OVC008 03/02 Q1000 YLO 18005KT 7000 -RADZ SCT010 OVC025 TEMPO BKN005 OVC010",
                "EHEH 201325Z AUTO 17004KT 120V200 9999 DZ FEW006 SCT007 BKN010 03/02 Q1000 GRN 18005KT 7000 -RADZ SCT010 OVC025 TEMPO BKN005 OVC010",
                "EHEH 201255Z AUTO 17004KT 130V190 9999 -RADZ FEW006 SCT007 BKN011 03/02 Q1001 RERA REDZ GRN 18005KT 7000 -RADZ SCT010 OVC025 TEMPO BKN007 OVC010",
                "EHEH 201225Z AUTO 19005KT 160V220 9999 +DZRA FEW007 SCT008 OVC027 03/02 Q1001 GRN 19007KT 7000 -RADZ SCT010 OVC025 TEMPO BKN007 OVC010",
                "EHEH 201155Z AUTO 19006KT 9000 DZ FEW026 SCT029 BKN033 03/03 Q1002 BLU 19008KT 7000 -RADZ SCT010 BKN020 OVC025 BECMG BKN007 OVC010",
                "EHEH 201125Z AUTO 19008KT 7000 +DZ FEW027 SCT032 OVC037 03/02 Q1003 WHT 19008KT 7000 -RADZ SCT010 BKN020 OVC025 BECMG BKN007 OVC010",
                "EHEH 191755Z AUTO 29004KT 220V010 9999 FEW015CB BKN050 BKN120 03/00 Q1008 BLU 24012KT 9999 FEW015 SCT020 TEMPO SCT011 SCT015CB BKN020",
                "EHEH 191625Z AUTO 25010KT 200V280 9999 -RADZ FEW021 SCT028 BKN031 04/01 Q1008 BLU 24012KT 9999 FEW015 SCT020 TEMPO SCT011 SCT015CB BKN020",
                "EHEH 191555Z AUTO 23010KT 200V270 9999 -RA FEW024 SCT028 BKN032 05/01 Q1008 BLU 24012KT 9999 FEW015 SCT020 TEMPO SCT011 SCT015CB BKN020",
                "EHEH 191525Z AUTO 22010KT 180V260 9999 FEW038 SCT051 BKN059 05/01 Q1008 BLU 24012KT 9999 FEW015 SCT020 TEMPO SCT011 SCT015CB BKN020",
                "EHEH 191355Z AUTO 22014KT 190V260 9999 SCT018 BKN022 BKN026 06/03 Q1008 WHT 24012KT 9999 FEW015 SCT020 TEMPO SCT011 SCT015CB BKN020",
                "EHEH 191325Z AUTO 22012KT 200V260 9999 FEW015 SCT031 BKN036 06/02 Q1008 BLU 24012KT 9999 FEW015 SCT020 TEMPO SCT011 SCT015CB BKN020",
                "EHEH 191225Z AUTO 22012KT 190V260 9999 SCT013 BKN019 BKN026 04/02 Q1008 GRN 24012KT 9999 FEW015 SCT020 TEMPO SCT011 SCT015CB BKN020",
                "EHEH 190655Z AUTO 26007KT 220V330 9999 FEW007 SCT008 BKN010 03/03 Q1007 GRN 25006KT 9999 FEW016 SCT020 TEMPO SCT006 BKN007 FEW015CB BKN025",
                "EHEH 190625Z AUTO 26006KT 200V300 9000 -RA FEW010 BKN012 BKN015 03/03 Q1006 RERA REDZ GRN 25006KT 9999 FEW016 SCT020 TEMPO FEW010 SCT015CB BKN025",
                "EHEH 190555Z AUTO 25010KT 6000 -RA FEW009 BKN016 BKN038 03/02 Q1006 RERA REDZ WHT 25006KT 9999 FEW016 SCT020 TEMPO FEW010 SCT015CB BKN025",
                "EHEH 182125Z AUTO 24004KT 190V260 9999 -DZ FEW013 OVC024 03/02 Q1002 REDZ WHT 24004KT 9999 SCT025 BKN035 TEMPO 4500 -SHRAGS FEW010 SCT015CB BKN030",
                "EHEH 182055Z AUTO 20005KT 9999 FEW033 BKN037 OVC043 02/02 Q1002 BLU 24004KT 9999 SCT025 BKN035 TEMPO 4500 -SHRAGS FEW010 SCT015CB BKN030",
                "EHEH 182025Z AUTO 19004KT 9999 BKN051 OVC057 02/01 Q1002 BLU 24004KT 9999 SCT025 BKN035 TEMPO 4500 -SHRAGS FEW010 SCT015CB BKN030",
                "COR EHEH 181955Z AUTO VRB02KT 9999 FEW058 OVC120 02/01 Q1002 BLU 24004KT 9999 SCT025 BKN035 TEMPO 4500 -SHRAGS FEW010 SCT015CB BKN030",
                "EHEH 181925Z AUTO 17005KT 120V200 9999 SCT058 01/01 Q1002 BLU 27008KT 9999 SCT025 BKN035 TEMPO 4500 -SHRAGS FEW010 SCT015CB BKN030",
                "EHEH 181825Z AUTO VRB02KT 9999 FEW015CB BKN130 02/01 Q1002 BLU 27008KT 9999 SCT025 BKN035 TEMPO 4500 -SHRAGS FEW010 SCT015CB BKN030",
                "EHEH 181755Z AUTO 24006KT 200V280 9999 FEW015CB OVC140 03/02 Q1001 BLU 27008KT 9999 SCT025 BKN035 TEMPO 4500 -SHRAGS FEW010 SCT015CB BKN030",
                "EHEH 181725Z AUTO 27005KT 230V310 9999 FEW020 SCT025 BKN032 04/02 Q1002 REDZ BLU 27008KT 9999 SCT025 BKN035 TEMPO 4500 -SHRAGS FEW010 SCT015CB BKN030",
                "EHEH 181655Z AUTO 26007KT 230V300 9999 FEW015CB SCT026 BKN036 04/02 Q1002 REDZ BLU 27008KT 9999 SCT025 BKN035 TEMPO 4500 -SHRAGS FEW010 SCT015CB BKN030",
                "EHEH 181625Z AUTO 27008KT 230V320 9999 FEW015CB BKN024 OVC029 06/02 Q1002 WHT 27008KT 9999 SCT025 BKN035 TEMPO 4500 -SHRAGS FEW010 SCT015CB BKN030",
                "EHEH 181555Z AUTO 27009KT 230V310 9999 FEW024 OVC042 06/02 Q1001 BLU 27012G23KT 9999 SCT025 BKN035 TEMPO 4500 -SHRAGS FEW010 SCT015CB BKN030",
                "EHEH 181355Z AUTO 27017G27KT 230V320 9999 FEW023 BKN026 OVC031 06/01 Q1000 BLU 27018G28KT 9999 SCT020 BKN025 TEMPO SCT015CB BKN020",
                "EHEH 180625Z AUTO 22023G34KT 190V260 9999 -RA FEW001 SCT012 BKN017 08/07 Q0989 RERA REDZ GRN 21025G35KT 9999 SCT008 BKN010 BKN015 BECMG 23028G42KT",
                "EHEH 180555Z AUTO 23021G31KT 190V250 9999 -RADZ FEW001 BKN010 BKN013 08/06 Q0990 GRN 21025G35KT 9999 SCT008 BKN010 BKN015 BECMG 23028G42KT",
                "EHEH 180525Z AUTO 21024KT 9999 FEW009 SCT011 BKN016 07/05 Q0990 GRN 21025G35KT 9999 SCT008 BKN010 BKN015 BECMG 23025G42KT SCT020 BKN030",
                "EHEH 172055Z AUTO 23012KT 200V260 9999 FEW033 BKN057 OVC190 04/01 Q1007 BLU 23012KT 9999 FEW025 SCT035 BKN045 TEMPO SCT012 SCT015CB",
                "EHEH 172025Z AUTO 24011KT 190V260 9999 FEW034 SCT039 BKN045 04/01 Q1007 BLU 23012KT 9999 FEW025 SCT035 BKN045 TEMPO SCT012 SCT015CB",
                "EHEH 171955Z AUTO 23011KT 200V270 9999 FEW015CB SCT039 BKN061 05/01 Q1007 REDZ BLU 23012KT 9999 FEW025 SCT035 BKN045 TEMPO SCT012 SCT015CB",
                "EHEH 171925Z AUTO 23009KT 200V260 9999 FEW015CB SCT036 BKN058 04/01 Q1007 BLU 24013KT 9999 FEW025 SCT035 BKN045 TEMPO SCT012 SCT015CB",
                "EHEH 171855Z AUTO 24012KT 220V280 9999 -RA FEW016 SCT043 BKN048 05/01 Q1007 BLU 24013KT 9999 FEW025 SCT035 BKN045 TEMPO SCT012 SCT015CB",
                "EHEH 171625Z AUTO 26012KT 210V290 9999 SCT039 BKN044 BKN049 05/00 Q1006 BLU 25012KT 9999 FEW025 SCT035 BKN045 TEMPO SCT008 SCT015CB BKN020",
                "EHEH 171555Z AUTO 26014KT 210V310 9999 FEW034 SCT050 BKN057 05/00 Q1006 BLU 27012G25KT 9999 FEW025 SCT035 BKN045 TEMPO 28018G32KT 4000 SHRAGS SCT008 SCT015CB BKN020",
                "EHEH 171525Z AUTO 27014G25KT 230V310 9999 FEW033 SCT039 BKN045 06/00 Q1005 BLU 27012G25KT 9999 FEW025 SCT035 BKN045 TEMPO 28018G32KT 4000 SHRAGS SCT008 SCT015CB BKN020",
                "EHEH 171455Z AUTO 27017G27KT 230V320 9999 FEW027 SCT032 BKN036 06/00 Q1005 BLU 27012G25KT 9999 FEW025 SCT035 BKN045 TEMPO 28018G32KT 4000 SHRAGS SCT008 SCT015CB BKN020",
                "EHEH 171425Z AUTO 27016KT 200V310 9999 FEW032 SCT037 BKN042 06/00 Q1004 BLU 27012G25KT 9999 FEW025 SCT035 BKN045 TEMPO 28018G32KT 4000 SHRAGS SCT008 SCT015CB BKN020",
                "EHEH 171355Z AUTO 27017G27KT 230V320 9999 SCT032 BKN037 BKN041 06/M00 Q1003 BLU 27012KT 9999 FEW025 SCT050 TEMPO 28018G32KT 4000 SHRAGS SCT008 SCT015CB BKN020",
                "EHEH 171255Z AUTO 27017G29KT 220V320 9999 FEW021CB SCT029 BKN040 06/00 Q1002 BLU 27012KT 9999 FEW025 SCT050 TEMPO 28018G32KT 4000 SHRAGS SCT008 SCT015CB BKN020",
                "EHEH 171225Z AUTO 26015G25KT 210V310 9999 SCT026 BKN029 BKN034 05/01 Q1002 BLU 27012KT 9999 FEW025 SCT050 TEMPO 28015G25KT 4000 SHRAGS SCT008 SCT015CB BKN020",
                "EHEH 171155Z AUTO 24014KT 210V280 9999 SCT025 BKN029 OVC034 05/02 Q1001 BLU 27012KT 9999 FEW025 SCT050 TEMPO 28015G25KT 4000 SHRAGS SCT008 SCT015CB BKN020",
                "COR EHEH 171125Z AUTO 24014KT 210V270 9999 FEW023 SCT035 BKN047 04/02 Q1001 BLU 27012KT 9999 FEW025 SCT050 TEMPO 28015G25KT 4000 SHRAGS SCT008 SCT015CB BKN020",
                "EHEH 170955Z AUTO 25013KT 9999 SCT025 SCT033 BKN040 03/01 Q1000 BLU 27012KT 9999 FEW025 SCT050 TEMPO 28015G25KT 4000 SHRAGS SCT008 SCT015CB BKN020",
                "EHEH 170925Z AUTO 24010KT 200V290 9999 FEW019 SCT034 03/01 Q1000 REDZ BLU 27012KT 9999 FEW025 SCT050 TEMPO 28015G25KT 2000 SHRASNGS SCT008 SCT015CB BKN020",
                "EHEH 170855Z AUTO 25009KT 220V280 9999 FEW015CB SCT038 BKN048 02/00 Q0999 BLU 27012KT 9999 FEW025 SCT050 TEMPO 28015G25KT 2000 SHRASNGS SCT008 SCT015CB BKN020",
                "EHEH 170755Z AUTO 25011KT 220V300 9999 FEW015CB BKN033 02/M01 Q0998 REDZ BLU 27012KT 9999 FEW025 SCT050 TEMPO 28015G25KT 2000 SHRASNGS SCT010 SCT015CB BKN020",
                "EHEH 170725Z AUTO 25012KT 210V280 9999 -DZRA FEW006 SCT019 BKN024 02/M01 Q0998 WHT 27012KT 9999 FEW025 SCT050 TEMPO 28015G25KT 2000 SHRASNGS SCT010 SCT015CB BKN020",
                "EHEH 170655Z AUTO 25010KT 220V280 9999 FEW015CB 02/M01 Q0997 BLU 27012KT 9999 FEW025 SCT050 TEMPO 28015G25KT 4000 SHRASNGS SCT010 SCT015CB BKN020",
                "EHEH 170625Z AUTO 25011KT 220V280 9999 FEW028 BKN032 BKN038 02/M00 Q0996 BLU 27012KT 9999 FEW025 SCT050 TEMPO 28015G25KT 4000 SHRASNGS SCT010 SCT015CB BKN020",
                "EHEH 170555Z AUTO 24008KT 9999 BKN030 BKN034 OVC041 02/M00 Q0996 BLU 27012KT 9999 FEW025 SCT050 TEMPO 28015G25KT 4000 SHRASNGS SCT010 SCT015CB BKN020",
                "COR EHEH 170525Z AUTO 24009KT 210V270 9999 FEW033 SCT040 BKN057 02/M00 Q0995 BLU 27012KT 9999 FEW025 SCT050 TEMPO 28015G25KT 4000 SHRASNGS SCT010 SCT015CB BKN020",
                "EHEH 161725Z AUTO 25011KT 220V280 9999 SCT150 03/00 Q0994 BLU 24011KT 9999 SCT020 BKN040 TEMPO 26015G27KT 3000 SHRASN SCT008 SCT015CB BKN020",
                "EHEH 161625Z AUTO 24008KT 9999 FEW046 03/00 Q0994 REDZ BLU 27015KT 9999 SCT020 BKN040 TEMPO 28015G27KT 3000 SHRASN SCT008 SCT015CB BKN020",
                "EHEH 161455Z AUTO 25013KT 210V280 9999 FEW015CB SCT027 BKN038 04/01 Q0994 BLU 27012KT 9999 SCT020 BKN040 TEMPO 28015G28KT 4000 SHRA SCT010 SCT015CB BKN020",
                "EHEH 161425Z AUTO 25013KT 220V290 9999 FEW018CB SCT028 BKN100 05/01 Q0994 BLU 27012KT 9999 SCT020 BKN040 TEMPO 28015G28KT 4000 SHRA SCT010 SCT015CB BKN020",
                "EHEH 161355Z AUTO 26011KT 220V300 9999 FEW031 SCT057 06/01 Q0994 BLU 27012KT 9999 SCT020 BKN040 TEMPO 28015G28KT 4000 SHRA SCT010 SCT015CB BKN020",
                "EHEH 161325Z AUTO 27012KT 210V300 9999 FEW029 SCT034 BKN042 06/01 Q0994 BLU 27012KT 9999 SCT020 BKN040 TEMPO 28015G28KT 4000 SHRA SCT010 SCT015CB BKN020",
                "COR EHEH 161255Z AUTO 28014G25KT 230V320 9999 FEW017 05/01 Q0994 BLU 27012KT 9999 SCT020 BKN040 TEMPO 28015G28KT 4000 SHRA SCT010 SCT015CB BKN020",
                "EHEH 161225Z AUTO 26010KT 200V300 9999 FEW015CB SCT031 BKN110 05/02 Q0994 BLU 27012KT 9999 SCT020 BKN040 TEMPO 28015G28KT 4000 SHRA SCT010 SCT015CB BKN020",
                "EHEH 161125Z AUTO 26009KT 220V290 9999 FEW035 SCT053 05/03 Q0994 BLU 27012KT 9999 SCT020 BKN040 TEMPO 28015G28KT 4000 SHRA SCT010 SCT015CB BKN020",
                "EHEH 161055Z AUTO 29009KT 250V360 9999 -RA FEW015CB SCT021 BKN026 05/02 Q0994 WHT 27012KT 9999 SCT020 BKN040 TEMPO 28015G28KT 4000 SHRA SCT010 SCT015CB BKN020",
                "EHEH 161025Z AUTO 30011KT 250V340 9999 FEW015CB SCT016 BKN021 BKN029 04/02 Q0993 WHT 27012KT 9999 SCT020 BKN040 TEMPO 28015G28KT 4000 SHRA SCT010 SCT015CB BKN020",
                "EHEH 160755Z AUTO 24016KT 210V270 9999 FEW018 BKN022 BKN026 07/04 Q0991 WHT 23012KT 9999 SCT020 BKN040 TEMPO 25015G25KT 4000 SHRA SCT010 SCT015CB BKN020",
                "EHEH 160725Z AUTO 23015KT 200V260 9999 FEW021 SCT072 OVC100 06/04 Q0990 BLU 23012KT 9999 SCT020 BKN040 TEMPO 25015G25KT 4000 SHRA SCT010 SCT015CB BKN020",
                "EHEH 160655Z AUTO 23016KT 190V260 9999 SCT021 BKN025 BKN080 06/04 Q0991 WHT 23012KT 9999 SCT020 BKN040 TEMPO 25015G25KT 4000 SHRA SCT010 SCT015CB BKN020",
                "EHEH 160625Z AUTO 23013KT 210V270 9999 FEW015CB SCT036 BKN045 BKN148 06/04 Q0991 BLU 23012KT 9999 SCT020 BKN040 TEMPO 25015G25KT 4000 SHRA SCT010 SCT015CB BKN020",
                "EHEH 160555Z AUTO 23011KT 200V260 9999 SCT020 SCT023 BKN031 06/04 Q0991 WHT 23012KT 9999 SCT020 BKN040 TEMPO 25015G25KT 4000 SHRA SCT010 SCT015CB BKN020",
                "EHEH 160525Z AUTO 23012KT 200V270 9999 FEW015CB SCT017 BKN020 OVC024 06/04 Q0991 WHT 23012KT 9999 SCT020 BKN040 TEMPO 25015G25KT 4000 SHRA SCT010 SCT015CB BKN020",
                "EHEH 152155Z AUTO 25011KT 210V290 9999 FEW015CB SCT061 OVC085 07/05 Q0992 BLU 26012KT 9999 FEW020 SCT030 BKN060 TEMPO 26015G25KT FEW010 SCT015CB BKN030",
                "EHEH 151525Z AUTO 19017KT 9999 -DZ FEW015 BKN018 OVC022 06/04 Q0996 WHT 20016G28KT 9999 -RADZ FEW010 BKN015 OVC020 TEMPO 20022G32KT 4000 RADZ SCT008 BKN010 OVC013",
                "EHEH 151355Z AUTO 19015KT 150V210 5000 -RA FEW008 SCT011 BKN015 06/05 Q0999 RERA REDZ GRN 20014G27KT 9999 FEW018 BKN076 BECMG 22021G35KT SCT012 BKN015",
                "EHEH 151325Z AUTO 19017KT 7000 +DZRA FEW014 BKN017 BKN021 06/05 Q1000 WHT 20014G27KT 9999 FEW018 BKN076 BECMG 22021G35KT SCT012 BKN015",
                "EHEH 151255Z AUTO 19016KT 160V220 9999 -RA SCT019 BKN022 OVC028 07/04 Q1001 WHT 20014G27KT 9999 FEW018 BKN076 BECMG 22021G35KT SCT012 BKN015",
                "EHEH 151225Z AUTO 19017KT 160V220 9999 -SHRA SCT019 BKN022 OVC026 06/04 Q1002 WHT 20014G27KT 9999 FEW015 BKN076 BECMG 22021G35KT SCT012 BKN015",
                "EHEH 151155Z AUTO 19017G27KT 150V230 9999 -UP FEW018 BKN022 BKN040 07/04 Q1003 WHT 20014G27KT 9999 FEW015 BKN076 BECMG 22021G35KT SCT012 BKN015",
                "EHEH 130955Z AUTO 11004KT 070V140 3300 R03/P3000U BR FEW005 SCT007 BKN008 06/04 Q1025 YLO 11005KT 3000 BR BKN006 BKN008 BECMG 7000 BKN010",
                "EHEH 130925Z AUTO 12006KT 070V140 2700 R03/2700U BR BKN005 OVC006 05/04 Q1025 YLO 12005KT 3000 BR BKN005 BKN007 BECMG 7000 BKN010",
                "EHEH 130825Z AUTO 12004KT 080V140 1600 R03/1600N BR BKN003 OVC004 05/04 Q1025 YLO 12004KT 2000 BR BKN003 BKN005 TEMPO 0500 FG BKN001",
                "EHEH 130755Z AUTO 11005KT 050V120 1600 R03/1600N BR BKN003 OVC004 05/04 Q1024 YLO 12004KT 2000 BR BKN003 BKN005 TEMPO 0500 FG BKN001",
                "EHEH 130725Z AUTO 10004KT 030V140 1800 R03/1600N BR FEW002 BKN003 OVC004 05/04 Q1024 YLO 12004KT 2000 BR BKN003 BKN005 TEMPO 0500 FG BKN001",
                "EHEH 130625Z AUTO 12005KT 070V150 2400 R03/2300N BR BKN004 OVC005 05/04 Q1025 YLO 12004KT 2000 BR BKN003 BKN005 TEMPO 0500 FG BKN001",
                "EHEH 120755Z AUTO VRB02KT 2000 R21/2400U BR BKN003 OVC004 05/05 Q1026 YLO VRB02KT 3000 BR FEW002 BKN004 BKN055 TEMPO 0800 FG SCT001 BKN002",
                "EHEH 120725Z AUTO VRB01KT 2000 R21/2000N BR BKN003 OVC004 05/05 Q1025 YLO VRB02KT 3000 BR FEW002 BKN004 BKN055 TEMPO 0800 FG SCT001 BKN002",
                "EHEH 120655Z AUTO 27002KT 2100 R21/1800N BR BKN003 OVC004 05/05 Q1025 YLO VRB02KT 3000 BR FEW002 BKN004 BKN055 TEMPO 0800 FG SCT001 BKN002",
                "EHEH 120625Z AUTO 31003KT 270V330 2100 R21/1700N BR FEW002 BKN003 OVC005 05/05 Q1025 YLO VRB02KT 3000 BR FEW002 BKN004 BKN055 TEMPO 0800 FG SCT001 BKN002",
                "EHEH 120555Z AUTO VRB01KT 2000 R21/1900N BR BKN002 OVC004 05/05 Q1025 AMB VRB02KT 3000 BR FEW002 BKN004 BKN055 TEMPO 0800 FG SCT001 BKN002",
                "EHEH 120525Z AUTO VRB02KT 2300 BR FEW003 BKN004 OVC056 05/05 Q1025 YLO VRB02KT 3000 BR FEW002 BKN004 BKN055 TEMPO 0800 FG SCT001 BKN002",
                "EHEH 112125Z AUTO 36006KT 310V030 2800 R03/2800D BR OVC003 06/06 Q1023 YLO 02005KT 3000 BR FEW001 BKN003 OVC008 TEMPO 1000 BCFG OVC001",
                "EHEH 112055Z AUTO 35006KT 310V020 2800 R03/2800D BR OVC004 07/06 Q1022 YLO 02005KT 3000 BR FEW001 BKN003 OVC008 TEMPO 1000 BCFG OVC001",
                "EHEH 112025Z AUTO 35004KT 310V020 2800 R03/2800N BR OVC004 07/06 Q1022 YLO 02005KT 3000 BR FEW001 BKN003 OVC008 TEMPO 1000 BCFG OVC001",
                "COR EHEH 111955Z AUTO 35005KT 320V020 3000 R03/3000N BR SCT003 OVC004 07/06 Q1022 YLO 02005KT 3000 BR FEW001 BKN003 OVC008 TEMPO 1000 BCFG OVC001",
                "EHEH 111925Z AUTO 36005KT 330V030 3400 R03/P3000N BR BKN004 OVC005 07/06 Q1021 YLO 02005KT 4000 BR BKN008 OVC040 BECMG 2000 FEW001 BKN003 OVC008",
                "EHEH 111855Z AUTO 35004KT 320V020 3400 R03/P3000N BR SCT010 SCT034 OVC055 07/06 Q1021 YLO 02005KT 4000 BR BKN008 OVC040 BECMG 2000 SCT003 OVC008",
                "EHEH 111825Z AUTO 34002KT 3500 R03/P3000N BR BKN005 OVC053 07/06 Q1021 YLO 02005KT 4000 BR BKN008 OVC040 BECMG 2000 SCT003 OVC008",
                "EHEH 111755Z AUTO 01004KT 290V060 3800 BR FEW006 SCT012 BKN047 07/06 Q1020 GRN 02005KT 4000 BR BKN008 OVC040 BECMG 2000 SCT003 OVC008",
                "EHEH 111725Z AUTO 35003KT 320V040 4600 BR FEW007 BKN010 OVC014 07/06 Q1020 GRN 02005KT 4000 BR BKN008 OVC040 BECMG 2000 SCT003 OVC008",
                "EHEH 111655Z AUTO 35003KT 310V040 4900 BR SCT006 SCT007 OVC012 08/06 Q1020 YLO 02005KT 4000 BR BKN008 OVC040 BECMG 2000 SCT003 OVC008",
                "EHEH 111555Z AUTO 35004KT 280V030 5000 BR FEW008 BKN013 BKN015 08/06 Q1019 GRN 02005KT 7000 BR BKN008 OVC040 BECMG 4000 SCT003 OVC008",
                "EHEH 111525Z AUTO 35003KT 280V040 6000 BR FEW008 SCT035 BKN045 08/06 Q1019 WHT 02005KT 7000 BR BKN008 OVC040 BECMG 4000 SCT003 OVC008",
                "EHEH 101255Z AUTO 20009KT 170V230 9999 BKN011 BKN014 BKN033 08/06 Q1007 GRN 19008KT 9999 BKN015 BKN030 TEMPO -RA FEW007 SCT010 BKN015",
                "EHEH 101125Z AUTO 19007KT 130V220 9999 FEW014 FEW015CB OVC016 08/06 Q1008 WHT 18008KT 9999 FEW015 SCT030 BKN035 TEMPO -RA FEW007 SCT010 BKN015",
                "EHEH 101055Z AUTO 19009KT 160V220 9999 -RADZ FEW015CB OVC017 08/06 Q1008 RERA REDZ WHT 18008KT 9999 FEW015 SCT030 BKN035 TEMPO -RA FEW007 SCT010 BKN015",
                "EHEH 101025Z AUTO 18009KT 140V220 9999 -DZ FEW015CB OVC019 08/06 Q1008 WHT 18008KT 9999 FEW015 SCT030 BKN035 TEMPO -RA FEW007 SCT010 BKN015",
                "EHEH 100855Z AUTO 16008KT 130V190 9999 FEW029 OVC032 07/06 Q1008 BLU 18008KT 9999 SCT015 BKN023 OVC035 TEMPO DZRA FEW007 SCT010 BKN015",
                "COR EHEH 100825Z AUTO 17007KT 140V220 9999 -DZ FEW015CB OVC023 07/06 Q1008 REDZ WHT 18008KT 9999 SCT015 OVC023 TEMPO DZRA FEW007 SCT010 BKN015",
                "EHEH 100755Z AUTO 17007KT 9999 -RA FEW015CB OVC021 07/06 Q1007 WHT 18008KT 9999 BKN015 OVC019 TEMPO 4500 DZRA SCT007 SCT009 BKN012",
                "EHEH 100725Z AUTO 18008KT 130V220 9999 DZ FEW015CB SCT026 BKN030 OVC035 07/06 Q1007 BLU 16006KT 9999 BKN015 OVC019 TEMPO 4500 DZRA SCT009 SCT012 BKN015",
                "EHEH 100655Z AUTO 17006KT 140V210 9999 DZ SCT011 BKN014 FEW015CB BKN017 07/06 Q1007 GRN 16006KT 9999 BKN015 OVC019 TEMPO 4500 DZRA SCT009 SCT012 BKN015",
                "EHEH 100625Z AUTO 16006KT 130V200 6000 BR BKN015 OVC022 07/06 Q1007 WHT 16006KT 9999 BKN015 OVC019 TEMPO 4500 DZRA SCT009 SCT012 BKN015",
                "EHEH 100525Z AUTO 16006KT 130V190 9999 -RA FEW015CB BKN016 OVC020 07/06 Q1007 RERA REDZ WHT 16006KT 9999 BKN015 OVC019 TEMPO DZRA SCT009 SCT012 BKN015",
                "EHEH 062155Z AUTO 03011KT 350V060 9999 SCT009 BKN010 OVC016 05/04 Q1016 GRN 03007KT 7000 FEW010 BKN050 TEMPO 4500 BR SCT008 BKN050",
                "EHEH 062125Z AUTO 03011KT 350V060 9999 FEW009 BKN010 OVC013 05/04 Q1016 GRN 03007KT 7000 FEW010 BKN050 TEMPO 4500 BR SCT008 BKN050",
                "EHEH 062055Z AUTO 04009KT 010V070 8000 BR SCT012 BKN014 OVC017 06/04 Q1015 GRN 03007KT 7000 FEW010 BKN050 TEMPO 4500 BR SCT008 BKN050",
                "EHEH 061925Z AUTO 03009KT 360V060 8000 BR FEW010 BKN012 OVC014 06/04 Q1014 GRN 03007KT 7000 FEW010 BKN050 TEMPO 4500 BR SCT008 BKN050",
                "EHEH 061855Z AUTO 04009KT 350V060 8000 BR SCT010 BKN013 OVC015 06/05 Q1013 GRN 03007KT 7000 FEW010 BKN050 TEMPO 4500 BR SCT008 BKN050",
                "EHEH 061825Z AUTO 03008KT 360V060 7000 BR FEW007 SCT008 BKN010 06/05 Q1013 GRN 03007KT 7000 FEW010 BKN050 TEMPO 4500 BR SCT008 BKN050",
                "EHEH 061255Z AUTO 34004KT 310V010 9000 -RADZ SCT027 OVC030 06/04 Q1008 RERA REDZ BLU 03003KT 9999 -DZRA FEW005 SCT020 OV030",
                "EHEH 051625Z AUTO 20011KT 170V230 9999 SCT015CB SCT025 OVC030 09/06 Q0996 WHT 20010KT 9999 FEW017 BKN150 TEMPO 4000 SHRA SCT015 SCT018CB BKN022",
                "EHEH 051555Z AUTO 19007KT 9999 -RADZ FEW015CB BKN052 BKN057 09/06 Q0996 RERA REDZ BLU 20010KT 9999 FEW017 BKN150 TEMPO 4000 SHRA SCT015 SCT018CB BKN022",
                "EHEH 041455Z AUTO 24013KT 200V270 9999 FEW007 SCT016 BKN027 11/10 Q0990 REDZ WHT 24012KT 2500 DZRA SCT004 BKN005 BKN007 BECMG 25018G30KT 9999 SCT015 BKN025",
                "COR EHEH 041425Z AUTO 23011KT 200V260 2800 R21/P3000N -RADZ FEW005 BKN006 BKN007 10/10 Q0990 YLO 22011KT 9999 SCT008 BKN010 TEMPO 2500 DZRA SCT004 BKN005 BKN007",
                "EHEH 041325Z AUTO 20010KT 160V230 4100 -DZ FEW004 SCT005 BKN007 09/08 Q0991 YLO 17008KT 9999 SCT008 BKN010 TEMPO 3000 DZRA SCT004 BKN005 BKN007",
                "EHEH 041255Z AUTO 18008KT 150V210 5000 DZ FEW004 BKN005 OVC007 08/08 Q0991 YLO 17008KT 9999 SCT008 BKN010 TEMPO 3000 DZRA SCT004 BKN005 BKN007",
                "EHEH 041225Z AUTO 17008KT 140V220 5000 DZ SCT004 OVC005 08/08 Q0992 YLO 17008KT 9999 SCT008 BKN010 TEMPO 3000 DZRA SCT004 BKN005 BKN007",
                "EHEH 041155Z AUTO 16007KT 130V200 9999 SCT004 OVC006 08/08 Q0993 REDZ YLO 19008KT 9999 SCT008 BKN010 TEMPO 3000 DZRA SCT004 BKN005 BKN007",
                "EHEH 041125Z AUTO 17006KT 130V200 6000 -DZRA FEW004 BKN006 OVC007 08/07 Q0994 REDZ YLO 19008KT 9999 SCT010 BKN015 TEMPO 3000 DZRA SCT005 BKN007",
                "EHEH 041055Z AUTO 19007KT 140V230 9999 FEW006 BKN007 BKN009 08/07 Q0995 GRN 19008KT 9999 SCT010 BKN015 TEMPO 4000 DZRA SCT005 BKN007",
                "EHEH 041025Z AUTO 19007KT 150V210 9999 FEW007 SCT008 BKN009 08/07 Q0995 GRN 19008KT 9999 SCT010 BKN015 TEMPO 4000 DZRA SCT005 BKN008",
                "EHEH 040955Z AUTO 19007KT 160V220 9999 FEW011 BKN049 OVC054 08/06 Q0996 BLU 19008KT 9999 FEW010 BKN015 BKN030 TEMPO 4000 DZRA SCT005 BKN008",
                "EHEH 040925Z AUTO 20007KT 9999 SCT010 BKN012 BKN039 07/06 Q0996 GRN 19008KT 9999 FEW010 BKN015 BKN030 TEMPO 4000 DZRA SCT005 BKN008",
                "EHEH 031925Z AUTO 25016KT 220V300 9000 -RA FEW025 SCT030 BKN034 08/05 Q0999 RERA REDZ BLU 26018G30KT 9999 BKN040 TEMPO SHRA FEW010 SCT015CB BKN020",
                "COR EHEH 031855Z AUTO 25017KT 210V290 9999 -DZ FEW028 SCT069 OVC110 08/05 Q0998 RERA REDZ BLU 26018G30KT 9999 BKN040 TEMPO SHRA FEW010 SCT015CB BKN020",
                "EHEH 031625Z AUTO 26019G33KT 220V300 9999 -RA FEW020CB SCT034 BKN038 09/04 Q0997 RERA REDZ BLU 26023G40KT 9999 BKN030 TEMPO 27030G45KT FEW015 SCT020CB BKN025",
                "EHEH 031555Z AUTO 26023G36KT 230V290 6000 +DZ FEW026 BKN031 BKN036 08/04 Q0997 WHT 26023G40KT 9999 BKN030 TEMPO 27030G45KT FEW015 SCT020CB BKN025",
                "EHEH 031525Z AUTO 26023G34KT 210V290 9999 SCT032 BKN037 BKN042 09/03 Q0996 BLU 26023G40KT 9999 BKN030 TEMPO 27030G45KT FEW015 SCT020CB BKN025",
                "EHEH 031455Z AUTO 26027G42KT 220V310 9999 SCT033 BKN038 BKN043 10/03 Q0995 BLU 26023G40KT 9999 BKN030 TEMPO 27030G45KT FEW015 SCT020CB BKN025",
                "EHEH 031425Z AUTO 26025G40KT 220V320 9999 FEW032 SCT037 BKN041 09/03 Q0995 BLU 25022G35KT 9999 SCT025 BKN040 TEMPO 27030G45KT FEW015 SCT020CB BKN025",
                "EHEH 031355Z AUTO 26026G42KT 220V300 9999 BKN032 OVC037 09/03 Q0994 BLU 25022G35KT 9999 SCT025 BKN040 TEMPO 27030G45KT FEW015 SCT020CB BKN025",
                "EHEH 031325Z AUTO 26025G43KT 200V310 9999 FEW029 SCT033 BKN038 09/03 Q0993 BLU 25022G35KT 9999 SCT025 BKN040 TEMPO 27030G45KT FEW015 SCT020CB BKN025",
                "COR EHEH 031255Z AUTO 26025G40KT 220V320 9999 FEW030 OVC034 09/03 Q0993 BLU 25022G35KT 9999 SCT025 BKN040 TEMPO 27030G45KT FEW015 SCT020CB BKN025",
                "EHEH 031225Z AUTO 26027G40KT 220V310 9999 BKN031 OVC035 09/03 Q0992 REDZ BLU 25022G35KT 9999 SCT025 BKN040 TEMPO 27030G45KT FEW015 SCT020CB BKN025",
                "EHEH 031155Z AUTO 26027G40KT 220V310 9999 DZ FEW031 BKN038 OVC042 08/03 Q0991 BLU 25022G35KT 9999 SCT025 BKN040 TEMPO 27030G45KT FEW015 SCT020CB BKN025",
                "EHEH 031125Z AUTO 25028G42KT 220V300 9999 -DZ SCT031 OVC042 08/03 Q0991 REDZ BLU 25022G35KT 9999 SCT020 BKN030 TEMPO 27025G45KT 4000 -SHRA SCT012 SCT015CB BKN025",
                "EHEH 031055Z AUTO 25025G38KT 200V320 8000 DZ SCT025 BKN028 OVC033 08/04 Q0991 BLU 25022G35KT 9999 SCT020 BKN030 TEMPO 27025G45KT 4000 -SHRA SCT012 SCT015CB BKN025",
                "EHEH 031025Z AUTO 25027G42KT 210V300 9999 -RADZ FEW025 BKN031 OVC035 08/03 Q0990 BLU 25020G35KT 9999 SCT020 BKN030 TEMPO 27025G45KT 4000 -SHRA SCT012 SCT015CB BKN025",
                "EHEH 030955Z AUTO 25024G36KT 210V300 9999 -UP FEW029 BKN034 OVC039 09/02 Q0990 BLU 25020G35KT 9999 SCT020 BKN030 TEMPO 27025G45KT 3000 SHRA SCT012 SCT015CB BKN025",
                "EHEH 030925Z AUTO 25023G35KT 200V300 9999 SCT030 BKN035 OVC040 08/03 Q0989 BLU 25020G35KT 9999 SCT020 BKN030 TEMPO 27025G45KT 3000 SHRA SCT012 SCT015CB BKN025",
                "EHEH 030855Z AUTO 25021G36KT 220V320 9999 FEW028 BKN044 OVC050 08/03 Q0989 REDZ BLU 25020G35KT 9999 SCT020 BKN030 TEMPO 27025G45KT 3000 SHRA SCT012 SCT015CB BKN025",
                "EHEH 030825Z AUTO 27022G40KT 200V300 9999 FEW059 SCT140 08/02 Q0988 BLU 25020G35KT 9999 SCT020 BKN030 TEMPO 27025G45KT 3000 SHRA SCT012 SCT015CB BKN025",
                "EHEH 030755Z AUTO 26020KT 220V290 9999 SCT033 BKN039 BKN044 09/03 Q0987 BLU 25020G35KT 9999 SCT020 BKN030 TEMPO 27025G45KT 3000 SHRA SCT012 SCT015CB BKN025",
                "EHEH 030725Z AUTO 26015G25KT 220V310 9999 BKN033 OVC038 08/03 Q0987 BLU 25020G35KT 9999 SCT020 BKN030 TEMPO 27025G45KT 3000 SHRA SCT012 SCT015CB BKN025",
                "EHEH 030655Z AUTO 26020G32KT 220V300 9999 OVC140 08/03 Q0987 RETS BLU 25020G35KT 9999 SCT020 BKN030 TEMPO 27025G45KT 3000 SHRA SCT012 SCT015CB BKN025",
                "EHEH 030555Z AUTO 25021G37KT 220V310 9999 SCT036 BKN043 OVC048 10/04 Q0986 BLU 25018G32KT 9999 SCT020 BKN030 TEMPO 27025G45KT SCT015 SCT020CB BKN025",
                "EHEH 022155Z AUTO 20013KT 160V230 9999 DZ SCT005 OVC006 08/07 Q1000 YLO 19013KT 9999 SCT007 BKN008 OVC010 TEMPO 19015G25KT 3000 RADZ BKN005 BKN007 OVC009",
                "EHEH 022125Z AUTO 20013KT 170V230 9999 -DZ BKN006 BKN008 OVC009 08/07 Q1001 REDZ YLO 19013KT 9999 SCT007 BKN008 OVC010 TEMPO 19015G25KT 3000 RADZ SCT005 BKN007 OVC009",
                "EHEH 022055Z AUTO 20016KT 170V230 9999 DZ FEW006 BKN007 OVC009 07/06 Q1002 GRN 19013KT 9999 SCT007 BKN008 OVC010 TEMPO 19015G25KT 3000 RADZ SCT005 BKN007 OVC009",
                "EHEH 022025Z AUTO 19013KT 160V230 9999 SCT007 BKN008 OVC009 07/06 Q1003 GRN 19013KT 9999 SCT007 BKN008 OVC010 TEMPO 19015G25KT 3000 RADZ SCT005 BKN007 OVC009",
                "EHEH 021925Z AUTO 18013KT 150V210 4800 DZRA FEW005 BKN006 BKN008 06/05 Q1004 YLO 18015G25KT 6000 -RADZ SCT012 BKN015 OVC020 TEMPO 3000 RADZ SCT005 BKN007 OVC010",
                "EHEH 021855Z AUTO 18013KT 130V210 5000 DZ SCT006 SCT007 BKN009 06/05 Q1005 YLO 18015G25KT 6000 -RADZ SCT012 BKN015 OVC020 TEMPO 3000 RADZ SCT005 BKN007 OVC010",
                "EHEH 021825Z AUTO 17014KT 150V220 6000 DZ FEW008 SCT013 BKN021 06/05 Q1005 GRN 19010KT 9999 FEW012 SCT020 BKN045 TEMPO 4500 -RADZ SCT012 BKN015 OVC030",
                "EHEH 021755Z AUTO 18011KT 160V230 9999 -RADZ FEW023 OVC032 06/04 Q1006 BLU 19010KT 9999 FEW012 SCT020 BKN045 TEMPO 4500 -RADZ SCT012 BKN015 OVC030",
                "EHEH 021725Z AUTO 19010KT 160V220 9999 -DZ FEW041 SCT052 OVC059 07/05 Q1007 REDZ BLU 19010KT 9999 FEW012 SCT020 BKN045 TEMPO 4500 -RADZ SCT012 BKN015 OVC030",
                "COR EHEH 012155Z AUTO 25007KT 220V290 9999 -DZ FEW027 SCT031 BKN046 05/04 Q1001 REDZ BLU 27010KT 9999 RADZ FEW015 SCT018 BKN025 BECMG SCT020 BKN040",
                "COR EHEH 012125Z AUTO 27006KT 240V300 9999 DZ FEW021 BKN026 BKN031 05/05 Q1000 BLU 27010KT 9999 RADZ FEW015 SCT018 BKN025 BECMG SCT020 BKN040",
                "EHEH 012055Z AUTO 28007KT 230V320 9999 DZ FEW007 SCT021 BKN032 05/04 Q0999 WHT 28007KT 9999 -RA FEW013 SCT016 BKN020 TEMPO SCT005 BKN010 BKN014",
                "EHEH 012025Z AUTO 29006KT 250V330 9999 -RA BKN017 OVC021 05/04 Q0999 RERA REDZ WHT 30005KT 9999 -RA FEW013 SCT016 BKN020 TEMPO 32010KT DZ FEW003 SCT004 BKN007",
                "EHEH 011955Z AUTO 32010KT 240V360 9999 -RADZ FEW007 SCT009 BKN016 05/04 Q0998 GRN 30005KT 9999 -RA FEW013 SCT016 BKN020 TEMPO 32010KT DZ FEW003 SCT004 BKN007",
                "COR EHEH 011925Z AUTO 30003KT 270V360 9999 DZ FEW004 SCT007 BKN008 05/05 Q0997 GRN 30005KT 9999 -RA FEW013 SCT016 BKN020 TEMPO DZ FEW003 SCT005 BKN008",
                "EHEH 311525Z AUTO 29015KT 240V340 2900 R21/P3000D SHRA FEW007 SCT013 FEW015CB BKN020 04/03 Q1001 REDZ YLO 23017G27KT 9999 FEW006 SCT012 BKN020 TEMPO 29020G35KT 2500 SHRA TSRA SCT005 BKN008 SCT015CB",
                "EHEH 311325Z AUTO 24017KT 200V270 9999 -RADZ FEW024 SCT028 BKN035 07/05 Q1003 BLU 23017G27KT 8000 -RA FEW006 SCT012 OVC020 TEMPO 24020G32KT 2500 SHRA TSRA SCT005 BKN008 SCT015CB",
                "EHEH 311255Z AUTO 24018G28KT 200V280 9999 +DZ FEW015 SCT020 BKN038 08/06 Q1003 WHT 23017G27KT 8000 -RA FEW006 SCT012 OVC020 TEMPO 24020G32 2500 SHRA TSRA SCT005 BKN008 SCT015CB",
                "EHEH 311225Z AUTO 23018KT 210V270 9999 -RA FEW016 SCT021 BKN026 08/07 Q1003 RERA REDZ WHT 23017G27KT 8000 -RA FEW006 SCT012 OVC020 TEMPO 24020G32 2500 SHRA TSRA SCT005 BKN008 SCT015CB",
                "EHEH 311155Z AUTO 23019KT 200V270 9999 -RA FEW021 SCT024 BKN029 08/07 Q1004 RERA REDZ WHT 23017G27KT 8000 -RA FEW006 SCT012 OVC020 TEMPO 24020G32 2500 SHRA TSRA SCT005 BKN008 SCT015CB",
                "COR EHEH 311125Z AUTO 24017KT 200V280 6000 SHRA FEW011 FEW015CB BKN016 BKN021 08/07 Q1004 REUP WHT 23017G27KT 6000 -DZRA FEW006 SCT009 OVC013 TEMPO 24020G32 2500 RA SHRA SCT005 BKN008 SCT015CB",
                "EHEH 311055Z AUTO 26010KT 220V330 2700 R21/3000D +RA FEW004 BKN005 BKN007 FEW015CB 09/08 Q1005 YLO 23017G27KT 6000 -DZRA FEW006 SCT009 OVC013 TEMPO 24020G32 2500 RA SHRA SCT005 BKN008 SCT015CB",
                "EHEH 311025Z AUTO 26010KT 210V290 3300 R21/P3000D RA FEW004 BKN005 OVC006 09/08 Q1005 RERA REDZ YLO 23017G27KT 6000 -DZRA FEW006 SCT009 OVC013 TEMPO 24020G32 2500 RA SHRA SCT007 BKN010 SCT015CB",
                "EHEH 310955Z AUTO 22018KT 200V270 8000 -RA FEW007 SCT009 BKN010 09/08 Q1006 RERA REDZ GRN 23017G27KT 6000 -DZRA FEW006 SCT009 OVC013 TEMPO 24020G32 4000 RA SHRA SCT007 BKN010 SCT015CB",
                "COR EHEH 310925Z AUTO 22018G28KT 180V260 5000 -SHRA FEW007 SCT009 BKN010 09/08 Q1006 GRN 23017G27KT 6000 -DZRA FEW006 SCT009 OVC013 TEMPO 24020G32 4000 RA SHRA SCT007 BKN010 SCT015CB",
                "EHEH 310825Z AUTO 21016KT 190V260 3200 R21/P3000N -RADZ FEW007 SCT008 BKN010 09/08 Q1007 YLO 23017G27KT 6000 -DZRA FEW006 SCT009 OVC013 TEMPO 2500 DZRA BKN005 OVC008",
                "EHEH 310655Z AUTO 22017KT 190V260 3200 R21/P3000N -RADZ FEW008 SCT010 BKN012 09/08 Q1008 YLO 23017G27KT 6000 -DZRA FEW006 SCT009 OVC013 TEMPO 2500 DZRA BKN005 OVC008",
                "EHEH 291755Z AUTO 29015G27KT 250V340 4500 +DZ FEW006 SCT007 BKN008 FEW015CB 10/09 Q1023 GRN 25015G25KT 9999 SCT015 BKN020 TEMPO 31018G30KT 3000 -RADZ FEW005 SCT007 BKN010",
                "EHEH 291725Z AUTO 25014KT 220V300 4300 -RADZ FEW005 SCT006 BKN008 10/09 Q1022 RERA REDZ YLO 25015G25KT 9999 SCT015 BKN020 TEMPO 27018G30KT 3000 -RADZ FEW005 SCT007 BKN010",
                "EHEH 291655Z AUTO 24014KT 210V270 3000 R21/P3000D +DZ FEW006 SCT007 BKN009 09/09 Q1022 YLO 25015G25KT 9999 SCT015 BKN020 TEMPO 27018G30KT 3000 -RADZ FEW005 SCT007 BKN010",
                "EHEH 291525Z AUTO 23015KT 210V270 3300 R21/P3000N DZ FEW012 BKN015 OVC019 09/08 Q1022 YLO 25015G25KT 9999 SCT015 BKN020 TEMPO 27018G30KT 3000 -RADZ FEW005 SCT007 BKN010",
                "EHEH 171325Z AUTO 29015G26KT 240V350 9999 -SHRA FEW023 SCT028 BKN031 04/01 Q1003 RERA BLU 27012KT 9999 FEW025 SCT050 TEMPO 28018G32KT 4000 SHRAGS SCT008 SCT015CB BKN020",
                "EHEH 171055Z AUTO 25013KT 220V290 9999 -RA FEW014 BKN022 OVC026 04/01 Q1001 RERA REDZ WHT 27012KT 9999 FEW025 SCT050 TEMPO 28015G25KT 4000 SHRAGS SCT008 SCT015CB BKN020",
                "EHEH 171025Z AUTO 25014KT 210V290 9999 -RA FEW008 SCT023 BKN027 04/01 Q1001 RERA REDZ WHT 27012KT 9999 FEW025 SCT050 TEMPO 28015G25KT 4000 SHRAGS SCT008 SCT015CB BKN020",
                "EHEH 170825Z AUTO 25012KT 210V280 9999 -RADZ FEW006 FEW015CB SCT016 BKN024 02/M00 Q0999 WHT 27012KT 9999 FEW025 SCT050 TEMPO 28015G25KT 2000 SHRASNGS SCT010 SCT015CB BKN020",
                "EHEH 161655Z AUTO 24015KT 200V280 6000 -RA FEW015CB SCT021 BKN030 04/01 Q0994 RERA REDZ WHT 24011KT 9999 SCT020 BKN040 TEMPO 26015G27KT 3000 SHRASN SCT008 SCT015CB BKN020",
                "EHEH 161555Z AUTO 27012G26KT 230V340 9999 -RA FEW015CB SCT032 BKN043 04/00 Q0994 RERA REDZ BLU 27015KT 9999 SCT020 BKN040 TEMPO 28015G27KT 3000 SHRASN SCT008 SCT015CB BKN020",
                "EHEH 161525Z AUTO 26014KT 210V310 9999 -RA FEW015CB SCT032 BKN045 04/01 Q0994 RERA REDZ BLU 27012KT 9999 SCT020 BKN040 TEMPO 28015G28KT 4000 SHRA SCT010 SCT015CB BKN020",
                "EHEH 161155Z AUTO 27012KT 220V320 9999 -SHRA FEW001 FEW015CB SCT026 BKN033 05/02 Q0994 RERA BLU 27012KT 9999 SCT020 BKN040 TEMPO 28015G28KT 4000 SHRA SCT010 SCT015CB BKN020",
                "EHEH 160955Z AUTO 27011KT 220V320 9999 -RA FEW015CB SCT023 BKN029 05/03 Q0993 RERA WHT 27012KT 9999 SCT020 BKN040 TEMPO 28015G28KT 4000 SHRA SCT010 SCT015CB BKN020",
                "EHEH 160925Z AUTO 28014G25KT 240V320 7000 SHRA SCT015CB SCT027 BKN031 04/02 Q0992 REDZ WHT 23012KT 9999 SCT020 BKN040 TEMPO 25015G28KT 4000 TSGSRA SHRA SCT010 SCT015CB BKN020",
                "EHEH 160855Z AUTO 28014G24KT 230V310 9999 -RADZ SCT015CB SCT025 BKN034 06/02 Q0992 RERA REDZ WHT 23012KT 9999 SCT020 BKN040 TEMPO 25015G28KT 4000 TSRA SHRA SCT010 SCT015CB BKN020",
                "EHEH 160825Z AUTO 24016G27KT 200V280 9999 FEW015CB SCT025 BKN032 07/04 Q0991 REDZ BLU 23012KT 9999 SCT020 BKN040 TEMPO 25015G28KT 4000 SHRA SCT010 SCT015CB BKN020",
                "EHEH 152125Z AUTO 26012KT 220V300 9999 FEW015CB BKN035 BKN039 OVC044 07/06 Q0992 REDZ BLU 26012KT 9999 FEW010 SCT018 BKN030 TEMPO 26015G25KT 4000 RA SHRA SCT010 SCT015CB BKN025",
                "EHEH 152055Z AUTO 25013KT 200V270 8000 -SHRA FEW015CB SCT028 BKN033 07/06 Q0992 RERA BLU 24012KT 9999 FEW010 SCT018 BKN030 TEMPO 27015G25KT 4000 RA SHRA SCT010 SCT015CB BKN025",
                "EHEH 152025Z AUTO 21014KT 180V260 9999 RADZ FEW006 SCT009 BKN012 FEW015CB 07/06 Q0991 GRN 21014KT 9999 -RA FEW010 BKN015 OVC020 TEMPO 21016G26KT 4000 RA -SHRAGS SCT007 BKN012 FEW015CB",
                "EHEH 151955Z AUTO 20016KT 180V240 9999 -RA FEW006 SCT009 FEW015CB BKN016 07/06 Q0991 GRN 20016G26KT 9999 -RA FEW010 BKN015 OVC020 TEMPO 20018G32KT 4000 RA SCT007 BKN010 OVC013",
                "EHEH 151925Z AUTO 21015KT 9999 -RA SCT007 BKN008 OVC009 07/05 Q0991 RERA REDZ GRN 20016G26KT 9999 -RA FEW010 BKN015 OVC020 TEMPO 20018G32KT 4000 RA SCT007 BKN010 OVC013",
                "EHEH 151855Z AUTO 20016KT 170V230 9999 FEW008 SCT011 BKN014 FEW015CB 06/05 Q0992 GRN 20016G26KT 9999 -RA FEW010 BKN015 OVC020 TEMPO 20018G32KT 4000 RA SCT007 BKN010 OVC013",
                "EHEH 151825Z AUTO 20018KT 170V230 9999 -RA FEW009 BKN011 BKN014 FEW015CB 06/05 Q0992 GRN 20016G28KT 9999 -RA FEW010 BKN015 OVC020 TEMPO 20022G35KT 4000 RA SCT008 BKN010 OVC013",
                "EHEH 151755Z AUTO 20016G26KT 170V230 5000 -RA FEW008 SCT009 BKN010 06/04 Q0992 RERA REDZ GRN 20016G28KT 9999 -RADZ FEW010 BKN015 OVC020 TEMPO 20022G35KT 4000 RADZ SCT008 BKN010 OVC013",
                "EHEH 151725Z AUTO 19018KT 150V230 9999 -DZRA FEW011 SCT014 OVC017 06/04 Q0993 GRN 20016G28KT 9999 -RADZ FEW010 BKN015 OVC020 TEMPO 20022G35KT 4000 RADZ SCT008 BKN010 OVC013",
                "EHEH 151655Z AUTO 19019G30KT 150V230 9999 -RA FEW012 BKN016 OVC020 06/04 Q0994 WHT 20016G28KT 9999 -RADZ FEW010 BKN015 OVC020 TEMPO 20022G32KT 4000 RADZ SCT008 BKN010 OVC013",
                "EHEH 151625Z AUTO 19021G32KT 170V230 9999 -SHRA FEW001 BKN015CB OVC020 06/04 Q0995 WHT 20016G28KT 9999 -RADZ FEW010 BKN015 OVC020 TEMPO 20022G32KT 4000 RADZ SCT008 BKN010 OVC013",
                "EHEH 151555Z AUTO 20017KT 160V230 9999 -RA FEW012 BKN015 OVC019 06/04 Q0996 RERA REDZ WHT 20016G28KT 9999 -RADZ FEW010 BKN015 OVC020 TEMPO 20022G32KT 4000 RADZ SCT008 BKN010 OVC013",
                "EHEH 151455Z AUTO 19017KT 160V220 9999 FEW013 BKN016 OVC020 06/05 Q0997 WHT 20016G28KT 8000 -RADZ FEW008 SCT010 OVC015 TEMPO 20022G35KT 4000 RADZ SCT007 BKN010 OVC012",
                "EHEH 151425Z AUTO 19017G27KT 150V220 9000 -RA FEW008 SCT010 BKN012 06/05 Q0998 GRN 20016G28KT 6000 -RADZ FEW008 SCT010 OVC015 TEMPO 20022G35KT 4000 RADZ SCT007 BKN010 OVC012",
                "EHEH 051725Z AUTO 23010KT 200V260 9999 -SHRA FEW002 SCT029 BKN034 07/06 Q0997 RERA REDZ BLU 20010KT 9999 SCT046 BKN150 TEMPO 27012G22KT 4000 SHRA SCT015 SCT018CB BKN022",
                "EHEH 051655Z AUTO 26009KT 220V310 9999 -DZ FEW015CB SCT030 BKN036 OVC042 07/06 Q0997 REDZ BLU 20010KT 9999 SCT046 BKN150 TEMPO 27012G22KT 4000 SHRA SCT015 SCT018CB BKN022",
                "EHEH 030625Z AUTO 27016G37KT 230V330 9999 SHRA FEW000 FEW015CB SCT025 BKN029 08/05 Q0986 BLU 25020G35KT 9999 SCT020 BKN030 TEMPO 27025G45KT 2500 SHRA SCT012 SCT015CB BKN025",
                "EHEH 021955Z AUTO 20012KT 160V230 8000 -RADZ BKN005 BKN007 OVC009 06/05 Q1004 RERA REDZ YLO 18015G25KT 6000 -RADZ SCT012 BKN015 OVC020 TEMPO 3000 RADZ SCT005 BKN007 OVC010"
            };

        public static List<string> EHRDMETARs = new List<string>()
            {
                "EHRD 311555Z AUTO 23010KT 9999 NSC 06/03 Q0999 NOSIG",
                "EHRD 302125Z AUTO 18007KT 9999 SCT035 05/03 Q1020 NOSIG",
                "EHRD 302055Z AUTO 18009KT 9999 NSC 05/02 Q1020 NOSIG",
                "EHRD 302025Z AUTO 17008KT 9999 NSC 04/02 Q1021 NOSIG",
                "EHRD 301955Z AUTO 17005KT 9999 SCT037 04/02 Q1022 NOSIG",
                "EHRD 301925Z AUTO 18005KT 9999 SCT035 02/01 Q1022 NOSIG",
                "EHRD 301855Z AUTO 14003KT 9999 NSC 03/02 Q1022 NOSIG",
                "EHRD 301825Z AUTO 19003KT 9999 NSC 03/02 Q1023 NOSIG",
                "EHRD 301755Z AUTO 19005KT 9999 NSC 04/02 Q1023 NOSIG",
                "EHRD 301655Z AUTO 20004KT 9999 NSC 04/02 Q1024 NOSIG",
                "EHRD 301625Z AUTO 22006KT 9999 NCD 04/01 Q1024 NOSIG",
                "EHRD 301555Z AUTO 23007KT 9999 NSC 05/03 Q1025 NOSIG",
                "EHRD 301455Z AUTO 24009KT 9999 FEW019 06/03 Q1026 NOSIG",
                "EHRD 301425Z AUTO 24009KT 9999 NSC 07/03 Q1026 NOSIG",
                "EHRD 301355Z AUTO 25010KT 9999 NSC 07/03 Q1027 NOSIG",
                "EHRD 301055Z AUTO 24011KT 9999 NSC 06/04 Q1029 NOSIG",
                "EHRD 300955Z AUTO 24010KT 9999 NSC 06/04 Q1029 NOSIG",
                "EHRD 300855Z AUTO 24006KT 9999 NSC 04/03 Q1029 NOSIG",
                "EHRD 300825Z AUTO 23007KT 9999 NSC 03/02 Q1029 NOSIG",
                "EHRD 300755Z AUTO 22007KT 9999 NSC 01/00 Q1029 NOSIG",
                "EHRD 300725Z AUTO 22006KT 9999 NSC 01/00 Q1029 NOSIG",
                "EHRD 300625Z AUTO 24005KT 9999 NSC 02/01 Q1029 NOSIG",
                "EHRD 300555Z AUTO 25005KT 9999 NCD 03/02 Q1029 NOSIG",
                "EHRD 300525Z AUTO 25005KT 9999 NSC 03/02 Q1029 NOSIG",
                "EHRD 300455Z AUTO 25005KT 9999 FEW018 03/02 Q1029 NOSIG",
                "EHRD 300425Z AUTO 23005KT 9999 FEW019 04/03 Q1029 NOSIG",
                "EHRD 300355Z AUTO 25005KT 9999 FEW017 03/02 Q1029 NOSIG",
                "EHRD 300325Z AUTO 25006KT 9999 NSC 04/03 Q1029 NOSIG",
                "EHRD 300225Z AUTO 25006KT 9999 NSC 04/03 Q1029 NOSIG",
                "EHRD 300155Z AUTO 25005KT 9999 NSC 03/02 Q1029 NOSIG",
                "EHRD 300125Z AUTO 25004KT 9999 NCD 02/02 Q1029 NOSIG",
                "EHRD 300055Z AUTO 27004KT 9999 NCD 04/03 Q1029 NOSIG",
                "EHRD 300025Z AUTO 27005KT 9999 NCD 05/03 Q1029 NOSIG",
                "EHRD 292325Z AUTO 26005KT 9999 NCD 05/03 Q1029 NOSIG",
                "EHRD 292225Z AUTO 29007KT 9999 NCD 05/03 Q1028 NOSIG",
                "EHRD 290055Z AUTO 23017KT 9999 OVC016 10/08 Q1027 NOSIG",
                "EHRD 282325Z AUTO 24019KT 9999 OVC011 11/09 Q1028 NOSIG",
                "EHRD 280755Z AUTO 25008KT 9999 NSC 09/07 Q1028 NOSIG",
                "EHRD 270925Z AUTO 19008KT 9999 OVC025 06/02 Q1029 NOSIG",
                "EHRD 270825Z AUTO 20007KT 9999 OVC025 06/03 Q1029 NOSIG",
                "EHRD 270755Z AUTO 20008KT 9999 OVC028 05/03 Q1029 NOSIG",
                "EHRD 270725Z AUTO 19008KT 9999 OVC027 06/03 Q1029 NOSIG",
                "EHRD 270555Z AUTO 21006KT 9999 OVC027 05/03 Q1029 NOSIG",
                "EHRD 270525Z AUTO 19007KT 9999 OVC025 05/03 Q1028 NOSIG",
                "EHRD 262355Z AUTO 24002KT 9999 FEW023 04/03 Q1026 NOSIG",
                "EHRD 262255Z AUTO 25003KT 9000 OVC021 04/03 Q1026 NOSIG",
                "EHRD 261055Z AUTO 20005KT 9000 FEW020 06/05 Q1017 NOSIG",
                "EHRD 260425Z AUTO 20005KT 8000 NSC 05/04 Q1013 NOSIG",
                "EHRD 260255Z AUTO 18007KT 9000 NCD 05/04 Q1012 NOSIG",
                "EHRD 260225Z AUTO 18005KT 9999 NCD 05/04 Q1012 NOSIG",
                "EHRD 260155Z AUTO 18007KT 9999 NSC 06/05 Q1012 NOSIG",
                "EHRD 260055Z AUTO 18007KT 9999 NSC 06/05 Q1012 NOSIG",
                "EHRD 260025Z AUTO 19006KT 9999 NSC 06/05 Q1012 NOSIG",
                "EHRD 252355Z AUTO 19007KT 9999 NSC 06/05 Q1011 NOSIG",
                "EHRD 252325Z AUTO 22010KT 9999 NSC 07/05 Q1011 NOSIG",
                "EHRD 252255Z AUTO 22010KT 9999 NSC 07/05 Q1011 NOSIG",
                "EHRD 252225Z AUTO 23008KT 9999 NSC 07/05 Q1011 NOSIG",
                "EHRD 252155Z AUTO 22010KT 9999 NSC 07/05 Q1011 NOSIG",
                "EHRD 252025Z AUTO 21006KT 9999 NSC 07/05 Q1011 NOSIG",
                "EHRD 251955Z AUTO 19007KT 9999 NSC 07/06 Q1011 NOSIG",
                "EHRD 251425Z AUTO 21014KT 9999 NSC 09/06 Q1009 NOSIG",
                "EHRD 250155Z AUTO 22013KT 9999 NSC 07/05 Q1009 NOSIG",
                "EHRD 250125Z AUTO 22015KT 9999 NSC 08/05 Q1009 NOSIG",
                "EHRD 231125Z AUTO 19016KT 9999 SCT047 09/06 Q1018 NOSIG",
                "EHRD 230825Z AUTO 19009KT 9999 OVC031 07/05 Q1019 NOSIG",
                "EHRD 230755Z AUTO 20010KT 9999 OVC032 07/04 Q1019 NOSIG",
                "EHRD 230555Z AUTO 19007KT 9999 OVC034 06/04 Q1019 NOSIG",
                "EHRD 230525Z AUTO 21007KT 9999 OVC039 05/04 Q1019 NOSIG",
                "EHRD 230455Z AUTO 21007KT 9999 NSC 05/04 Q1019 NOSIG",
                "EHRD 230425Z AUTO 20005KT 9999 NSC 04/03 Q1019 NOSIG",
                "EHRD 230325Z AUTO 21007KT 9999 NSC 05/04 Q1019 NOSIG",
                "EHRD 230255Z AUTO 22007KT 9999 NSC 05/04 Q1019 NOSIG",
                "EHRD 230225Z AUTO 22007KT 9999 FEW049 05/04 Q1019 NOSIG",
                "EHRD 230155Z AUTO 23008KT 9999 SCT047 05/04 Q1019 NOSIG",
                "EHRD 230125Z AUTO 23007KT 9999 NSC 04/03 Q1018 NOSIG",
                "EHRD 230055Z AUTO 25006KT 9999 SCT042 06/03 Q1018 NOSIG",
                "EHRD 211825Z AUTO 17010KT 9999 NSC 04/02 Q1012 NOSIG",
                "EHRD 211655Z AUTO 17008KT 9999 NSC 04/02 Q1013 NOSIG",
                "EHRD 211525Z AUTO 18008KT 9999 NSC 05/02 Q1014 NOSIG",
                "EHRD 211425Z AUTO 20006KT 9999 FEW029 05/02 Q1015 NOSIG",
                "EHRD 211355Z AUTO 23007KT 9999 NSC 06/02 Q1015 NOSIG",
                "EHRD 211225Z AUTO 24008KT 9999 FEW018 06/02 Q1015 NOSIG",
                "EHRD 211055Z AUTO 23005KT 9999 NSC 07/03 Q1015 NOSIG",
                "EHRD 211025Z AUTO 24005KT 9999 NSC 04/02 Q1015 NOSIG",
                "EHRD 210955Z AUTO 25003KT 9999 NSC 03/01 Q1015 NOSIG",
                "EHRD 210925Z AUTO 27004KT 9999 NSC 02/00 Q1015 NOSIG",
                "EHRD 210855Z AUTO 24003KT 9999 NSC 02/M00 Q1014 NOSIG",
                "EHRD 210825Z AUTO 27006KT 9999 NSC 02/M00 Q1014 NOSIG",
                "EHRD 210755Z AUTO 28005KT 9999 NSC 01/M01 Q1014 NOSIG",
                "EHRD 210725Z AUTO 26004KT 9999 NSC M01/M02 Q1013 NOSIG",
                "EHRD 210655Z AUTO 25003KT 9999 NCD 01/M01 Q1013 NOSIG",
                "EHRD 210625Z AUTO 29006KT 9999 NSC 01/M01 Q1012 NOSIG",
                "EHRD 210555Z AUTO 29007KT 9999 NCD 01/M01 Q1012 NOSIG",
                "EHRD 210025Z AUTO 30004KT 9999 NCD 02/01 Q1006 NOSIG",
                "EHRD 201525Z AUTO 17005KT 9999 FEW034 04/02 Q0999 NOSIG",
                "EHRD 200725Z AUTO 19010KT 9999 NSC 02/01 Q1004 NOSIG",
                "EHRD 200625Z AUTO 19010KT 9999 NSC 02/01 Q1005 NOSIG",
                "EHRD 200455Z AUTO 20007KT 9999 NCD 02/01 Q1005 NOSIG",
                "EHRD 200425Z AUTO 19008KT 9999 FEW024 02/00 Q1005 NOSIG",
                "EHRD 200355Z AUTO 22008KT 9999 NCD 03/00 Q1006 NOSIG",
                "EHRD 200325Z AUTO 24009KT 9999 NSC 03/00 Q1006 NOSIG",
                "EHRD 200255Z AUTO 23008KT 9999 FEW025 02/00 Q1006 NOSIG",
                "EHRD 200025Z AUTO 24006KT 9999 NSC 02/M00 Q1007 NOSIG",
                "EHRD 191725Z AUTO 23006KT 9999 FEW022 04/01 Q1007 NOSIG",
                "EHRD 191655Z AUTO 23008KT 9999 FEW025 04/01 Q1007 NOSIG",
                "EHRD 181655Z AUTO 26009KT 9999 NSC 05/02 Q1001 NOSIG",
                "EHRD 142325Z AUTO 21012KT 7000 OVC011 04/02 Q1016 NOSIG",
                "EHRD 142055Z AUTO 15008KT 9000 NCD 03/01 Q1017 NOSIG",
                "EHRD 142025Z AUTO 15008KT 9000 NCD 02/00 Q1017 NOSIG",
                "EHRD 141955Z AUTO 15008KT 9000 NCD 02/00 Q1017 NOSIG",
                "EHRD 141855Z AUTO 14007KT 9999 NCD 03/01 Q1017 NOSIG",
                "EHRD 141755Z AUTO 13006KT 9999 NCD 03/01 Q1018 NOSIG",
                "EHRD 141625Z AUTO 10006KT 9999 NCD 03/01 Q1018 NOSIG",
                "EHRD 141555Z AUTO 11006KT 9999 NCD 04/01 Q1018 NOSIG",
                "EHRD 141525Z AUTO 11006KT 9999 BKN020 05/01 Q1018 NOSIG",
                "EHRD 140655Z AUTO 08008KT 8000 OVC034 03/01 Q1020 NOSIG",
                "EHRD 140525Z AUTO 08009KT 9000 OVC030 04/01 Q1020 NOSIG",
                "EHRD 140455Z AUTO 08009KT 9999 OVC030 04/01 Q1020 NOSIG",
                "EHRD 140355Z AUTO 08009KT 9999 OVC028 04/01 Q1020 NOSIG",
                "EHRD 140255Z AUTO 08008KT 9999 OVC027 04/01 Q1020 NOSIG",
                "EHRD 140225Z AUTO 08007KT 9999 OVC028 04/01 Q1021 NOSIG",
                "EHRD 140155Z AUTO 08008KT 9999 OVC028 04/01 Q1021 NOSIG",
                "EHRD 140125Z AUTO 08008KT 9999 OVC030 03/01 Q1021 NOSIG",
                "EHRD 140055Z AUTO 07007KT 9000 OVC031 03/01 Q1021 NOSIG",
                "EHRD 140025Z AUTO 07005KT 9999 OVC031 02/01 Q1021 NOSIG",
                "EHRD 132255Z AUTO 09005KT 9999 FEW032 02/00 Q1022 NOSIG",
                "EHRD 132225Z AUTO 10005KT 9999 SCT030 02/00 Q1022 NOSIG",
                "EHRD 132155Z AUTO 10005KT 9999 NCD 02/00 Q1022 NOSIG",
                "EHRD 132125Z AUTO 09005KT 9000 NCD 01/M00 Q1022 NOSIG",
                "EHRD 132025Z AUTO 10006KT 9999 NCD 03/01 Q1022 NOSIG",
                "EHRD 131925Z AUTO 10004KT 9999 NCD 03/01 Q1022 NOSIG",
                "EHRD 131855Z AUTO 10004KT 9999 NCD 03/01 Q1022 NOSIG",
                "EHRD 131755Z AUTO 11007KT 9999 OVC023 05/02 Q1022 NOSIG",
                "EHRD 121655Z AUTO 11004KT 9000 SCT014 05/04 Q1026 NOSIG",
                "EHRD 121555Z AUTO 11004KT 9999 NSC 06/04 Q1026 NOSIG",
                "EHRD 120155Z AUTO 35004KT 2600 BR NSC 06/05 Q1025 NOSIG",
                "EHRD 110025Z AUTO 16004KT 4700 BR NCD 05/05 Q1010 NOSIG",
                "EHRD 102355Z AUTO 18006KT 3300 BR NSC 05/05 Q1009 NOSIG",
                "EHRD 102325Z AUTO 16004KT 5000 BR NSC 06/05 Q1009 NOSIG",
                "EHRD 102255Z AUTO 19006KT 6000 NSC 06/06 Q1009 NOSIG",
                "EHRD 100555Z AUTO 16008KT 9999 OVC008 07/06 Q1006 NOSIG",
                "EHRD 100525Z AUTO 16008KT 9999 OVC008 07/06 Q1006 NOSIG",
                "EHRD 100325Z AUTO 16007KT 9999 OVC011 07/06 Q1006 NOSIG",
                "EHRD 100125Z AUTO 18008KT 8000 OVC011 07/06 Q1007 NOSIG",
                "EHRD 091625Z AUTO 17006KT 9999 OVC012 06/03 Q1007 NOSIG",
                "EHRD 091355Z AUTO 15005KT 9999 OVC018 05/03 Q1007 NOSIG",
                "EHRD 091125Z AUTO 11004KT 8000 NSC 03/01 Q1009 NOSIG",
                "EHRD 090655Z AUTO 08008KT 9000 NSC 00/M01 Q1011 NOSIG",
                "EHRD 090625Z AUTO 08008KT 9999 NSC 01/M00 Q1011 NOSIG",
                "EHRD 090555Z AUTO 07007KT 9999 NSC 01/M00 Q1012 NOSIG",
                "EHRD 090525Z AUTO 08008KT 9999 NSC 01/M00 Q1012 NOSIG",
                "EHRD 090455Z AUTO 08008KT 9999 NSC 01/M00 Q1012 NOSIG",
                "EHRD 090425Z AUTO 08007KT 9999 NSC 01/M00 Q1013 NOSIG",
                "EHRD 090355Z AUTO 07007KT 9999 NSC 01/M01 Q1014 NOSIG",
                "EHRD 090255Z AUTO 07008KT 9999 NSC 01/M00 Q1014 NOSIG",
                "EHRD 082255Z AUTO 09009KT 9999 NSC 01/M01 Q1017 NOSIG",
                "EHRD 082155Z AUTO 09008KT 9999 NSC 01/M01 Q1018 NOSIG",
                "EHRD 082025Z AUTO 07010KT 9999 NSC 01/M02 Q1019 NOSIG",
                "EHRD 081955Z AUTO 07009KT 9999 NSC 01/M02 Q1019 NOSIG",
                "EHRD 081925Z AUTO 06010KT 9999 NSC 01/M02 Q1019 NOSIG",
                "EHRD 081855Z AUTO 07009KT 9999 NSC 01/M01 Q1020 NOSIG",
                "EHRD 081825Z AUTO 07008KT 9999 NSC 01/M01 Q1020 NOSIG",
                "EHRD 081755Z AUTO 07008KT 9999 NSC 02/M01 Q1020 NOSIG",
                "EHRD 072225Z AUTO 06012KT 9999 NCD M01/M04 Q1028 NOSIG",
                "EHRD 072155Z AUTO 06013KT 9999 NCD M00/M04 Q1027 NOSIG",
                "EHRD 072125Z AUTO 06012KT 9999 NCD M01/M03 Q1028 NOSIG",
                "EHRD 072025Z AUTO 06012KT 9999 NCD M00/M03 Q1027 NOSIG",
                "EHRD 071955Z AUTO 06014KT 9999 NCD M00/M03 Q1027 NOSIG",
                "EHRD 071925Z AUTO 06013KT 9999 NCD 00/M03 Q1027 NOSIG",
                "EHRD 071855Z AUTO 06013KT 9999 NCD 00/M03 Q1027 NOSIG",
                "EHRD 071825Z AUTO 06014KT 9999 NCD 00/M03 Q1027 NOSIG",
                "EHRD 071755Z AUTO 06014KT 9999 NCD 00/M03 Q1027 NOSIG",
                "EHRD 071725Z AUTO 05016KT 9999 NCD 01/M03 Q1027 NOSIG",
                "EHRD 071555Z AUTO 05017KT 9999 NCD 01/M02 Q1027 NOSIG",
                "EHRD 071455Z AUTO 05017KT 9999 NCD 02/M02 Q1026 NOSIG",
                "EHRD 071325Z AUTO 05016KT 9999 NCD 03/M02 Q1026 NOSIG",
                "EHRD 071155Z AUTO 06017KT 9999 NCD 02/M02 Q1027 NOSIG",
                "EHRD 071055Z AUTO 06016KT 9999 NCD 02/M02 Q1027 NOSIG",
                "EHRD 070925Z AUTO 05017KT 9999 NCD 01/M02 Q1027 NOSIG",
                "EHRD 070755Z AUTO 05012KT 9999 NCD 01/M01 Q1026 NOSIG",
                "EHRD 070655Z AUTO 05013KT 9999 NSC 01/M01 Q1024 NOSIG",
                "EHRD 070555Z AUTO 04014KT 9999 NSC 01/M01 Q1024 NOSIG",
                "EHRD 070525Z AUTO 04013KT 9999 NSC 01/M01 Q1023 NOSIG",
                "EHRD 062325Z AUTO 04009KT 9999 NSC 03/01 Q1019 NOSIG",
                "EHRD 062255Z AUTO 04008KT 9999 NSC 03/01 Q1018 NOSIG",
                "EHRD 062155Z AUTO 04009KT 9999 NSC 04/01 Q1017 NOSIG",
                "EHRD 061955Z AUTO 03008KT 9999 NSC 04/02 Q1015 NOSIG",
                "EHRD 061355Z AUTO 01006KT 9999 OVC041 07/05 Q1009 NOSIG",
                "EHRD 061255Z AUTO VRB01KT 9999 NSC 07/05 Q1008 NOSIG",
                "EHRD 061225Z AUTO VRB01KT 9999 FEW043 07/05 Q1008 NOSIG",
                "EHRD 061155Z AUTO VRB01KT 9999 NSC 07/05 Q1008 NOSIG",
                "EHRD 061125Z AUTO 14001KT 9999 BKN045 07/05 Q1008 NOSIG",
                "EHRD 060655Z AUTO 17004KT 9999 OVC048 04/04 Q1004 NOSIG",
                "EHRD 060555Z AUTO 18002KT 9999 BKN035 04/03 Q1003 NOSIG",
                "EHRD 060125Z AUTO 23010KT 9999 NSC 05/04 Q1001 NOSIG",
                "EHRD 060055Z AUTO 22011KT 9999 NSC 05/04 Q1000 NOSIG",
                "EHRD 060025Z AUTO 23012KT 9999 NSC 05/04 Q1000 NOSIG",
                "EHRD 052355Z AUTO 23012KT 9999 NSC 05/04 Q1000 NOSIG",
                "EHRD 051925Z AUTO 22015KT 9999 NCD 07/04 Q0996 NOSIG",
                "EHRD 051855Z AUTO 21012KT 9999 FEW033 07/05 Q0996 NOSIG",
                "EHRD 051725Z AUTO 22012KT 9999 FEW027 07/05 Q0995 NOSIG",
                "EHRD 051655Z AUTO 22010KT 9999 NCD 07/05 Q0995 NOSIG",
                "EHRD 050555Z AUTO 23008KT 9999 FEW023 05/04 Q0993 NOSIG",
                "EHRD 050025Z AUTO 24018KT 9999 NSC 08/04 Q0993 NOSIG",
                "EHRD 042125Z AUTO 25018KT 9999 FEW028 08/03 Q0992 NOSIG",
                "EHRD 040825Z AUTO 22010KT 9999 FEW047 07/05 Q0995 NOSIG",
                "EHRD 040755Z AUTO 22010KT 9999 NSC 07/06 Q0996 NOSIG",
                "EHRD 040655Z AUTO 23011KT 9999 NSC 08/05 Q0996 NOSIG",
                "EHRD 040625Z AUTO 24012KT 9999 NSC 08/05 Q0996 NOSIG",
                "EHRD 040555Z AUTO 24011KT 9999 NSC 07/05 Q0997 NOSIG",
                "EHRD 040455Z AUTO 25013KT 9000 SCT048 08/05 Q0997 NOSIG",
                "EHRD 040425Z AUTO 24012KT 9000 OVC045 08/05 Q0997 NOSIG",
                "EHRD 040055Z AUTO 24018KT 9999 FEW033 08/04 Q0997 NOSIG",
                "EHRD 021325Z AUTO 21013KT 9999 FEW015 07/04 Q1009 NOSIG",
                "EHRD 021255Z AUTO 23015KT 9999 FEW017 07/04 Q1009 NOSIG",
                "EHRD 021225Z AUTO 23011KT 9999 SCT015 07/05 Q1010 NOSIG",
                "EHRD 312355Z AUTO 26011KT 210V290 9999 -UP FEW019CB SCT040 05/00 Q0999 NOSIG",
                "EHRD 312325Z AUTO 25009KT 220V290 9999 FEW019CB BKN032 BKN040 05/00 Q0999 NOSIG",
                "EHRD 312255Z AUTO 26011KT 220V300 9999 FEW032 05/M00 Q0999 NOSIG",
                "EHRD 312225Z AUTO 26011KT 230V290 9999 FEW047 05/M01 Q0999 NOSIG",
                "COR EHRD 312155Z AUTO 26011KT 230V300 9999 NSC 05/M01 Q0999 NOSIG",
                "EHRD 312055Z AUTO 26011KT 220V290 9999 FEW034 05/M00 Q0999 TEMPO 7000 -SHRA SCT020CB",
                "EHRD 312025Z AUTO 26012KT 230V300 9999 FEW016CB 05/01 Q0999 TEMPO 7000 -SHRA SCT020CB",
                "EHRD 311925Z AUTO 22006KT 9999 FEW034 03/01 Q0999 REDZ TEMPO 7000 -SHRA SCT020CB",
                "EHRD 311855Z AUTO 24006KT 9999 FEW015CB 03/00 Q0999 TEMPO 7000 -SHRA SCT020CB",
                "EHRD 311825Z AUTO 29008KT 9999 FEW015CB 05/01 Q0999 TEMPO 7000 -SHRA SCT020CB",
                "EHRD 311725Z AUTO 27012KT 240V300 9999 FEW040 SCT046 06/01 Q0999 TEMPO 7000 -SHRA SCT020CB",
                "EHRD 311625Z AUTO 24011KT 210V270 9999 NSC 06/03 Q0999 NOSIG",
                "EHRD 311155Z AUTO 23016G27KT 190V270 9999 SCT011 BKN014 BKN017 08/06 Q1002 NOSIG",
                "EHRD 311125Z AUTO 24020KT 210V270 9999 -SHRA FEW026 SCT033 BKN041 08/06 Q1003 NOSIG",
                "EHRD 311025Z AUTO 23023G33KT 200V260 9999 -RA FEW023 SCT041 BKN045 08/05 Q1004 NOSIG",
                "EHRD 310525Z AUTO 23022KT 200V260 9999 FEW008 SCT010 BKN012 10/08 Q1008 TEMPO 3000 DZ",
                "EHRD 310425Z AUTO 23021G33KT 200V280 9999 SCT007 BKN008 OVC009 10/09 Q1008 NOSIG",
                "EHRD 310155Z AUTO 19012KT 160V220 3600 -RA BKN003 BKN005 FEW015CB 07/07 Q1012 RERA REDZ NOSIG",
                "EHRD 310125Z AUTO 19010KT 160V220 2900 DZ SCT003 BKN005 OVC007 07/06 Q1013 NOSIG",
                "EHRD 310055Z AUTO 19009KT 160V220 4400 BR SCT007 OVC008 07/05 Q1014 NOSIG",
                "EHRD 310025Z AUTO 20010KT 170V230 9999 FEW016 BKN019 OVC023 07/05 Q1015 NOSIG",
                "EHRD 302355Z AUTO 21009KT 180V240 9999 FEW025 OVC033 06/05 Q1016 NOSIG",
                "EHRD 302325Z AUTO 22010KT 9999 SCT041 BKN048 06/05 Q1016 NOSIG",
                "EHRD 302255Z AUTO 20008KT 170V230 9999 NSC 05/04 Q1017 NOSIG",
                "EHRD 302225Z AUTO 18007KT 140V210 9999 FEW013 SCT017 BKN027 05/03 Q1018 NOSIG",
                "EHRD 302155Z AUTO 17006KT 9999 SCT027 OVC031 05/03 Q1018 NOSIG",
                "EHRD 301725Z AUTO 19005KT 160V220 9999 NSC 04/02 Q1024 NOSIG",
                "EHRD 301525Z AUTO 24007KT 210V270 9999 NSC 06/03 Q1026 NOSIG",
                "EHRD 301325Z AUTO 24008KT 210V270 9999 SCT018 07/03 Q1027 NOSIG",
                "EHRD 301255Z AUTO 23008KT 200V280 9999 BKN017 OVC020 07/04 Q1027 NOSIG",
                "EHRD 301225Z AUTO 25008KT 220V290 9999 NSC 07/04 Q1028 NOSIG",
                "EHRD 301155Z AUTO 25006KT 220V290 9999 SCT015 BKN018 07/03 Q1029 NOSIG",
                "EHRD 301125Z AUTO 25008KT 220V300 9999 FEW015 07/04 Q1029 NOSIG",
                "EHRD 301025Z AUTO 25011KT 220V280 9999 NSC 06/04 Q1029 NOSIG",
                "EHRD 300925Z AUTO 24008KT 210V270 9999 NSC 06/04 Q1029 NOSIG",
                "EHRD 300655Z AUTO 23003KT 180V250 9999 NSC 03/02 Q1029 NOSIG",
                "EHRD 300255Z AUTO 26007KT 230V290 9999 SCT016 BKN020 04/03 Q1029 NOSIG",
                "EHRD 292355Z AUTO 28005KT 250V310 9999 SCT019 SCT035 04/03 Q1029 NOSIG",
                "EHRD 292255Z AUTO 28005KT 250V310 9999 NCD 05/03 Q1029 NOSIG",
                "EHRD 292155Z AUTO 29007KT 260V320 9999 NCD 05/04 Q1028 NOSIG",
                "EHRD 292125Z AUTO 28007KT 250V320 9999 NCD 06/04 Q1027 NOSIG",
                "EHRD 292055Z AUTO 30008KT 260V320 9999 NCD 06/04 Q1027 NOSIG",
                "EHRD 292025Z AUTO 29008KT 260V320 9999 FEW023 07/05 Q1027 NOSIG",
                "EHRD 291955Z AUTO 28006KT 250V320 9999 FEW016 BKN021 BKN035 07/06 Q1026 NOSIG",
                "EHRD 291925Z AUTO 28007KT 240V310 9999 FEW009 SCT025 06/05 Q1026 NOSIG",
                "EHRD 291855Z AUTO 29008KT 250V330 9999 NCD 06/05 Q1025 NOSIG",
                "EHRD 291825Z AUTO 29010KT 260V320 9999 NSC 07/06 Q1025 NOSIG",
                "EHRD 291655Z AUTO 30014KT 270V340 9999 DZ FEW010 SCT016 BKN028 09/07 Q1023 NOSIG",
                "COR EHRD 291425Z AUTO 24022KT 210V280 9999 -RA OVC027 10/07 Q1021 TEMPO 3000 RA BKN010",
                "EHRD 291355Z AUTO 24024G36KT 200V270 9999 FEW019 OVC031 11/07 Q1021 NOSIG",
                "EHRD 291325Z AUTO 24025G35KT 210V270 9999 SCT028 OVC032 11/07 Q1021 NOSIG",
                "EHRD 291255Z AUTO 24024G34KT 210V270 9999 OVC026 11/07 Q1022 NOSIG",
                "EHRD 291225Z AUTO 23022KT 190V260 9999 OVC033 11/07 Q1022 NOSIG",
                "EHRD 291155Z AUTO 23020KT 200V260 9999 OVC039 11/07 Q1023 NOSIG",
                "EHRD 291125Z AUTO 23022G35KT 9999 OVC037 11/07 Q1023 NOSIG",
                "EHRD 291055Z AUTO 24019G29KT 210V270 9999 SCT030 OVC040 11/06 Q1024 NOSIG",
                "EHRD 291025Z AUTO 24020KT 200V270 9999 OVC028 10/07 Q1024 NOSIG",
                "EHRD 290955Z AUTO 24020KT 210V280 9999 OVC027 10/07 Q1024 NOSIG",
                "EHRD 290925Z AUTO 24020KT 190V270 9999 OVC026 10/07 Q1024 NOSIG",
                "EHRD 290855Z AUTO 24020KT 210V270 9999 BKN024 OVC027 10/07 Q1024 NOSIG",
                "EHRD 290825Z AUTO 24017KT 200V270 9999 OVC025 10/07 Q1025 NOSIG",
                "EHRD 290755Z AUTO 23017KT 200V260 9999 OVC025 10/07 Q1025 NOSIG",
                "EHRD 290725Z AUTO 24018KT 200V270 9999 OVC026 10/07 Q1025 NOSIG",
                "EHRD 290655Z AUTO 24019KT 200V270 9999 OVC025 10/07 Q1025 NOSIG",
                "EHRD 290625Z AUTO 23017G28KT 200V260 9999 FEW017 OVC025 10/07 Q1025 NOSIG",
                "EHRD 290555Z AUTO 23019KT 9999 BKN023 OVC026 10/07 Q1025 NOSIG",
                "EHRD 290525Z AUTO 24021KT 200V270 9999 FEW019 OVC023 10/07 Q1025 NOSIG",
                "EHRD 290455Z AUTO 23020KT 200V260 9999 FEW017 SCT021 OVC025 10/07 Q1025 NOSIG",
                "EHRD 290425Z AUTO 23020KT 200V270 9999 FEW016 SCT020 OVC023 10/07 Q1026 NOSIG",
                "EHRD 290355Z AUTO 23019KT 200V260 9999 FEW012 SCT017 BKN021 09/08 Q1026 NOSIG",
                "EHRD 290325Z AUTO 23021G31KT 9999 FEW011 SCT015 OVC019 10/08 Q1026 NOSIG",
                "EHRD 290255Z AUTO 23018KT 9999 FEW011 SCT014 BKN018 10/08 Q1026 NOSIG",
                "EHRD 290225Z AUTO 23015KT 200V260 9999 BKN013 OVC015 10/08 Q1026 NOSIG",
                "EHRD 290155Z AUTO 23016KT 9999 SCT012 BKN014 OVC017 10/08 Q1027 NOSIG",
                "EHRD 290125Z AUTO 24018KT 200V270 9999 SCT013 OVC015 10/08 Q1027 NOSIG",
                "EHRD 290025Z AUTO 23015KT 200V260 9999 SCT012 OVC014 10/08 Q1027 NOSIG",
                "EHRD 282355Z AUTO 23015KT 200V260 9999 FEW012 OVC016 10/09 Q1028 NOSIG",
                "EHRD 282255Z AUTO 24018KT 210V270 9999 OVC010 11/09 Q1028 NOSIG",
                "EHRD 282225Z AUTO 23015KT 190V260 9999 BKN010 OVC012 11/09 Q1028 NOSIG",
                "EHRD 282155Z AUTO 23015KT 200V260 9999 BKN009 OVC010 10/09 Q1029 TEMPO BKN015",
                "EHRD 282125Z AUTO 24016KT 210V270 9999 SCT009 BKN010 OVC012 10/09 Q1029 TEMPO BKN015",
                "EHRD 282055Z AUTO 24015KT 210V270 9999 BKN008 OVC009 10/09 Q1029 BECMG BKN015",
                "EHRD 282025Z AUTO 23017KT 200V260 9999 BKN008 OVC010 10/09 Q1029 BECMG BKN015",
                "EHRD 281955Z AUTO 23014KT 210V270 9999 BKN009 BKN011 OVC014 10/09 Q1029 BECMG BKN020",
                "EHRD 281925Z AUTO 22016KT 9999 FEW009 SCT010 OVC015 10/09 Q1029 BECMG BKN020",
                "EHRD 281855Z AUTO 22017KT 9999 SCT009 BKN011 BKN013 10/09 Q1029 BECMG BKN020",
                "EHRD 281825Z AUTO 23017KT 9999 BKN009 BKN010 10/09 Q1029 BECMG BKN020",
                "EHRD 281755Z AUTO 23018KT 9999 SCT008 BKN009 BKN012 10/08 Q1029 NOSIG",
                "EHRD 281725Z AUTO 23015KT 200V260 9999 SCT008 BKN009 BKN011 10/09 Q1028 NOSIG",
                "EHRD 281655Z AUTO 24017KT 210V270 9999 BKN008 OVC010 10/09 Q1028 NOSIG",
                "EHRD 281625Z AUTO 23020KT 200V270 9999 SCT008 BKN009 OVC010 10/09 Q1028 NOSIG",
                "EHRD 281555Z AUTO 23019KT 200V270 9999 OVC007 10/09 Q1028 NOSIG",
                "EHRD 281525Z AUTO 24018KT 200V280 9999 BKN008 OVC009 10/09 Q1028 NOSIG",
                "EHRD 281455Z AUTO 24017G27KT 210V290 9999 OVC008 10/09 Q1029 NOSIG",
                "EHRD 281425Z AUTO 24017KT 200V270 9999 OVC009/// 10/09 Q1028 NOSIG",
                "EHRD 281355Z AUTO 23018KT 9999 FEW008 BKN009 OVC010 10/09 Q1028 NOSIG",
                "EHRD 281325Z AUTO 24018KT 210V270 9999 BKN009 OVC010 10/09 Q1028 NOSIG",
                "EHRD 281255Z AUTO 24018KT 210V270 9999 BKN008 OVC010 10/09 Q1028 NOSIG",
                "EHRD 281225Z AUTO 24017KT 210V280 9999 BKN011 OVC015 11/09 Q1029 NOSIG",
                "EHRD 281155Z AUTO 24015KT 210V270 9999 FEW011 BKN040 11/09 Q1029 NOSIG",
                "EHRD 281125Z AUTO 24014KT 220V280 9999 FEW008 SCT009 BKN010 10/09 Q1029 BECMG BKN008",
                "EHRD 281055Z AUTO 24015KT 210V270 9999 FEW008 BKN010 BKN013 10/09 Q1029 BECMG BKN008",
                "EHRD 281025Z AUTO 24014KT 210V270 9999 FEW011 10/08 Q1029 BECMG BKN008",
                "EHRD 280955Z AUTO 24013KT 9999 FEW009 10/09 Q1029 BECMG BKN008",
                "EHRD 280925Z AUTO 23010KT 210V270 9999 FEW008 BKN009 09/08 Q1029 BECMG SCT012",
                "COR EHRD 280855Z AUTO 24008KT 210V270 9999 SCT008 BKN010 09/08 Q1029 BECMG SCT012",
                "EHRD 280825Z AUTO 23009KT 190V250 9999 NSC 08/07 Q1029 NOSIG",
                "EHRD 280725Z AUTO 25010KT 220V280 9999 NSC 09/08 Q1028 NOSIG",
                "COR EHRD 280655Z AUTO 25010KT 220V280 9999 FEW010 BKN023 09/08 Q1028 NOSIG",
                "EHRD 280625Z AUTO 25012KT 220V280 9999 FEW008 BKN009 BKN011 09/08 Q1027 BECMG FEW017",
                "EHRD 280555Z AUTO 25009KT 220V280 9999 SCT007 BKN008 OVC009 09/09 Q1027 BECMG FEW017",
                "EHRD 280525Z AUTO 25012KT 220V280 9999 FEW006/// SCT008/// BKN017/// 09/08 Q1026 NOSIG",
                "EHRD 280455Z AUTO 25012KT 220V300 9999 FEW007 BKN008 09/08 Q1026 BECMG BKN016",
                "EHRD 280425Z AUTO 25012KT 220V280 9999 BKN006 OVC008 10/09 Q1026 BECMG BKN016",
                "EHRD 280355Z AUTO 25015KT 220V280 9999 BKN005 OVC006 10/09 Q1026 BECMG BKN016",
                "EHRD 280325Z AUTO 24012KT 210V280 8000 OVC004 09/09 Q1026 TEMPO 2500 DZ",
                "EHRD 280255Z AUTO 23012G23KT 200V270 4600 BR BKN002 OVC003 09/09 Q1026 TEMPO 2500 DZ",
                "EHRD 280225Z AUTO 22015KT 190V250 3900 BR OVC002 08/08 Q1025 TEMPO 2500 DZ",
                "EHRD 280155Z AUTO 23016KT 6000 OVC003 08/08 Q1025 TEMPO 2500 DZ",
                "EHRD 280125Z AUTO 23016KT 6000 OVC004 08/08 Q1025 TEMPO 2500 DZ",
                "EHRD 280055Z AUTO 23017KT 3500 -RA BKN004 OVC005 08/08 Q1025 RERA REDZ TEMPO 2500 DZ",
                "EHRD 280025Z AUTO 22018KT 200V260 9999 OVC005 08/07 Q1025 TEMPO 2500 DZ",
                "EHRD 272355Z AUTO 22018KT 200V260 9999 OVC005 08/07 Q1025 TEMPO 2500 DZ",
                "EHRD 272325Z AUTO 22019KT 190V260 8000 OVC006/// 08/07 Q1025 REDZ TEMPO 2500 DZ",
                "EHRD 272255Z AUTO 22020KT 190V250 5000 -RA BKN006 BKN007 OVC008 07/06 Q1024 TEMPO 2500",
                "EHRD 272225Z AUTO 22019KT 190V260 4100 BR SCT007 OVC008 07/06 Q1024 REDZ TEMPO 2500",
                "EHRD 272155Z AUTO 22017KT 190V250 3900 -RADZ SCT006 BKN008 OVC009 07/06 Q1024 TEMPO 2500",
                "EHRD 272055Z AUTO 22017KT 190V250 5000 BR BKN007 OVC008 06/05 Q1024 TEMPO 3500",
                "EHRD 272025Z AUTO 21019KT 180V250 5000 -RA SCT007 BKN008 OVC010 06/05 Q1024 TEMPO 3500",
                "EHRD 271925Z AUTO 20018G28KT 170V230 9999 FEW011 SCT014 OVC017 06/04 Q1025 NOSIG",
                "EHRD 271855Z AUTO 20018KT 170V230 9999 FEW011 FEW015CB OVC020 06/04 Q1025 NOSIG",
                "EHRD 271755Z AUTO 20017KT 160V230 9999 DZ FEW012 SCT015 BKN032 05/04 Q1025 NOSIG",
                "EHRD 271725Z AUTO 19016KT 160V230 9999 DZRA FEW012 FEW015CB SCT039 05/03 Q1026 NOSIG",
                "EHRD 271655Z AUTO 19016KT 150V230 9999 -DZ SCT012 BKN014 BKN017 05/03 Q1026 NOSIG",
                "EHRD 271625Z AUTO 20016KT 150V230 9999 SCT013 OVC015 05/03 Q1027 NOSIG",
                "EHRD 271555Z AUTO 19017KT 9999 BKN012 OVC016 05/03 Q1027 NOSIG",
                "EHRD 271525Z AUTO 19015KT 150V220 9999 SCT012 OVC014 05/03 Q1027 NOSIG",
                "EHRD 271455Z AUTO 20015KT 160V230 9999 SCT012 BKN014 BKN017 05/03 Q1027 NOSIG",
                "EHRD 271425Z AUTO 20018KT 170V230 9999 BKN012 BKN015 05/03 Q1027 NOSIG",
                "EHRD 271355Z AUTO 20015KT 170V230 9999 NSC 06/03 Q1027 NOSIG",
                "EHRD 271325Z AUTO 19014KT 150V220 9999 FEW013 BKN016 06/03 Q1028 NOSIG",
                "EHRD 271255Z AUTO 20014KT 160V230 9999 FEW016 07/03 Q1028 NOSIG",
                "EHRD 271225Z AUTO 19014G24KT 150V230 9999 FEW017 07/03 Q1028 NOSIG",
                "EHRD 271155Z AUTO 20014KT 160V230 9999 SCT017 06/03 Q1028 NOSIG",
                "EHRD 271125Z AUTO 20013KT 170V240 9999 BKN020 OVC024 06/02 Q1029 NOSIG",
                "EHRD 271055Z AUTO 21016KT 170V230 9999 BKN018 OVC021 06/02 Q1029 NOSIG",
                "EHRD 271025Z AUTO 21012KT 170V230 9999 FEW021 OVC024 06/03 Q1029 NOSIG",
                "EHRD 270955Z AUTO 20010KT 160V220 9999 OVC025 06/03 Q1029 NOSIG",
                "EHRD 270855Z AUTO 20006KT 160V230 9999 OVC022 06/03 Q1029 NOSIG",
                "EHRD 270655Z AUTO 19007KT 120V250 9999 OVC028 06/03 Q1029 NOSIG",
                "EHRD 270625Z AUTO 21007KT 170V230 9999 OVC026 06/03 Q1028 NOSIG",
                "EHRD 270455Z AUTO 20003KT 170V250 9999 OVC024 04/03 Q1028 NOSIG",
                "EHRD 270425Z AUTO 19004KT 9999 SCT025 OVC028 02/02 Q1028 TEMPO 1500 BCFG",
                "EHRD 270355Z AUTO 19002KT 5000 BR OVC025 02/02 Q1028 TEMPO 1500 BCFG",
                "EHRD 270325Z AUTO 20002KT 9000 NCD 01/01 Q1027 BECMG 3000 MIFG",
                "EHRD 270255Z AUTO 20004KT 9999 NCD 01/01 Q1027 BECMG 3000 MIFG",
                "EHRD 270225Z AUTO 18005KT 9999 NCD 01/01 Q1027 BECMG 3000 MIFG",
                "EHRD 270155Z AUTO 21005KT 9999 NCD 01/01 Q1027 BECMG 3000 MIFG",
                "EHRD 270125Z AUTO 25004KT 6000 NCD 02/02 Q1027 BECMG 3000 MIFG",
                "EHRD 270055Z AUTO 16003KT 4500 NCD 02/02 Q1026 BECMG 3000 MIFG",
                "EHRD 270025Z AUTO 18003KT 6000 NCD 02/02 Q1026 BECMG 3000 BR",
                "EHRD 262325Z AUTO 26003KT 230V290 9999 OVC019 05/04 Q1027 NOSIG",
                "EHRD 262225Z AUTO 27004KT 6000 BKN022 04/04 Q1026 BECMG 4000 BR FEW018",
                "EHRD 262155Z AUTO 25003KT 7000 BKN020 OVC023 04/04 Q1025 BECMG 4000 BR FEW018",
                "EHRD 262125Z AUTO 27002KT 7000 OVC019 05/05 Q1025 BECMG 4000 BR FEW018",
                "EHRD 262055Z AUTO 28005KT 250V310 3200 BR OVC016 06/05 Q1025 NOSIG",
                "EHRD 262025Z AUTO 26004KT 2700 BR FEW009 OVC016 06/05 Q1025 NOSIG",
                "EHRD 261955Z AUTO 25003KT 2500 BR FEW008 OVC016 06/05 Q1024 NOSIG",
                "EHRD 261925Z AUTO VRB02KT 2700 BR SCT004 SCT005 BKN006 06/06 Q1024 NOSIG",
                "EHRD 261855Z AUTO 24003KT 2600 BR BKN004 BKN007 OVC008 06/06 Q1023 NOSIG",
                "EHRD 261825Z AUTO 18004KT 2700 BR BKN003 OVC007 05/05 Q1023 NOSIG",
                "EHRD 261755Z AUTO 16003KT 2900 BR OVC003 06/05 Q1022 NOSIG",
                "EHRD 261725Z AUTO 20003KT 2900 BR OVC003 06/05 Q1022 NOSIG",
                "EHRD 261655Z AUTO 19005KT 140V220 3100 BR OVC004 06/05 Q1021 TEMPO 2500",
                "EHRD 261625Z AUTO 18006KT 3200 BR OVC004 06/05 Q1021 TEMPO 2500",
                "EHRD 261555Z AUTO 17004KT 120V220 3200 BR SCT004 BKN006 OVC007 06/05 Q1020 TEMPO 2500 BKN004",
                "EHRD 261525Z AUTO 17005KT 3700 BR OVC005 06/05 Q1020 TEMPO 2500 BKN004",
                "EHRD 261455Z AUTO 18006KT 140V210 4500 BR BKN005 OVC006 06/05 Q1019 TEMPO 2500 BKN004",
                "EHRD 261425Z AUTO 18005KT 4400 BR OVC005 06/05 Q1019 TEMPO 2500 BKN004",
                "EHRD 261355Z AUTO 19006KT 3700 BR OVC006/// 06/05 Q1019 TEMPO 2500 BKN004",
                "EHRD 261325Z AUTO 22005KT 170V230 6000 BKN007/// OVC008/// 07/05 Q1018 BECMG 8000 SCT030",
                "EHRD 261255Z AUTO 20006KT 140V240 5000 BR BKN008 OVC009 07/06 Q1018 NOSIG",
                "EHRD 261225Z AUTO 23005KT 6000 BKN009 OVC010 07/06 Q1018 NOSIG",
                "EHRD 261155Z AUTO 23007KT 9000 BKN008 BKN009 07/05 Q1018 TEMPO 6000 BKN005",
                "EHRD 261125Z AUTO 20004KT 140V270 9000 NCD 07/06 Q1017 NOSIG",
                "EHRD 261025Z AUTO 20006KT 160V230 8000 NCD 06/05 Q1017 NOSIG",
                "EHRD 260955Z AUTO 19006KT 150V230 8000 NCD 05/04 Q1017 NOSIG",
                "EHRD 260925Z AUTO 20006KT 160V220 7000 NSC 05/04 Q1016 NOSIG",
                "EHRD 260855Z AUTO 17006KT 070V210 5000 BR NSC 04/04 Q1016 NOSIG",
                "EHRD 260825Z AUTO 19004KT 5000 BR NCD 03/03 Q1015 BECMG 2000",
                "EHRD 260755Z AUTO 19004KT 160V220 4500 BR NSC 03/03 Q1015 BECMG 2000",
                "EHRD 260725Z AUTO 18005KT 5000 BR NCD 03/03 Q1014 BECMG 2000",
                "EHRD 260655Z AUTO 18006KT 140V250 4800 BR NCD 04/04 Q1014 BECMG 2000",
                "EHRD 260625Z AUTO 18006KT 150V230 4600 BR NCD 04/04 Q1014 BECMG 2000",
                "EHRD 260555Z AUTO 18006KT 5000 BR NCD 04/04 Q1013 TEMPO 4000",
                "EHRD 260525Z AUTO 18005KT 6000 NSC 04/04 Q1013 TEMPO 4000 BR",
                "EHRD 260455Z AUTO 19005KT 7000 NSC 04/04 Q1013 TEMPO 4000 BR",
                "EHRD 260355Z AUTO 19006KT 170V230 7000 FEW040 OVC048 05/05 Q1012 NOSIG",
                "EHRD 260325Z AUTO 18007KT 7000 NSC 05/04 Q1012 BECMG 4000 BR",
                "EHRD 260125Z AUTO 20006KT 160V220 9999 NSC 05/05 Q1012 NOSIG",
                "EHRD 252125Z AUTO 21007KT 190V250 9999 NSC 07/05 Q1011 NOSIG",
                "EHRD 252055Z AUTO 22008KT 190V250 9999 NSC 07/05 Q1011 NOSIG",
                "EHRD 251925Z AUTO 19007KT 160V220 9999 FEW018 07/05 Q1011 NOSIG",
                "EHRD 251855Z AUTO 19007KT 160V220 9999 SCT018 BKN023 BKN049 08/05 Q1011 NOSIG",
                "EHRD 251825Z AUTO 20005KT 170V240 9999 SCT019 07/04 Q1010 NOSIG",
                "EHRD 251755Z AUTO 19006KT 9999 FEW015CB 07/04 Q1010 NOSIG",
                "EHRD 251725Z AUTO 20006KT 150V230 9999 FEW015CB OVC034 08/05 Q1010 NOSIG",
                "EHRD 251655Z AUTO 21009KT 9999 SCT041 BKN046 09/05 Q1010 NOSIG",
                "EHRD 251625Z AUTO 21008KT 170V240 9999 FEW015 08/06 Q1010 NOSIG",
                "EHRD 251555Z AUTO 19009KT 170V230 9999 FEW016 08/06 Q1009 NOSIG",
                "EHRD 251525Z AUTO 20009KT 170V240 9999 BKN015 BKN020 09/06 Q1010 NOSIG",
                "EHRD 251455Z AUTO 20010KT 170V250 9999 SCT016 09/06 Q1009 NOSIG",
                "EHRD 251355Z AUTO 21010KT 9999 FEW013 BKN016 OVC047 09/07 Q1009 NOSIG",
                "EHRD 251325Z AUTO 22010KT 9999 FEW013 SCT015 09/07 Q1010 NOSIG",
                "EHRD 251255Z AUTO 21011KT 9999 SCT012 OVC015 09/07 Q1010 NOSIG",
                "EHRD 251225Z AUTO 21009KT 180V240 9999 SCT012 BKN014 OVC016 09/07 Q1010 NOSIG",
                "EHRD 251155Z AUTO 19010KT 160V230 9999 FEW013/// SCT015/// 09/07 Q1010 NOSIG",
                "EHRD 251125Z AUTO 19011KT 160V220 9999 FEW009/// 08/07 Q1010 NOSIG",
                "EHRD 251055Z AUTO 19009KT 150V240 9999 NSC 08/06 Q1011 TEMPO 7000 SHRA SCT015CB",
                "EHRD 250955Z AUTO 21011KT 160V250 9999 FEW014 BKN028 BKN037 08/06 Q1011 NOSIG",
                "EHRD 250925Z AUTO 21011KT 180V240 9999 FEW014/// 08/06 Q1010 NOSIG",
                "EHRD 250855Z AUTO 21013KT 180V240 9999 NSC 08/06 Q1010 NOSIG",
                "EHRD 250825Z AUTO 20012KT 170V230 9999 FEW012/// SCT023/// 08/06 Q1010 NOSIG",
                "EHRD 250755Z AUTO 19010KT 160V220 9999 SCT010 BKN012 BKN014 07/06 Q1010 NOSIG",
                "EHRD 250725Z AUTO 19009KT 160V220 9999 FEW011/// 07/06 Q1010 NOSIG",
                "EHRD 250655Z AUTO 21011KT 180V260 9999 FEW015/// 08/06 Q1010 NOSIG",
                "EHRD 250625Z AUTO 21012KT 170V250 9999 SCT017 08/06 Q1010 TEMPO BKN011",
                "EHRD 250555Z AUTO 21011KT 180V250 9999 SCT011 BKN014 08/06 Q1010 TEMPO SCT014",
                "EHRD 250525Z AUTO 21012KT 180V240 9999 FEW012 08/06 Q1010 TEMPO BKN014",
                "EHRD 250455Z AUTO 21012KT 190V260 9999 SCT012 BKN014 08/06 Q1010 NOSIG",
                "EHRD 250425Z AUTO 21012KT 180V240 9999 FEW012/// BKN014/// OVC016/// 08/06 Q1010 BECMG SCT015",
                "EHRD 250355Z AUTO 21013KT 180V250 9999 SCT013/// OVC016/// 08/06 Q1010 NOSIG",
                "EHRD 250325Z AUTO 21012KT 170V240 9999 SCT015/// OVC021/// 08/05 Q1010 NOSIG",
                "EHRD 250255Z AUTO 22013KT 160V250 9999 FEW018 SCT021 OVC048 08/05 Q1010 NOSIG",
                "EHRD 250225Z AUTO 22012KT 190V250 9999 BKN043/// 07/05 Q1009 NOSIG",
                "EHRD 250055Z AUTO 23014KT 190V250 9999 NSC 08/06 Q1009 NOSIG",
                "EHRD 250025Z AUTO 23014KT 9999 FEW015CB 08/06 Q1009 NOSIG",
                "EHRD 242355Z AUTO 23015KT 180V260 9999 FEW015CB 08/06 Q1009 NOSIG",
                "EHRD 242325Z AUTO 23012KT 200V270 9999 -DZ FEW014 FEW015CB SCT049 08/06 Q1009 NOSIG",
                "EHRD 242255Z AUTO 23014KT 9999 -DZ FEW015CB 08/06 Q1008 NOSIG",
                "EHRD 242225Z AUTO 22015KT 9999 DZ FEW015CB 08/06 Q1008 NOSIG",
                "EHRD 242155Z AUTO 22014KT 9999 DZ FEW015CB 08/07 Q1008 NOSIG",
                "EHRD 242125Z AUTO 22009KT 9999 -RA FEW015CB BKN043 08/07 Q1008 TEMPO 5000",
                "EHRD 241655Z AUTO 20023G36KT 170V240 9999 FEW024 BKN027 OVC031 13/09 Q1006 TEMPO 4500 RADZ",
                "EHRD 241555Z AUTO 20022G33KT 170V230 9999 FEW023/// BKN026/// OVC030/// 13/09 Q1006 NOSIG",
                "EHRD 241525Z AUTO 20019G30KT 160V230 9999 SCT032 OVC037 13/09 Q1006 NOSIG",
                "EHRD 241455Z AUTO 20022G32KT 170V230 9999 SCT019 BKN023 OVC026 13/10 Q1007 NOSIG",
                "EHRD 241425Z AUTO 20021G31KT 160V230 9999 SCT019 BKN022 OVC026 13/10 Q1007 NOSIG",
                "EHRD 241355Z AUTO 20021G32KT 170V230 9999 FEW020 BKN024 OVC027 14/10 Q1007 NOSIG",
                "EHRD 241325Z AUTO 20020G31KT 170V230 9999 FEW024 OVC030 14/10 Q1007 NOSIG",
                "EHRD 241255Z AUTO 20023G38KT 160V240 9999 FEW019 BKN023 BKN027 14/10 Q1008 NOSIG",
                "EHRD 241225Z AUTO 20022G33KT 160V240 9999 FEW025 BKN029 OVC033 14/10 Q1008 NOSIG",
                "EHRD 241155Z AUTO 20023KT 170V230 9999 FEW019 BKN024 OVC027 14/10 Q1008 NOSIG",
                "EHRD 241125Z AUTO 20021KT 160V230 9999 FEW018 SCT022 BKN025 13/11 Q1009 NOSIG",
                "EHRD 241055Z AUTO 20020KT 170V230 9999 BKN016 OVC021 13/11 Q1010 NOSIG",
                "EHRD 241025Z AUTO 20020KT 160V250 9999 BKN015 OVC020 13/11 Q1010 NOSIG",
                "EHRD 240955Z AUTO 20020G30KT 160V220 9999 FEW013 BKN017 OVC022 13/11 Q1010 NOSIG",
                "EHRD 240925Z AUTO 20016KT 160V230 9999 FEW007 SCT011 BKN015 12/11 Q1011 NOSIG",
                "COR EHRD 240855Z AUTO 19017G27KT 160V220 9999 FEW011 SCT014 BKN017 12/10 Q1011 NOSIG",
                "EHRD 240825Z AUTO 19017KT 150V220 9999 FEW009 SCT010 BKN014 12/10 Q1011 BECMG BKN015",
                "EHRD 240755Z AUTO 19016KT 160V220 9999 FEW009 BKN010 BKN014 12/10 Q1012 NOSIG",
                "EHRD 240725Z AUTO 20017KT 160V230 9999 FEW010 SCT012 BKN015 12/10 Q1012 NOSIG",
                "EHRD 240655Z AUTO 19014KT 160V230 9999 FEW009 BKN010 OVC012 12/10 Q1012 NOSIG",
                "COR EHRD 240625Z AUTO 20017KT 160V230 9999 FEW008 BKN010 BKN012 12/11 Q1013 NOSIG",
                "EHRD 240555Z AUTO 21017G31KT 9999 FEW008 BKN009 BKN011 12/11 Q1013 BECMG SCT008 BKN012",
                "EHRD 240525Z AUTO 21016KT 180V240 9999 SCT007 BKN009 OVC010 12/11 Q1013 BECMG SCT008 BKN012",
                "EHRD 240425Z AUTO 21015KT 170V240 9999 BKN006 OVC007 12/11 Q1014 TEMPO 4000 BR",
                "EHRD 240355Z AUTO 21015KT 180V240 9999 SCT007 BKN008 OVC009 12/11 Q1014 TEMPO 4000 BR",
                "EHRD 240325Z AUTO 21014KT 9999 BKN007 OVC008 12/11 Q1014 TEMPO 4000 BR",
                "EHRD 240255Z AUTO 22014KT 190V250 9999 SCT007 BKN008 OVC009 11/10 Q1015 TEMPO 4000",
                "EHRD 240225Z AUTO 23018KT 200V260 9999 OVC009 11/10 Q1015 NOSIG",
                "EHRD 240155Z AUTO 23017KT 200V260 9999 OVC007 11/10 Q1015 NOSIG",
                "EHRD 240125Z AUTO 23016KT 9999 SCT007 BKN009 BKN010 11/10 Q1015 BECMG SCT009 BKN012",
                "COR EHRD 240055Z AUTO 23018KT 200V270 9999 SCT008/// BKN010/// 11/10 Q1015 NOSIG",
                "EHRD 240025Z AUTO 23019KT 200V260 9999 BKN007 OVC008 11/10 Q1015 NOSIG",
                "EHRD 232355Z AUTO 23018KT 190V270 9999 SCT007 OVC008 11/10 Q1015 NOSIG",
                "EHRD 232325Z AUTO 23020KT 200V260 9999 BKN007 OVC008 11/10 Q1015 TEMPO 3500 -DZ",
                "EHRD 232255Z AUTO 22017KT 9999 SCT006 BKN007 OVC009 11/10 Q1015 TEMPO 3500 -DZ",
                "EHRD 232155Z AUTO 23019G29KT 200V260 9999 SCT007 BKN009 OVC010 11/10 Q1015 TEMPO 5000",
                "EHRD 232025Z AUTO 21018KT 3100 DZ SCT005 BKN007 OVC008 10/09 Q1015 TEMPO 3000",
                "EHRD 231855Z AUTO 20018KT 170V230 3400 BR SCT006 BKN007 OVC008 09/09 Q1015 TEMPO 6000",
                "EHRD 231825Z AUTO 20016KT 170V230 4100 BR FEW005 BKN007 OVC008 09/09 Q1015 TEMPO 6000",
                "EHRD 231725Z AUTO 20016KT 160V240 4700 BR SCT006 BKN007 OVC008 09/09 Q1015 TEMPO 3000 DZRA",
                "EHRD 231655Z AUTO 20017KT 170V230 5000 BR BKN006 BKN007 OVC009 09/08 Q1016 TEMPO 3000 DZRA",
                "EHRD 231625Z AUTO 19014KT 150V230 5000 BR BKN007 OVC009 09/08 Q1016 TEMPO 3000 DZRA",
                "EHRD 231555Z AUTO 20017KT 160V220 9999 BKN007 OVC008 09/08 Q1016 TEMPO 3000 DZRA",
                "EHRD 231525Z AUTO 19014KT 9999 BKN006 OVC007 09/08 Q1016 TEMPO 3000 DZRA",
                "EHRD 231455Z AUTO 19015KT 160V230 3700 BR FEW004 SCT006 BKN007 08/08 Q1016 TEMPO 3000 DZRA",
                "EHRD 231155Z AUTO 19013KT 160V220 9999 BKN046 09/06 Q1018 NOSIG",
                "EHRD 231055Z AUTO 20012KT 160V230 9999 OVC028 09/06 Q1019 NOSIG",
                "EHRD 231025Z AUTO 20012KT 160V220 9999 SCT012 OVC029 08/06 Q1019 NOSIG",
                "EHRD 230955Z AUTO 20012KT 170V230 9999 FEW013 OVC030 08/06 Q1019 NOSIG",
                "EHRD 230925Z AUTO 20012KT 170V230 9999 FEW027 OVC030 07/05 Q1019 NOSIG",
                "EHRD 230855Z AUTO 19011KT 160V230 9999 OVC031 07/05 Q1019 NOSIG",
                "EHRD 230725Z AUTO 20010KT 160V220 9999 OVC029 06/04 Q1019 NOSIG",
                "EHRD 230655Z AUTO 20010KT 160V220 9999 OVC030 06/04 Q1019 NOSIG",
                "EHRD 230625Z AUTO 18007KT 140V230 9999 OVC030 06/04 Q1019 NOSIG",
                "EHRD 230355Z AUTO 18005KT 9999 BKN037/// 04/03 Q1019 NOSIG",
                "EHRD 230025Z AUTO 26005KT 230V310 9999 BKN033 OVC037 07/04 Q1018 NOSIG",
                "EHRD 222355Z AUTO 27007KT 230V300 9999 OVC031 07/05 Q1018 NOSIG",
                "EHRD 222325Z AUTO 27007KT 240V300 9999 BKN029 BKN042 07/04 Q1018 NOSIG",
                "EHRD 222255Z AUTO 27009KT 230V300 9999 BKN028 07/04 Q1017 NOSIG",
                "EHRD 222225Z AUTO 26009KT 230V290 9999 FEW048 07/04 Q1017 NOSIG",
                "EHRD 222155Z AUTO 26008KT 230V290 9999 BKN044 07/04 Q1017 NOSIG",
                "EHRD 222125Z AUTO 26007KT 230V290 9999 NSC 07/04 Q1016 NOSIG",
                "EHRD 222055Z AUTO 27008KT 240V300 9999 BKN039 BKN043 07/04 Q1016 NOSIG",
                "EHRD 222025Z AUTO 27008KT 230V300 9999 SCT027 07/04 Q1015 NOSIG",
                "EHRD 221955Z AUTO 27008KT 240V310 9999 OVC027 07/05 Q1015 NOSIG",
                "EHRD 221925Z AUTO 26009KT 230V290 9999 BKN028 OVC031 07/05 Q1015 NOSIG",
                "EHRD 221855Z AUTO 27008KT 240V300 9999 NSC 07/05 Q1014 NOSIG",
                "EHRD 221825Z AUTO 28009KT 240V320 9999 FEW026 06/05 Q1014 NOSIG",
                "EHRD 221755Z AUTO 27008KT 240V300 9999 OVC028 07/05 Q1014 NOSIG",
                "EHRD 221725Z AUTO 29009KT 240V320 9999 NSC 07/05 Q1013 NOSIG",
                "EHRD 221655Z AUTO 28010KT 250V310 9999 NSC 07/05 Q1012 NOSIG",
                "EHRD 221625Z AUTO 28010KT 250V310 9999 NSC 07/05 Q1012 NOSIG",
                "EHRD 221555Z AUTO 29010KT 260V330 9999 NSC 08/05 Q1011 NOSIG",
                "EHRD 221525Z AUTO 29011KT 250V320 9999 OVC048 08/05 Q1011 NOSIG",
                "EHRD 221455Z AUTO 29012KT 250V320 9999 OVC049 08/06 Q1010 NOSIG",
                "EHRD 221425Z AUTO 29012KT 260V320 9999 NSC 08/06 Q1009 NOSIG",
                "EHRD 221355Z AUTO 30011KT 260V330 9999 OVC048 08/06 Q1009 NOSIG",
                "EHRD 221325Z AUTO 29010KT 250V340 9999 NSC 08/06 Q1008 NOSIG",
                "EHRD 221255Z AUTO 29012KT 270V330 9999 NSC 09/06 Q1008 NOSIG",
                "EHRD 221225Z AUTO 29011KT 260V340 9999 FEW035 SCT047 09/06 Q1008 NOSIG",
                "EHRD 221155Z AUTO 30011KT 250V320 9999 FEW038 09/06 Q1008 NOSIG",
                "EHRD 221125Z AUTO 30009KT 270V330 9999 FEW034 BKN043 OVC048 08/06 Q1007 NOSIG",
                "EHRD 221055Z AUTO 30009KT 270V330 9999 FEW040 08/06 Q1007 NOSIG",
                "EHRD 221025Z AUTO 29008KT 240V320 9999 FEW032/// OVC049/// 08/06 Q1007 NOSIG",
                "EHRD 220955Z AUTO 27007KT 240V300 9999 NSC 08/06 Q1007 NOSIG",
                "EHRD 220925Z AUTO 29008KT 260V330 9999 NSC 08/06 Q1006 NOSIG",
                "EHRD 220855Z AUTO 30010KT 270V350 9999 NSC 08/05 Q1006 NOSIG",
                "EHRD 220825Z AUTO 29008KT 270V340 9999 SCT045 08/05 Q1006 NOSIG",
                "EHRD 220755Z AUTO 29009KT 260V320 9999 FEW039 OVC043 07/05 Q1006 NOSIG",
                "EHRD 220725Z AUTO 29008KT 260V320 9999 BKN041 OVC046 07/05 Q1005 NOSIG",
                "EHRD 220655Z AUTO 29010KT 270V330 9999 FEW047 07/05 Q1005 NOSIG",
                "EHRD 220625Z AUTO 29009KT 250V330 9999 OVC044 07/06 Q1004 NOSIG",
                "EHRD 220555Z AUTO 27008KT 240V310 9999 OVC045 07/06 Q1004 NOSIG",
                "EHRD 220525Z AUTO 27009KT 230V300 9000 FEW009 SCT046 07/06 Q1004 BECMG 8000 SCT018 BKN035",
                "EHRD 220355Z AUTO 20007KT 4600 BR OVC002 04/04 Q1004 BECMG 27010KT 6000 NSW BKN004",
                "EHRD 220325Z AUTO 20008KT 7000 FEW003 OVC004 04/04 Q1004 NOSIG",
                "EHRD 220255Z AUTO 19006KT 150V240 3700 -DZ BKN002 OVC004 04/04 Q1004 REDZ NOSIG",
                "EHRD 220225Z AUTO 17008KT 2300 DZ BKN002 OVC003 03/03 Q1005 NOSIG",
                "EHRD 220155Z AUTO 17009KT 2400 BR BKN002 OVC003 03/03 Q1005 NOSIG",
                "EHRD 220125Z AUTO 17009KT 140V200 4600 BR BKN003 OVC005 03/03 Q1005 NOSIG",
                "EHRD 220055Z AUTO 16009KT 140V200 4300 BR SCT004 BKN005 BKN007 03/02 Q1005 NOSIG",
                "EHRD 220025Z AUTO 15010KT 130V190 4100 BR SCT004 BKN005 OVC007 03/02 Q1006 NOSIG",
                "EHRD 212355Z AUTO 15011KT 120V180 6000 BKN006 OVC007 03/02 Q1006 BECMG 7000",
                "EHRD 212325Z AUTO 15013KT 3500 -RA FEW005 BKN007 OVC008 03/02 Q1007 RERA REDZ BECMG 7000",
                "EHRD 212255Z AUTO 15014KT 4400 BR FEW007 BKN008 OVC009 03/02 Q1007 BECMG 7000",
                "EHRD 212125Z AUTO 15013KT 110V180 9999 -RA SCT009 BKN011 BKN015 03/02 Q1009 BECMG 7000",
                "EHRD 212025Z AUTO 16015KT 130V190 9000 -RA FEW011 SCT017 BKN022 03/02 Q1010 BECMG BKN009",
                "EHRD 211855Z AUTO 16010KT 130V190 9999 -UP FEW039 BKN044 BKN049 04/02 Q1012 NOSIG",
                "EHRD 211755Z AUTO 16011KT 130V190 9999 NSC 04/02 Q1013 NOSIG",
                "EHRD 211725Z AUTO 16010KT 130V190 9999 NSC 04/02 Q1013 NOSIG",
                "EHRD 211625Z AUTO 17008KT 140V200 9999 NSC 04/02 Q1014 NOSIG",
                "EHRD 211555Z AUTO 18008KT 150V210 9999 NSC 05/02 Q1014 NOSIG",
                "EHRD 211455Z AUTO 18007KT 150V220 9999 FEW023 SCT034 05/02 Q1015 NOSIG",
                "EHRD 211325Z AUTO 21005KT 160V240 9999 SCT018 SCT024 06/02 Q1015 NOSIG",
                "EHRD 211255Z AUTO 25006KT 220V290 9999 FEW040 BKN045 06/02 Q1015 NOSIG",
                "EHRD 211155Z AUTO 22006KT 200V260 9999 BKN046 07/03 Q1015 NOSIG",
                "EHRD 211125Z AUTO 22006KT 9999 FEW030 BKN038 OVC043 06/02 Q1015 NOSIG",
                "EHRD 210525Z AUTO 29006KT 9999 FEW029 SCT040 01/M01 Q1012 NOSIG",
                "EHRD 210455Z AUTO 30007KT 9999 FEW029 SCT033 BKN038 02/M00 Q1011 NOSIG",
                "EHRD 210425Z AUTO 30007KT 9999 FEW033/// 02/M00 Q1011 NOSIG",
                "EHRD 210355Z AUTO 29007KT 9999 FEW026/// SCT030/// BKN035/// 02/M00 Q1010 NOSIG",
                "EHRD 210325Z AUTO 31006KT 280V350 9999 NCD 02/M00 Q1010 NOSIG",
                "EHRD 210255Z AUTO 31006KT 290V350 9999 NSC 02/M00 Q1009 NOSIG",
                "EHRD 210225Z AUTO 31007KT 9999 FEW026 SCT040 03/00 Q1009 NOSIG",
                "EHRD 210155Z AUTO 31007KT 280V350 9999 FEW025 SCT030 02/00 Q1008 NOSIG",
                "EHRD 210125Z AUTO 32006KT 290V360 9999 FEW025 02/00 Q1008 NOSIG",
                "EHRD 210055Z AUTO 31004KT 280V340 9999 FEW044 01/00 Q1007 NOSIG",
                "EHRD 202355Z AUTO 31006KT 280V340 9999 FEW015CB 02/02 Q1006 NOSIG",
                "EHRD 202325Z AUTO 32006KT 270V010 9999 -RA FEW003 FEW015CB SCT025 BKN031 03/02 Q1005 NOSIG",
                "EHRD 202255Z AUTO 34007KT 310V020 9999 FEW015CB SCT021 BKN026 04/02 Q1005 NOSIG",
                "EHRD 202225Z AUTO 28007KT 250V320 9999 FEW015CB SCT030 BKN043 03/02 Q1004 NOSIG",
                "EHRD 202155Z AUTO 26004KT 230V300 9999 FEW015CB SCT018 03/02 Q1004 NOSIG",
                "EHRD 202125Z AUTO 26004KT 9999 -DZ SCT018 SCT021 BKN027 03/02 Q1003 NOSIG",
                "EHRD 202055Z AUTO 26003KT 9999 -RA FEW044 OVC049 03/02 Q1003 NOSIG",
                "COR EHRD 202025Z AUTO 27003KT 9999 BKN046/// 03/02 Q1003 NOSIG",
                "COR EHRD 201855Z AUTO 28003KT 5000 -DZ SCT032 OVC036 03/02 Q1001 BECMG 9999 NSW",
                "EHRD 201825Z AUTO 00000KT 8000 FEW047 03/02 Q1000 TEMPO 7000",
                "EHRD 201755Z AUTO 36001KT 9000 DZ FEW004 BKN009 BKN011 03/03 Q1000 TEMPO 7000",
                "EHRD 201725Z AUTO VRB01KT 9999 DZ FEW009 BKN031 03/02 Q1000 NOSIG",
                "EHRD 201655Z AUTO VRB01KT 9999 -RA FEW028 SCT045 BKN049 03/02 Q1000 NOSIG",
                "EHRD 201625Z AUTO VRB02KT 9999 -DZ BKN038 03/02 Q0999 NOSIG",
                "EHRD 201555Z AUTO 18005KT 150V210 9999 NSC 04/02 Q0999 NOSIG",
                "EHRD 201455Z AUTO 17008KT 9999 FEW032 SCT036 OVC041 04/02 Q0999 NOSIG",
                "EHRD 201425Z AUTO 17008KT 140V200 9999 SCT030 BKN035 04/03 Q0999 NOSIG",
                "EHRD 201355Z AUTO 18009KT 9999 FEW037 BKN041 04/02 Q0999 NOSIG",
                "EHRD 201325Z AUTO 19009KT 9999 BKN037 OVC041 04/03 Q0999 NOSIG",
                "EHRD 201255Z AUTO 18010KT 9999 FEW008 BKN041 BKN045 04/03 Q1000 NOSIG",
                "EHRD 201225Z AUTO 19009KT 160V220 9999 SCT007 BKN008 04/03 Q1000 NOSIG",
                "EHRD 201155Z AUTO 19008KT 170V230 9999 FEW007 SCT008 BKN013 04/03 Q1001 NOSIG",
                "EHRD 201125Z AUTO 19009KT 130V250 9999 OVC006 04/03 Q1002 NOSIG",
                "EHRD 201055Z AUTO 19008KT 150V220 9999 BKN007 OVC008 04/03 Q1002 NOSIG",
                "EHRD 201025Z AUTO 19008KT 140V220 9999 OVC006 03/02 Q1003 NOSIG",
                "EHRD 200955Z AUTO 18008KT 150V210 9999 BKN006 OVC007 03/02 Q1003 NOSIG",
                "EHRD 200925Z AUTO 19007KT 160V220 9999 BKN006/// OVC007/// 03/02 Q1003 NOSIG",
                "EHRD 200855Z AUTO 19008KT 9999 FEW022 SCT028 02/01 Q1004 NOSIG",
                "EHRD 200825Z AUTO 18008KT 150V210 9999 NSC 02/01 Q1004 NOSIG",
                "EHRD 200755Z AUTO 19011KT 160V220 9999 NSC 02/01 Q1004 NOSIG",
                "EHRD 200655Z AUTO 18009KT 130V270 9999 NSC 02/01 Q1004 NOSIG",
                "EHRD 200555Z AUTO 20007KT 9999 FEW016 BKN022 BKN033 02/01 Q1005 NOSIG",
                "EHRD 200525Z AUTO 19009KT 9999 -UP FEW015 SCT022 BKN037 03/01 Q1005 NOSIG",
                "EHRD 200225Z AUTO 22007KT 200V270 9999 FEW028 02/00 Q1007 NOSIG",
                "EHRD 200155Z AUTO 24008KT 210V270 9999 FEW028 SCT038 03/00 Q1007 NOSIG",
                "EHRD 200125Z AUTO 23006KT 9999 SCT026 BKN032 BKN045 03/00 Q1007 NOSIG",
                "EHRD 200055Z AUTO 24008KT 9999 FEW015CB SCT027 03/00 Q1007 NOSIG",
                "EHRD 192355Z AUTO 25008KT 9999 FEW030 SCT037 04/01 Q1007 NOSIG",
                "EHRD 192325Z AUTO 24010KT 9999 FEW035 03/00 Q1007 TEMPO 7000 -SHRAGS SCT020CB",
                "EHRD 192255Z AUTO 22010KT 9999 FEW015CB 03/01 Q1007 TEMPO 7000 -SHRAGS SCT020CB",
                "EHRD 192155Z AUTO 21010KT 9999 FEW015CB SCT038 04/00 Q1007 TEMPO 7000 -SHRAGS SCT020CB",
                "EHRD 192125Z AUTO 24011KT 9999 FEW015CB SCT035 04/00 Q1007 TEMPO 7000 -SHRAGS SCT020CB",
                "EHRD 192055Z AUTO 23007KT 9999 NSC 02/M01 Q1007 TEMPO 7000 -SHRAGS SCT020CB",
                "EHRD 191955Z AUTO 25008KT 9999 FEW015CB SCT030 03/M00 Q1007 REDZ TEMPO 7000 -SHRAGS",
                "EHRD 191855Z AUTO 25010KT 220V280 9999 FEW034 05/00 Q1007 TEMPO 7000 -SHRAGS FEW020CB",
                "EHRD 191825Z AUTO 25007KT 220V280 9999 FEW015CB SCT027 BKN036 04/01 Q1007 TEMPO 7000 -SHRAGS",
                "EHRD 191755Z AUTO 25011KT 9999 FEW015CB 04/01 Q1007 NOSIG",
                "EHRD 191625Z AUTO 24007KT 9999 FEW024 SCT027 04/01 Q1007 TEMPO 7000 -SHRA FEW020CB",
                "EHRD 191555Z AUTO 26009KT 230V290 9999 NSC 05/01 Q1007 TEMPO 7000 -SHRA FEW020CB",
                "EHRD 191525Z AUTO 25011KT 9999 NCD 05/01 Q1007 TEMPO 7000 -SHRA FEW020CB",
                "EHRD 191425Z AUTO 25012KT 220V290 9999 FEW022 06/02 Q1007 NOSIG",
                "EHRD 191355Z AUTO 25011KT 210V280 9999 SCT023 BKN026 BKN030 06/02 Q1007 NOSIG",
                "EHRD 191325Z AUTO 25013KT 9999 FEW024 SCT028 BKN037 06/01 Q1007 NOSIG",
                "EHRD 191255Z AUTO 26012KT 230V290 9999 FEW031 06/00 Q1007 NOSIG",
                "EHRD 191225Z AUTO 24015KT 9999 SCT024 BKN027 BKN033 07/02 Q1007 NOSIG",
                "EHRD 191155Z AUTO 26010KT 220V300 9999 SCT019 BKN022 BKN027 07/03 Q1007 NOSIG",
                "EHRD 191125Z AUTO 26011KT 230V300 9999 FEW044 06/02 Q1007 NOSIG",
                "EHRD 191055Z AUTO 26007KT 230V290 9999 FEW020 05/02 Q1007 NOSIG",
                "EHRD 191025Z AUTO 26008KT 220V300 9999 SCT018 SCT025 BKN036 05/02 Q1008 NOSIG",
                "EHRD 190955Z AUTO 26007KT 230V290 9999 SCT019 BKN023 BKN042 05/02 Q1007 NOSIG",
                "EHRD 190925Z AUTO 26008KT 240V300 9999 NCD 04/02 Q1007 NOSIG",
                "EHRD 190855Z AUTO 26010KT 230V300 9999 FEW022 04/02 Q1007 NOSIG",
                "EHRD 190825Z AUTO 26009KT 230V290 9999 FEW018 SCT033 04/02 Q1007 NOSIG",
                "EHRD 190755Z AUTO 27008KT 240V300 9999 FEW019 SCT026 BKN034 04/02 Q1006 NOSIG",
                "EHRD 190725Z AUTO 27009KT 240V300 9999 FEW019 SCT023 BKN026 04/02 Q1006 NOSIG",
                "EHRD 190655Z AUTO 26008KT 230V300 9999 SCT018 SCT022 BKN028 04/02 Q1006 NOSIG",
                "EHRD 190625Z AUTO 27009KT 230V300 9999 SCT018 BKN022 BKN026 04/02 Q1005 NOSIG",
                "EHRD 190555Z AUTO 27009KT 240V300 9999 FEW020 BKN033 04/02 Q1005 NOSIG",
                "EHRD 190525Z AUTO 28010KT 230V310 9999 BKN035 BKN040 04/02 Q1005 NOSIG",
                "EHRD 190455Z AUTO 28010KT 240V320 9999 -RA BKN017 BKN027 OVC032 05/02 Q1005 NOSIG",
                "EHRD 190425Z AUTO 28008KT 250V320 9999 FEW019 BKN032 OVC037 05/02 Q1004 NOSIG",
                "EHRD 190355Z AUTO 28009KT 230V310 9999 FEW026 BKN029 OVC032 04/02 Q1004 NOSIG",
                "EHRD 190325Z AUTO 28007KT 250V320 9999 SCT016 SCT020 BKN038 04/03 Q1004 REDZ NOSIG",
                "COR EHRD 190255Z AUTO 28007KT 250V310 9999 FEW015CB SCT020 BKN033 04/03 Q1003 NOSIG",
                "EHRD 181825Z AUTO 23004KT 9999 NSC 03/02 Q1001 TEMPO 28015G25KT 4000 SHRAGS SCT020CB",
                "EHRD 181755Z AUTO 26006KT 230V290 9999 NSC 05/02 Q1001 TEMPO 28015G25KT 4000 SHRAGS SCT020CB",
                "EHRD 181725Z AUTO 26006KT 230V300 9999 NSC 04/02 Q1001 TEMPO 28015G25KT 4000 SHRAGS SCT020CB",
                "EHRD 181625Z AUTO 27009KT 230V300 9999 NSC 05/01 Q1001 NOSIG",
                "EHRD 181555Z AUTO 27008KT 230V320 9999 FEW026 05/02 Q1001 NOSIG",
                "EHRD 181525Z AUTO 28010KT 240V310 9999 NCD 05/01 Q1001 NOSIG",
                "EHRD 181455Z AUTO 27011KT 240V320 9999 FEW023 05/02 Q1000 NOSIG",
                "EHRD 181425Z AUTO 28014G26KT 240V320 9999 SCT021 BKN026 OVC030 06/02 Q1000 NOSIG",
                "EHRD 181355Z AUTO 28016KT 240V320 9999 SCT019 BKN022 OVC027 06/02 Q1000 NOSIG",
                "EHRD 181325Z AUTO 28017KT 240V310 9999 FEW018 BKN024 OVC027 05/03 Q0999 NOSIG",
                "EHRD 181255Z AUTO 28016KT 250V310 9999 FEW020 BKN024 OVC027 05/02 Q0999 NOSIG",
                "EHRD 181225Z AUTO 28020G35KT 240V320 9999 FEW015CB BKN027 BKN032 06/03 Q0998 NOSIG",
                "EHRD 180925Z AUTO 28036G52KT 240V320 8000 FEW018 BKN021 OVC025 06/02 Q0990 TEMPO 27045G60KT",
                "EHRD 180855Z AUTO 27040G55KT 230V310 9999 FEW019 BKN023 OVC027 06/01 Q0988 TEMPO 27045G64KT",
                "EHRD 180825Z AUTO 27034G56KT 230V300 9999 FEW032 SCT037 OVC041 08/02 Q0986 TEMPO 27045G62KT",
                "EHRD 180755Z AUTO 26035G51KT 220V310 9999 FEW038 BKN044 OVC049 09/03 Q0985 NOSIG",
                "EHRD 180725Z AUTO 24030G42KT 210V280 9000 FEW035 BKN040 BKN044 10/05 Q0985 TEMPO 23035G52KT",
                "EHRD 180655Z AUTO 24031G46KT 210V270 9000 FEW040 SCT049 10/07 Q0985 TEMPO 23035G52KT",
                "COR EHRD 180625Z AUTO 23031G47KT 200V260 9000 FEW015CB SCT043 10/07 Q0985 TEMPO 23035G52KT",
                "EHRD 180525Z AUTO 23029G43KT 200V260 9999 BKN010 BKN012 OVC016 09/07 Q0986 BECMG BKN014",
                "EHRD 180455Z AUTO 21025G37KT 180V240 9999 BKN007 SCT015CB 07/06 Q0987 BECMG BKN014",
                "EHRD 180325Z AUTO 18019G29KT 150V220 3200 -SHUP FEW007 SCT008 BKN009 04/03 Q0993 BECMG BKN008",
                "EHRD 180155Z AUTO 19015KT 150V240 8000 -RA FEW012 BKN014 BKN015CB 04/03 Q0998 BECMG 5000 RA",
                "EHRD 180125Z AUTO 21015KT 180V240 9999 -RA BKN015 OVC021 05/03 Q1000 RERA REDZ NOSIG",
                "EHRD 180055Z AUTO 23014KT 200V260 9999 DZ FEW021 SCT028 BKN042 05/02 Q1001 NOSIG",
                "EHRD 180025Z AUTO 23016KT 9999 FEW021 SCT027 BKN040 06/02 Q1002 REDZ BECMG 7000 RA",
                "EHRD 172355Z AUTO 22013KT 9999 FEW025 BKN030 BKN036 06/02 Q1003 BECMG 7000 RA",
                "EHRD 172325Z AUTO 23014KT 200V260 9999 FEW027 SCT036 06/02 Q1004 NOSIG",
                "EHRD 172255Z AUTO 24014KT 210V270 9999 BKN027 BKN033 OVC037 06/02 Q1004 NOSIG",
                "EHRD 172225Z AUTO 24012KT 210V270 9999 FEW028 SCT033 06/01 Q1005 NOSIG",
                "EHRD 172155Z AUTO 25014KT 210V280 9999 SCT031 SCT036 BKN042 06/01 Q1005 NOSIG",
                "EHRD 172125Z AUTO 25013KT 210V290 9999 SCT032 06/01 Q1005 NOSIG",
                "EHRD 172055Z AUTO 25013KT 210V290 9999 BKN031 BKN037 OVC042 06/01 Q1005 NOSIG",
                "EHRD 172025Z AUTO 25012KT 230V290 9999 SCT032 BKN040 OVC044 06/01 Q1005 NOSIG",
                "EHRD 171955Z AUTO 26015KT 230V290 9999 BKN037 BKN048 06/00 Q1005 NOSIG",
                "EHRD 171925Z AUTO 26015G26KT 220V300 9999 FEW032 SCT036 BKN040 06/01 Q1005 NOSIG",
                "EHRD 171855Z AUTO 26015KT 200V300 9999 SCT031 BKN035 OVC044 06/01 Q1005 NOSIG",
                "EHRD 171825Z AUTO 26012KT 220V300 9999 BKN033 BKN038 OVC044 06/01 Q1005 NOSIG",
                "EHRD 171755Z AUTO 26014KT 220V280 9999 FEW029 BKN033 OVC039 06/01 Q1005 NOSIG",
                "EHRD 171725Z AUTO 26014KT 220V300 9999 SCT029 BKN033 BKN045 06/01 Q1005 NOSIG",
                "EHRD 171655Z AUTO 26015KT 230V290 9999 SCT031 BKN035 06/01 Q1005 NOSIG",
                "EHRD 171625Z AUTO 27014KT 220V300 9999 FEW031 06/01 Q1005 NOSIG",
                "EHRD 171555Z AUTO 27018KT 230V330 9999 FEW031 06/01 Q1004 NOSIG",
                "EHRD 171525Z AUTO 28018KT 250V310 9999 FEW031 06/01 Q1004 NOSIG",
                "EHRD 171455Z AUTO 28018G30KT 240V320 9999 SCT028 BKN031 BKN039 06/01 Q1003 NOSIG",
                "EHRD 171425Z AUTO 28018G29KT 250V320 9999 FEW028 BKN031 BKN038 06/01 Q1003 NOSIG",
                "EHRD 171355Z AUTO 28020G32KT 250V330 9999 FEW029 SCT032 06/01 Q1002 NOSIG",
                "EHRD 171325Z AUTO 29021G34KT 250V330 9999 FEW032 SCT039 06/00 Q1002 NOSIG",
                "EHRD 171255Z AUTO 28024G37KT 250V320 9999 FEW029 SCT033 BKN037 06/01 Q1001 NOSIG",
                "EHRD 171155Z AUTO 29023G34KT 240V320 9999 FEW027 SCT031 BKN035 06/01 Q1000 NOSIG",
                "EHRD 171125Z AUTO 29023KT 240V330 9999 BKN026/// BKN030/// OVC034/// 05/01 Q1000 NOSIG",
                "EHRD 171055Z AUTO 28020G31KT 250V320 9999 SCT026 BKN030 OVC036 05/01 Q1000 NOSIG",
                "EHRD 171025Z AUTO 28020G32KT 250V320 9999 SCT023 BKN028 BKN035 05/01 Q1000 NOSIG",
                "EHRD 170955Z AUTO 28020G32KT 230V320 9999 FEW024 SCT034 BKN039 05/01 Q0999 NOSIG",
                "EHRD 170925Z AUTO 28020KT 240V320 9999 FEW024 SCT031 BKN038 05/00 Q0998 NOSIG",
                "EHRD 170625Z AUTO 28017KT 240V320 9999 FEW029 SCT032 BKN041 04/M01 Q0995 TEMPO 7000 -SHRA",
                "EHRD 170555Z AUTO 28018G31KT 250V330 9999 FEW018CB SCT037 04/M01 Q0995 TEMPO 7000 -SHRA",
                "EHRD 170425Z AUTO 28017KT 240V320 9999 FEW011 03/M01 Q0993 TEMPO 7000 -SHRA",
                "EHRD 170355Z AUTO 28016G26KT 230V320 9999 FEW029/// 04/M01 Q0993 TEMPO 7000 -SHRA",
                "EHRD 170325Z AUTO 28018KT 240V320 9999 NSC 04/M01 Q0992 TEMPO 7000 -SHRA",
                "EHRD 170255Z AUTO 27019KT 240V310 9999 SCT025 BKN030 BKN037 04/M00 Q0992 TEMPO 7000 -SHRA",
                "EHRD 170155Z AUTO 27017KT 240V310 9999 FEW016CB SCT043 04/M00 Q0992 RERA TEMPO 7000 -SHRA",
                "EHRD 170125Z AUTO 27013KT 240V310 9999 FEW017CB SCT048 04/M00 Q0991 TEMPO 7000 -SHRA",
                "EHRD 170055Z AUTO 27012KT 250V320 9999 FEW026 SCT030 BKN037 04/00 Q0991 NOSIG",
                "EHRD 170025Z AUTO 27014KT 230V300 9999 SCT024 SCT038 05/01 Q0991 NOSIG",
                "EHRD 162355Z AUTO 29011KT 260V320 9999 FEW015CB SCT025 BKN039 04/01 Q0991 TEMPO 7000 -SHRA",
                "EHRD 162325Z AUTO 27014G24KT 240V300 9999 SCT028 BKN031 BKN035 05/01 Q0991 TEMPO 7000 -SHRA",
                "EHRD 162225Z AUTO 25015KT 210V280 9999 TS FEW016CB BKN042 OVC047 06/01 Q0991 REDZ NOSIG",
                "EHRD 162155Z AUTO 24012KT 220V280 9999 -RA FEW015CB 05/02 Q0991 RETS NOSIG",
                "EHRD 162055Z AUTO 25011KT 220V280 9999 TS FEW018CB SCT033 06/01 Q0991 NOSIG",
                "EHRD 162025Z AUTO 24012KT 220V280 9999 FEW015CB 05/01 Q0992 RERA NOSIG",
                "EHRD 161955Z AUTO 25008KT 220V290 9999 FEW021CB SCT048 05/M00 Q0992 NOSIG",
                "EHRD 161925Z AUTO 26015KT 220V290 9999 FEW024CB 06/M00 Q0992 NOSIG",
                "EHRD 161855Z AUTO 25010KT 210V290 9999 NSC 05/M00 Q0992 NOSIG",
                "EHRD 161825Z AUTO 25010KT 200V290 9999 FEW035 05/M00 Q0992 NOSIG",
                "EHRD 161755Z AUTO 26011KT 220V290 9999 FEW018CB SCT035 05/01 Q0992 NOSIG",
                "EHRD 161725Z AUTO 26012KT 230V290 9999 FEW020CB 06/01 Q0993 NOSIG",
                "EHRD 161655Z AUTO 26015KT 230V290 9999 NSC 06/00 Q0993 TEMPO 6000 SHRAGS",
                "EHRD 161625Z AUTO 26013KT 230V300 9999 NSC 06/00 Q0993 TEMPO 6000 SHRAGS",
                "EHRD 161525Z AUTO 26011KT 9999 FEW015CB 04/01 Q0993 TEMPO 6000 SHRAGS",
                "EHRD 161455Z AUTO 25013KT 220V290 9999 SCT030/// SCT039/// 06/01 Q0993 NOSIG",
                "EHRD 161425Z AUTO 26013KT 230V300 9999 SCT029 SCT034 06/01 Q0993 NOSIG",
                "EHRD 161355Z AUTO 26016KT 230V300 9999 SCT027 BKN032 BKN037 07/02 Q0993 NOSIG",
                "EHRD 161325Z AUTO 27015G25KT 230V300 9999 FEW028 SCT032 BKN039 06/01 Q0993 NOSIG",
                "EHRD 161255Z AUTO 27016KT 230V300 9999 SCT028/// BKN032/// BKN040/// 06/01 Q0993 NOSIG",
                "EHRD 161225Z AUTO 27017KT 230V310 9999 SCT028 SCT037 06/01 Q0993 NOSIG",
                "EHRD 161155Z AUTO 27016G28KT 230V300 9999 FEW017CB SCT045 06/02 Q0993 NOSIG",
                "EHRD 161055Z AUTO 28017KT 250V330 9999 FEW027 BKN030 BKN036 06/02 Q0993 NOSIG",
                "EHRD 161025Z AUTO 27016KT 230V310 9999 FEW025 BKN028 BKN032 06/02 Q0992 NOSIG",
                "COR EHRD 160955Z AUTO 27014KT 240V310 9999 FEW030 SCT036 06/02 Q0992 NOSIG",
                "EHRD 160925Z AUTO 25010KT 9999 FEW022 04/01 Q0992 BECMG 27018G28KT",
                "EHRD 160755Z AUTO 27009KT 240V310 9999 FEW015CB 03/02 Q0990 TEMPO 6000 SHRAGS",
                "EHRD 160455Z AUTO 25015KT 220V290 9999 FEW019 SCT022 BKN026 07/04 Q0989 TEMPO 7000 -SHRA",
                "EHRD 160425Z AUTO 25016KT 210V280 9999 FEW019 SCT030 07/04 Q0990 TEMPO 7000 -SHRA",
                "EHRD 160325Z AUTO 25016KT 220V290 9999 FEW019 SCT024 BKN028 07/04 Q0990 TEMPO 7000 -SHRA",
                "EHRD 160255Z AUTO 24014KT 9999 SCT018 BKN022 OVC026 07/04 Q0990 TEMPO 7000 -SHRA",
                "EHRD 160225Z AUTO 24013KT 210V270 9999 FEW019 SCT023 BKN029 07/04 Q0991 TEMPO 7000 -SHRA",
                "EHRD 160155Z AUTO 24014KT 210V280 9999 FEW017 07/04 Q0991 TEMPO 7000 -SHRA",
                "EHRD 160125Z AUTO 24014KT 210V270 9999 FEW015CB SCT047 07/04 Q0991 TEMPO 7000 -SHRA",
                "EHRD 152355Z AUTO 25013KT 200V280 9999 NSC 07/04 Q0992 TEMPO 7000 -SHRA FEW015CB",
                "EHRD 152325Z AUTO 25014KT 220V280 9999 FEW026 SCT043 BKN048 07/04 Q0992 NOSIG",
                "EHRD 152255Z AUTO 25014KT 220V280 9999 FEW022 07/04 Q0992 NOSIG",
                "EHRD 152225Z AUTO 26012KT 220V300 9999 NCD 07/04 Q0991 NOSIG",
                "EHRD 152155Z AUTO 27012KT 230V300 9999 NCD 07/04 Q0991 NOSIG",
                "EHRD 152125Z AUTO 27012KT 230V320 9999 NCD 07/05 Q0991 NOSIG",
                "EHRD 150955Z AUTO 19017KT 150V220 7000 -SHRA BKN010 FEW015CB 05/04 Q1004 REDZ TEMPO 7000",
                "EHRD 150925Z AUTO 19016KT 150V220 9999 OVC009 05/04 Q1005 TEMPO 7000 -RA",
                "EHRD 150855Z AUTO 18017KT 150V220 9999 BKN008/// OVC009/// 05/03 Q1006 TEMPO 7000 -RA",
                "EHRD 150825Z AUTO 18014KT 150V230 9999 BKN008 OVC009 04/03 Q1006 NOSIG",
                "EHRD 150755Z AUTO 19016KT 160V230 8000 OVC007 04/03 Q1007 NOSIG",
                "COR EHRD 150725Z AUTO 19015KT 150V220 6000 BKN005 OVC007 03/02 Q1008 NOSIG",
                "EHRD 150655Z AUTO 19015G25KT 150V230 2400 -RADZ BKN004 OVC006 03/02 Q1008 BECMG 3500",
                "EHRD 150625Z AUTO 19015G25KT 160V220 2600 BR OVC005 03/02 Q1009 NOSIG",
                "EHRD 150555Z AUTO 19016KT 160V220 4700 BR BKN007 OVC008 04/02 Q1009 NOSIG",
                "EHRD 150455Z AUTO 19014KT 170V240 6000 FEW010 SCT013 OVC019 04/02 Q1010 BECMG BKN012",
                "EHRD 150425Z AUTO 19011KT 160V220 7000 OVC021 04/02 Q1011 BECMG BKN012",
                "EHRD 150355Z AUTO 18011KT 6000 FEW009 SCT013 OVC019 04/02 Q1011 BECMG BKN012",
                "EHRD 150325Z AUTO 19010KT 160V220 6000 FEW008 OVC017 04/02 Q1012 BECMG BKN012",
                "EHRD 150255Z AUTO 19010KT 140V220 6000 FEW008 SCT011 OVC018 04/02 Q1012 BECMG BKN012",
                "EHRD 150225Z AUTO 19010KT 160V240 6000 FEW008 BKN009 BKN010 04/02 Q1013 NOSIG",
                "EHRD 150155Z AUTO 20010KT 160V250 6000 FEW009/// SCT010/// BKN014/// 04/02 Q1014 BECMG BKN008",
                "EHRD 150125Z AUTO 20010KT 170V240 7000 SCT010 OVC012 04/02 Q1014 BECMG BKN008",
                "EHRD 150055Z AUTO 21011KT 170V230 6000 OVC010 04/02 Q1014 BECMG BKN008",
                "COR EHRD 150025Z AUTO 19009KT 170V230 7000 OVC010 04/02 Q1015 BECMG BKN008",
                "EHRD 142355Z AUTO 18009KT 150V220 7000 SCT010/// OVC012/// 04/02 Q1015 NOSIG",
                "EHRD 142255Z AUTO 20010KT 160V230 7000 OVC010 04/02 Q1016 NOSIG",
                "EHRD 142225Z AUTO 18009KT 150V210 8000 SCT012 OVC014 03/01 Q1016 BECMG 7000",
                "EHRD 142155Z AUTO 16007KT 8000 NCD 02/00 Q1016 BECMG 7000 TEMPO BKN012",
                "EHRD 142125Z AUTO 16007KT 9000 NCD 03/01 Q1017 TEMPO BKN012",
                "EHRD 141925Z AUTO 15005KT 120V190 9999 NCD 03/01 Q1017 NOSIG",
                "EHRD 141825Z AUTO 13007KT 100V170 9999 NCD 03/01 Q1017 NOSIG",
                "EHRD 141725Z AUTO 11005KT 090V160 9999 NCD 03/01 Q1018 NOSIG",
                "EHRD 141655Z AUTO 10005KT 070V140 9999 NCD 03/01 Q1018 NOSIG",
                "EHRD 141455Z AUTO 11008KT 080V140 9999 OVC019 05/01 Q1018 NOSIG",
                "EHRD 141425Z AUTO 10007KT 070V130 9999 OVC020 06/02 Q1018 NOSIG",
                "EHRD 141355Z AUTO 11007KT 070V140 9999 NCD 05/01 Q1018 NOSIG",
                "EHRD 141325Z AUTO 12008KT 040V160 9999 NCD 05/01 Q1018 NOSIG",
                "EHRD 141255Z AUTO 12008KT 090V170 9999 FEW019 05/01 Q1019 NOSIG",
                "EHRD 141225Z AUTO 13009KT 100V160 9999 NCD 05/01 Q1019 NOSIG",
                "EHRD 141155Z AUTO 11010KT 080V140 9999 NCD 05/01 Q1019 NOSIG",
                "EHRD 141125Z AUTO 11010KT 070V150 9999 NCD 05/01 Q1020 NOSIG",
                "EHRD 141055Z AUTO 11010KT 080V140 9999 NCD 04/01 Q1020 NOSIG",
                "EHRD 141025Z AUTO 10010KT 060V140 9999 NCD 04/01 Q1020 NOSIG",
                "EHRD 140955Z AUTO 09007KT 060V130 9000 NCD 03/01 Q1020 NOSIG",
                "EHRD 140925Z AUTO 09008KT 050V120 8000 NCD 03/01 Q1020 NOSIG",
                "EHRD 140855Z AUTO 08009KT 060V120 8000 NCD 02/01 Q1020 NOSIG",
                "EHRD 140825Z AUTO 08011KT 8000 NCD 02/01 Q1020 BECMG 9000",
                "EHRD 140755Z AUTO 08009KT 7000 NCD 02/00 Q1020 BECMG 9000",
                "EHRD 140725Z AUTO 08008KT 050V110 8000 BKN033 03/01 Q1020 NOSIG",
                "EHRD 140625Z AUTO 08009KT 040V130 9000 OVC032 03/01 Q1020 NOSIG",
                "EHRD 140555Z AUTO 08009KT 050V110 9000 OVC031 04/01 Q1020 NOSIG",
                "EHRD 140425Z AUTO 08009KT 050V110 9999 OVC028 04/01 Q1020 NOSIG",
                "EHRD 140325Z AUTO 08009KT 050V110 9999 OVC028 04/01 Q1020 NOSIG",
                "EHRD 132355Z AUTO 09005KT 060V130 9999 OVC030 02/00 Q1021 NOSIG",
                "EHRD 132325Z AUTO 08005KT 060V120 9999 OVC030 02/00 Q1022 NOSIG",
                "EHRD 132055Z AUTO 09005KT 070V130 9999 NCD 02/00 Q1022 NOSIG",
                "EHRD 131955Z AUTO 10006KT 070V130 9999 NCD 03/01 Q1022 NOSIG",
                "EHRD 131825Z AUTO 11005KT 080V150 9999 FEW025 04/01 Q1022 NOSIG",
                "EHRD 131725Z AUTO 11010KT 080V140 9999 FEW026 05/01 Q1022 NOSIG",
                "EHRD 131655Z AUTO 11011KT 080V140 9999 OVC023 05/02 Q1022 NOSIG",
                "EHRD 131625Z AUTO 11012KT 080V140 9999 OVC023 06/03 Q1022 NOSIG",
                "EHRD 131555Z AUTO 09009KT 070V130 9000 OVC021 06/04 Q1022 BECMG 8000",
                "EHRD 131525Z AUTO 10007KT 060V130 6000 FEW012 SCT016 OVC020 06/04 Q1022 BECMG 8000",
                "EHRD 131425Z AUTO 10008KT 070V130 4500 BR FEW009 BKN011 BKN013 06/05 Q1022 BECMG 5000 BKN025",
                "EHRD 131355Z AUTO 11007KT 070V130 4500 BR SCT010 BKN012 OVC015 06/05 Q1022 BECMG 5000 BKN025",
                "EHRD 131325Z AUTO 10006KT 070V140 4000 BR BKN010 OVC012 06/04 Q1023 BECMG 5000 BKN025",
                "EHRD 131255Z AUTO 10007KT 3500 BR FEW009 BKN011 OVC013 06/04 Q1023 BECMG 5000 BKN025",
                "COR EHRD 131225Z AUTO 10007KT 3500 BR FEW009 BKN011 OVC013 06/04 Q1023 BECMG 5000 BKN025",
                "EHRD 131155Z AUTO 13006KT 090V170 3900 BR BKN008 BKN009 OVC010 06/04 Q1024 BECMG 5000 BKN010",
                "EHRD 131125Z AUTO 11006KT 080V140 3800 BR BKN007 BKN009 OVC010 06/04 Q1024 NOSIG",
                "EHRD 131055Z AUTO 11005KT 070V150 3300 BR BKN006 OVC007 05/04 Q1025 NOSIG",
                "EHRD 131025Z AUTO 12007KT 080V160 2700 BR OVC005 05/04 Q1025 NOSIG",
                "EHRD 130955Z AUTO 13006KT 2500 BR OVC004 04/04 Q1025 BECMG BKN005",
                "EHRD 130925Z AUTO 12008KT 2600 BR BKN004 OVC005 04/04 Q1025 BECMG BKN005",
                "EHRD 130855Z AUTO 12008KT 090V150 2500 BR OVC004 04/04 Q1024 BECMG 3000 BKN005",
                "EHRD 130825Z AUTO 13006KT 2600 BR SCT002 OVC003 04/04 Q1024 TEMPO BKN002",
                "EHRD 130755Z AUTO 13006KT 080V160 1000 R06/1500N BR VV001 03/03 Q1024 TEMPO 1500 BR BKN002",
                "EHRD 130655Z AUTO 10007KT 0750 R06/1100N FG VV001 03/03 Q1024 TEMPO 1200 BR BKN002",
                "EHRD 130625Z AUTO 10007KT 070V130 0650 R06/0900N FG VV000 04/04 Q1024 NOSIG",
                "EHRD 130555Z AUTO 10008KT 0650 R06/0900D FG VV000 04/04 Q1024 NOSIG",
                "EHRD 130455Z AUTO 11005KT 080V140 1300 R06/1800D BR OVC001 04/04 Q1024 TEMPO 0800 FG",
                "EHRD 130425Z AUTO 11006KT 070V140 2300 BR BKN002 OVC003 05/04 Q1025 TEMPO BKN003",
                "EHRD 130355Z AUTO 10007KT 070V130 2000 BR OVC002/// 05/04 Q1025 TEMPO BKN003",
                "COR EHRD 130325Z AUTO 10007KT 070V130 1200 R06/P2000N BR OVC001/// 05/04 Q1025 TEMPO 2000",
                "EHRD 130255Z AUTO 11006KT 2700 BR BKN003 OVC004 05/05 Q1025 NOSIG",
                "EHRD 130225Z AUTO 11007KT 080V140 2700 BR OVC003 05/05 Q1025 NOSIG",
                "EHRD 130155Z AUTO 10006KT 3600 BR SCT005 OVC006 05/05 Q1025 NOSIG",
                "EHRD 130125Z AUTO 11004KT 3800 BR OVC006 05/05 Q1025 NOSIG",
                "EHRD 130055Z AUTO 10004KT 4800 BR OVC006 05/04 Q1025 NOSIG",
                "EHRD 130025Z AUTO 11004KT 080V140 5000 BR OVC007 05/04 Q1026 NOSIG",
                "EHRD 122355Z AUTO 14005KT 5000 BR OVC007 06/04 Q1026 NOSIG",
                "EHRD 122325Z AUTO 12002KT 6000 OVC007 06/04 Q1026 BECMG 4000",
                "EHRD 122255Z AUTO 13004KT 090V160 7000 OVC008 06/04 Q1026 BECMG 4000",
                "EHRD 122225Z AUTO 13004KT 7000 OVC008 06/04 Q1026 BECMG 4000",
                "EHRD 122155Z AUTO 11006KT 080V140 6000 OVC007 06/04 Q1026 BECMG 4000",
                "EHRD 122125Z AUTO 13003KT 100V160 7000 OVC008 06/04 Q1026 BECMG 4000",
                "EHRD 122055Z AUTO 09002KT 6000 OVC009 05/05 Q1026 BECMG 4000",
                "EHRD 122025Z AUTO 07006KT 5000 BR BKN008 OVC009 05/05 Q1027 BECMG 4500 BKN007",
                "EHRD 121955Z AUTO 08003KT 6000 SCT009 OVC010 05/04 Q1026 BECMG 4500 BKN007",
                "EHRD 121925Z AUTO 09004KT 7000 BKN013 OVC015 05/04 Q1026 BECMG BKN007",
                "EHRD 121855Z AUTO 08003KT 7000 SCT011 04/04 Q1026 BECMG BKN007",
                "EHRD 121825Z AUTO 10003KT 7000 NSC 05/04 Q1026 BECMG BKN007",
                "EHRD 121755Z AUTO 08002KT 7000 NSC 05/04 Q1026 BECMG 6000 BKN007",
                "EHRD 121725Z AUTO 10002KT 9000 NSC 05/03 Q1026 BECMG 6000 BKN007",
                "EHRD 121625Z AUTO 11004KT 070V140 9999 OVC015 06/04 Q1026 NOSIG",
                "EHRD 121525Z AUTO 09003KT 060V120 9000 FEW009 BKN012 06/04 Q1026 NOSIG",
                "EHRD 121455Z AUTO 09005KT 8000 SCT012 OVC015 06/05 Q1026 TEMPO BKN008",
                "EHRD 121425Z AUTO 08004KT 060V120 7000 FEW008 OVC010 06/05 Q1026 TEMPO BKN008",
                "EHRD 121355Z AUTO 06003KT 8000 SCT009 OVC012 06/05 Q1026 TEMPO BKN008",
                "EHRD 121325Z AUTO 06003KT 030V090 7000 FEW009 SCT010 OVC012 07/05 Q1026 TEMPO BKN008",
                "EHRD 121255Z AUTO 07003KT 040V100 6000 FEW007 SCT009 BKN011 06/05 Q1026 NOSIG",
                "EHRD 121225Z AUTO 08003KT 050V120 5000 BR FEW007 OVC008 06/05 Q1026 TEMPO 5000",
                "COR EHRD 121155Z AUTO 08004KT 3100 BR SCT002 BKN004 BKN005 06/06 Q1026 BECMG 5000 BKN006",
                "EHRD 121055Z AUTO 04004KT 360V060 2900 BR BKN003 OVC004 06/05 Q1027 TEMPO 3500 BKN004",
                "COR EHRD 121025Z AUTO 04004KT 3100 BR SCT003 BKN004 OVC005 06/05 Q1027 TEMPO BKN005",
                "EHRD 120955Z AUTO 04004KT 010V080 2800 BR BKN003 OVC004 06/05 Q1027 TEMPO BKN006",
                "EHRD 120925Z AUTO 06005KT 2000 BR OVC002 06/05 Q1026 TEMPO 3500 BKN004",
                "EHRD 120825Z AUTO 02003KT 340V060 2800 BR OVC003 06/05 Q1026 TEMPO 3500",
                "EHRD 120755Z AUTO 01003KT 340V040 3300 BR OVC003 06/05 Q1026 TEMPO 2500",
                "EHRD 120725Z AUTO 36002KT 3600 BR BKN004 OVC005 06/05 Q1026 TEMPO 2500 BKN003",
                "EHRD 120655Z AUTO VRB02KT 3300 BR OVC003 06/05 Q1026 TEMPO 2000",
                "EHRD 120625Z AUTO 01002KT 3300 BR OVC004 06/05 Q1025 TEMPO 2000 BKN003",
                "EHRD 120555Z AUTO 35003KT 310V020 3100 BR OVC004 06/05 Q1025 NOSIG",
                "EHRD 120525Z AUTO 02003KT 2900 BR OVC005 06/06 Q1025 NOSIG",
                "EHRD 120455Z AUTO 36004KT 330V030 2900 BR NSC 06/06 Q1025 BECMG BKN003",
                "EHRD 120425Z AUTO 35004KT 320V020 2700 BR NSC 06/06 Q1025 BECMG BKN003",
                "EHRD 120355Z AUTO 34003KT 310V010 2800 BR NSC 06/06 Q1025 BECMG BKN003",
                "EHRD 120325Z AUTO 01004KT 2800 BR SCT003 OVC004 06/06 Q1025 NOSIG",
                "COR EHRD 120255Z AUTO 36003KT 320V040 2900 BR BKN003/// BKN005/// 06/06 Q1025 TEMPO 3000",
                "COR EHRD 120225Z AUTO 35004KT 310V030 2800 BR SCT003 OVC004 06/06 Q1025 TEMPO 3000",
                "EHRD 120125Z AUTO 36003KT 330V030 2600 BR BKN003 OVC004 06/06 Q1024 TEMPO SCT005",
                "EHRD 120055Z AUTO 01004KT 330V030 2700 BR FEW004 OVC005 06/06 Q1024 BECMG SCT005",
                "COR EHRD 120025Z AUTO 36004KT 330V030 2700 BR FEW004 OVC005 06/06 Q1024 BECMG BKN003",
                "COR EHRD 112355Z AUTO 01005KT 2400 BR BKN003 OVC004 06/06 Q1024 NOSIG",
                "EHRD 112325Z AUTO 35005KT 320V020 2200 BR OVC002 06/06 Q1024 NOSIG",
                "EHRD 112255Z AUTO 34005KT 2500 BR OVC003 06/06 Q1024 NOSIG",
                "EHRD 112225Z AUTO 36004KT 2500 BR BKN003 BKN004 OVC005 06/06 Q1023 NOSIG",
                "EHRD 112155Z AUTO 35005KT 320V030 2500 BR BKN002 OVC004 06/06 Q1023 TEMPO BKN002",
                "EHRD 112125Z AUTO 36004KT 330V040 2800 BR BKN003/// OVC004/// 06/06 Q1023 TEMPO BKN002",
                "EHRD 112055Z AUTO 34004KT 320V020 2300 BR OVC002 06/06 Q1023 TEMPO BKN003",
                "EHRD 112025Z AUTO 34005KT 300V020 2700 BR BKN002 OVC003 06/06 Q1023 TEMPO BKN002",
                "EHRD 111955Z AUTO 35004KT 310V010 2800 BR OVC003 06/06 Q1023 TEMPO BKN002",
                "EHRD 111925Z AUTO 34004KT 310V010 2800 BR BKN003 OVC004 06/06 Q1022 TEMPO BKN002",
                "EHRD 111855Z AUTO 01005KT 3200 BR OVC004 06/06 Q1022 TEMPO BKN001",
                "EHRD 111825Z AUTO 36004KT 330V040 3000 BR OVC004 06/06 Q1021 TEMPO BKN001",
                "EHRD 111755Z AUTO 36004KT 330V030 2600 BR OVC003 06/06 Q1021 TEMPO BKN001",
                "EHRD 111725Z AUTO 34004KT 300V020 1800 BR FEW001 BKN003 OVC004 06/06 Q1021 TEMPO SCT003 BKN004",
                "EHRD 111655Z AUTO 35005KT 320V020 1300 R06/P2000N BR OVC001 06/06 Q1020 TEMPO SCT003 BKN004",
                "EHRD 111625Z AUTO VRB02KT 2200 BR BKN004 OVC005 06/06 Q1020 TEMPO SCT002 BKN003",
                "EHRD 111525Z AUTO 01005KT 340V040 1500 BR OVC001 06/06 Q1020 NOSIG",
                "EHRD 111455Z AUTO 01006KT 330V030 1800 BR OVC002 06/06 Q1019 NOSIG",
                "EHRD 111425Z AUTO 04006KT 360V060 2400 BR OVC003 07/06 Q1019 TEMPO BKN005",
                "EHRD 111355Z AUTO 02005KT 350V050 2600 BR OVC004 07/06 Q1018 TEMPO BKN005",
                "EHRD 111325Z AUTO 36004KT 320V040 2800 BR SCT003/// OVC004/// 07/06 Q1018 TEMPO BKN003",
                "EHRD 111255Z AUTO 02004KT 330V040 3200 BR BKN003 OVC005 07/06 Q1017 TEMPO BKN004",
                "EHRD 111225Z AUTO 02004KT 3500 BR OVC048 07/06 Q1017 TEMPO BKN003",
                "COR EHRD 111155Z AUTO 01004KT 3100 BR SCT003/// OVC048/// 07/06 Q1017 TEMPO BKN003",
                "EHRD 111125Z AUTO 35003KT 310V030 4600 BR OVC046/// 06/06 Q1017 NOSIG",
                "EHRD 111055Z AUTO 01002KT 5000 BR BKN008/// OVC049/// 06/05 Q1017 TEMPO 4000",
                "COR EHRD 111025Z AUTO 04002KT 6000 OVC006/// 05/05 Q1017 TEMPO 4000 BR",
                "EHRD 110955Z AUTO 04001KT 5000 BR OVC006 04/04 Q1016 NOSIG",
                "EHRD 110925Z AUTO 09002KT 3600 BR OVC006/// 03/03 Q1016 NOSIG",
                "COR EHRD 110855Z AUTO 06002KT 1000 R24/1100N BR SCT001 OVC007 03/03 Q1016 BECMG 1500",
                "EHRD 110825Z AUTO 04002KT 0150 R24/0200N FG VV000 01/01 Q1015 BECMG 0350",
                "EHRD 110755Z AUTO 07002KT 0150 R24/0225N FG OVC000 01/01 Q1015 BECMG 0350",
                "EHRD 110725Z AUTO 07002KT 0200 R24/0275N -SG VV000 00/00 Q1014 BECMG 1200 BR",
                "EHRD 110655Z AUTO VRB02KT 0450 R24/0650N FG OVC000/// 00/00 Q1014 BECMG 0600",
                "EHRD 110625Z AUTO VRB02KT 0250 R24/0400U FG OVC000 01/01 Q1013 NOSIG",
                "EHRD 110555Z AUTO 34003KT 0350 R24/0375D FG OVC000 00/00 Q1013 NOSIG",
                "EHRD 110525Z AUTO 04002KT 0450 R24/0900U FG OVC000 01/01 Q1012 NOSIG",
                "EHRD 110455Z AUTO VRB02KT 0400 R24/0500N FG FEW000 01/01 Q1012 NOSIG",
                "EHRD 110425Z AUTO VRB02KT 0350 R24/0350D FG OVC000 02/01 Q1012 NOSIG",
                "EHRD 110355Z AUTO VRB01KT 0300 R24/0250D FG OVC000 01/01 Q1011 NOSIG",
                "EHRD 110325Z AUTO 00000KT 0200 R24/0275N FG SCT000/// 03/02 Q1011 NOSIG",
                "EHRD 110255Z AUTO 16004KT 0550 R24/0700D FG BKN020 OVC023 03/03 Q1011 TEMPO 1500 BCFG",
                "EHRD 110225Z AUTO 13003KT 2200 BR OVC016 02/02 Q1011 TEMPO 1500 BCFG",
                "EHRD 110155Z AUTO 16001KT 0450 R24/0650D FG NSC 04/04 Q1010 NOSIG",
                "EHRD 110125Z AUTO 10003KT 0750 R24/1100D FG NSC 02/02 Q1010 NOSIG",
                "EHRD 110055Z AUTO 16003KT 2100 BR NSC 04/04 Q1010 BECMG 1500 BCFG",
                "EHRD 102225Z AUTO 19006KT 160V220 6000 OVC042 06/06 Q1009 TEMPO BKN008",
                "COR EHRD 102155Z AUTO 18006KT 7000 FEW009 OVC042 07/06 Q1009 TEMPO BKN008",
                "EHRD 102125Z AUTO 17007KT 8000 SCT010 BKN013 BKN024 07/06 Q1009 BECMG 7000",
                "EHRD 102055Z AUTO 17006KT 140V200 9000 FEW012 SCT016 BKN020 07/06 Q1009 BECMG 7000",
                "EHRD 102025Z AUTO 18005KT 160V220 9999 SCT033 BKN037 BKN041 07/06 Q1008 BECMG 7000",
                "EHRD 101955Z AUTO 18007KT 9999 FEW015 BKN020 OVC025 08/06 Q1008 BECMG 7000",
                "EHRD 101925Z AUTO 17006KT 140V200 9999 BKN017 BKN020 OVC027 07/06 Q1008 TEMPO BKN012",
                "EHRD 101855Z AUTO 17007KT 9999 FEW022 SCT025 OVC029 07/06 Q1008 TEMPO BKN012",
                "EHRD 101825Z AUTO 18007KT 150V210 9999 OVC017 08/06 Q1008 TEMPO BKN012",
                "EHRD 101755Z AUTO 19007KT 9999 OVC016 08/07 Q1008 TEMPO BKN012",
                "EHRD 101725Z AUTO 18008KT 150V210 9999 BKN007 OVC008 08/07 Q1007 TEMPO BKN014",
                "EHRD 101655Z AUTO 17009KT 140V230 9999 FEW007 SCT008 BKN013 08/07 Q1007 NOSIG",
                "EHRD 101625Z AUTO 18007KT 150V210 9999 FEW007 BKN013 OVC015 08/07 Q1007 NOSIG",
                "EHRD 101555Z AUTO 18008KT 150V210 9999 FEW007 SCT009 OVC010 08/07 Q1007 NOSIG",
                "EHRD 101525Z AUTO 18008KT 150V210 9999 BKN007 OVC008 08/07 Q1006 NOSIG",
                "EHRD 101455Z AUTO 18008KT 150V230 9999 SCT006 BKN008 OVC009 08/07 Q1006 REDZ NOSIG",
                "EHRD 101425Z AUTO 18009KT 150V210 9999 -RA BKN006 OVC008 08/07 Q1006 NOSIG",
                "EHRD 101355Z AUTO 19009KT 160V220 9999 -DZ OVC006 08/07 Q1006 REDZ NOSIG",
                "EHRD 101325Z AUTO 19010KT 150V220 9999 -DZ OVC006 08/07 Q1006 REDZ NOSIG",
                "EHRD 101255Z AUTO 19010KT 9999 -RADZ BKN007 BKN008 OVC010 07/07 Q1006 NOSIG",
                "EHRD 101225Z AUTO 19010KT 160V220 9999 DZ BKN006 OVC007 07/07 Q1006 NOSIG",
                "EHRD 101155Z AUTO 18009KT 150V220 7000 -DZ BKN007 OVC008 07/06 Q1006 NOSIG",
                "EHRD 101125Z AUTO 18009KT 150V220 9999 -DZ BKN007 BKN008 FEW015CB 07/07 Q1006 NOSIG",
                "EHRD 101055Z AUTO 18009KT 150V210 9999 -RA SCT007 BKN008 FEW015CB 07/07 Q1007 NOSIG",
                "EHRD 101025Z AUTO 18008KT 150V210 9999 -RA BKN007 BKN008 FEW015CB 07/07 Q1007 RERA REDZ NOSIG",
                "EHRD 100955Z AUTO 18008KT 140V210 9999 DZ SCT007 OVC008 08/07 Q1007 NOSIG",
                "EHRD 100925Z AUTO 17009KT 9999 FEW007 BKN008 OVC010 08/07 Q1007 NOSIG",
                "EHRD 100855Z AUTO 17008KT 120V200 9999 FEW007 BKN008 OVC009 08/07 Q1006 NOSIG",
                "EHRD 100825Z AUTO 17008KT 140V200 9999 FEW006 SCT009 OVC010 07/07 Q1006 NOSIG",
                "EHRD 100755Z AUTO 17008KT 9999 FEW006 BKN010 OVC033 07/07 Q1006 NOSIG",
                "EHRD 100725Z AUTO 17009KT 9999 FEW005 BKN006 BKN008 07/07 Q1006 NOSIG",
                "EHRD 100655Z AUTO 17009KT 100V190 9999 BKN007 BKN008 OVC011 08/07 Q1006 NOSIG",
                "EHRD 100625Z AUTO 17008KT 120V280 9999 OVC008 08/07 Q1006 NOSIG",
                "EHRD 100455Z AUTO 16008KT 9000 BKN008 FEW015CB 07/06 Q1006 NOSIG",
                "EHRD 100425Z AUTO 16008KT 7000 -RA BKN009 FEW015CB 07/06 Q1006 RERA REDZ NOSIG",
                "EHRD 100355Z AUTO 16008KT 9000 -DZ OVC009 07/06 Q1006 NOSIG",
                "EHRD 100255Z AUTO 16006KT 130V190 9999 OVC010 07/06 Q1007 NOSIG",
                "EHRD 100225Z AUTO 16005KT 9000 BKN010 OVC012 07/06 Q1007 NOSIG",
                "EHRD 100155Z AUTO 16006KT 8000 BKN011 OVC015 07/06 Q1007 NOSIG",
                "EHRD 100055Z AUTO 17007KT 8000 BKN013 OVC016 07/05 Q1007 NOSIG",
                "EHRD 100025Z AUTO 17007KT 7000 BKN011 OVC014 06/05 Q1007 NOSIG",
                "EHRD 092355Z AUTO 17007KT 5000 -UP SCT010 OVC015 06/05 Q1007 NOSIG",
                "EHRD 092325Z AUTO 18006KT 5000 BR OVC010 06/05 Q1008 NOSIG",
                "EHRD 092255Z AUTO 20006KT 170V230 5000 BR FEW007 SCT009 BKN011 06/05 Q1008 NOSIG",
                "EHRD 092225Z AUTO 19007KT 160V220 5000 BR FEW007 OVC008 06/05 Q1008 NOSIG",
                "EHRD 092155Z AUTO 19008KT 160V220 5000 BR BKN007 OVC008 06/05 Q1008 TEMPO 2500",
                "EHRD 092125Z AUTO 20007KT 160V230 3800 BR BKN006 OVC007 06/05 Q1008 TEMPO 2500",
                "EHRD 092055Z AUTO 20006KT 160V230 4700 BR BKN006 OVC008 06/05 Q1008 TEMPO 2500",
                "EHRD 092025Z AUTO 18007KT 150V210 5000 BR OVC007 06/05 Q1008 TEMPO 4500 BR",
                "EHRD 091955Z AUTO 18007KT 7000 OVC008 06/04 Q1008 TEMPO 4500 BR",
                "EHRD 091925Z AUTO 18005KT 6000 SCT007 BKN009 OVC010 05/04 Q1007 BECMG 4000",
                "EHRD 091855Z AUTO 18005KT 120V210 6000 OVC007 06/04 Q1008 NOSIG",
                "EHRD 091825Z AUTO 17007KT 150V210 9000 OVC008 06/04 Q1007 BECMG 7000",
                "EHRD 091755Z AUTO 17007KT 9999 OVC011 06/04 Q1007 BECMG 7000 BKN008",
                "EHRD 091725Z AUTO 18007KT 150V210 9999 BKN010 BKN014 OVC016 06/04 Q1007 BECMG 7000 BKN008",
                "EHRD 091655Z AUTO 18009KT 9999 BKN010 OVC016 06/04 Q1007 BECMG 7000 BKN008",
                "EHRD 091555Z AUTO 16007KT 130V190 9999 BKN012 OVC015 05/03 Q1007 NOSIG",
                "EHRD 091525Z AUTO 16007KT 130V190 9999 OVC015 05/03 Q1007 BECMG BKN012",
                "EHRD 091455Z AUTO 15006KT 120V180 9999 OVC019/// 05/03 Q1007 NOSIG",
                "EHRD 091425Z AUTO 15007KT 120V180 9999 OVC018/// 05/03 Q1007 NOSIG",
                "EHRD 091325Z AUTO VRB02KT 9999 OVC020/// 04/02 Q1008 NOSIG",
                "EHRD 091255Z AUTO VRB02KT 8000 OVC022/// 03/02 Q1008 NOSIG",
                "COR EHRD 091225Z AUTO 10002KT 8000 NSC 03/02 Q1008 NOSIG",
                "EHRD 091155Z AUTO 10003KT 080V150 8000 NSC 03/02 Q1009 NOSIG",
                "EHRD 091055Z AUTO 10004KT 7000 NSC 02/01 Q1009 BECMG 8000",
                "EHRD 091025Z AUTO 09005KT 050V130 7000 NSC 02/01 Q1009 BECMG 8000",
                "EHRD 090955Z AUTO 09004KT 060V140 6000 NSC 01/00 Q1010 BECMG 8000",
                "EHRD 090925Z AUTO 10004KT 070V130 7000 NSC 01/M00 Q1010 BECMG 8000",
                "EHRD 090855Z AUTO 10004KT 7000 FEW007 SCT010 00/M00 Q1010 BECMG 8000",
                "EHRD 090825Z AUTO 09003KT 070V130 8000 NSC 00/M01 Q1011 NOSIG",
                "COR EHRD 090755Z AUTO 09005KT 060V120 7000 FEW009 BKN010 BKN018 00/M00 Q1011 BECMG SCT010",
                "EHRD 090725Z AUTO 10007KT 9000 OVC020 01/M00 Q1011 NOSIG",
                "EHRD 090325Z AUTO 09007KT 060V120 9999 NSC 01/M00 Q1014 NOSIG",
                "EHRD 090225Z AUTO 08006KT 050V110 9999 NSC 01/M00 Q1014 NOSIG",
                "EHRD 090155Z AUTO 08009KT 060V120 9999 NSC 01/M00 Q1014 NOSIG",
                "EHRD 090125Z AUTO 09010KT 050V110 9999 NSC 01/M00 Q1015 NOSIG",
                "EHRD 090055Z AUTO 09010KT 060V140 9999 NSC 01/M00 Q1015 NOSIG",
                "EHRD 090025Z AUTO 08012KT 050V110 9999 NSC 01/M01 Q1015 NOSIG",
                "EHRD 082355Z AUTO 08012KT 060V120 9999 NSC 01/M01 Q1016 NOSIG",
                "EHRD 082325Z AUTO 08011KT 050V110 9999 NCD 01/M01 Q1017 NOSIG",
                "EHRD 082225Z AUTO 09009KT 060V130 9999 NSC 01/M01 Q1018 NOSIG",
                "EHRD 082125Z AUTO 09009KT 060V120 9999 NSC 01/M02 Q1018 NOSIG",
                "EHRD 082055Z AUTO 08009KT 040V110 9999 NSC 01/M02 Q1018 NOSIG",
                "EHRD 081725Z AUTO 08008KT 050V110 9999 NSC 02/M01 Q1020 NOSIG",
                "EHRD 081655Z AUTO 08009KT 040V100 9999 NCD 03/M01 Q1020 NOSIG",
                "EHRD 081625Z AUTO 08010KT 050V110 9999 NCD 03/M01 Q1021 NOSIG",
                "EHRD 081555Z AUTO 07010KT 030V100 9999 NCD 03/M01 Q1021 NOSIG",
                "EHRD 081525Z AUTO 08012KT 050V110 9999 BKN019 03/M01 Q1021 NOSIG",
                "EHRD 081455Z AUTO 08013KT 050V110 9999 OVC017 04/M01 Q1021 NOSIG",
                "EHRD 081425Z AUTO 08013KT 050V110 9999 OVC016 04/M00 Q1021 NOSIG",
                "EHRD 081355Z AUTO 09010KT 050V120 9999 OVC016 03/M00 Q1022 NOSIG",
                "EHRD 081325Z AUTO 09011KT 070V130 9999 OVC017 03/M01 Q1022 NOSIG",
                "EHRD 081255Z AUTO 08010KT 050V110 9999 OVC018 03/M01 Q1022 NOSIG",
                "EHRD 081225Z AUTO 08012KT 050V120 9999 OVC018 03/M01 Q1023 NOSIG",
                "EHRD 081155Z AUTO 09011KT 060V130 9999 NCD 03/M01 Q1023 NOSIG",
                "EHRD 081125Z AUTO 08014KT 050V120 9999 SCT019 03/M01 Q1023 NOSIG",
                "EHRD 081055Z AUTO 08013KT 050V110 9999 NCD 02/M02 Q1024 NOSIG",
                "EHRD 081025Z AUTO 07013KT 040V100 9999 NCD 02/M02 Q1024 NOSIG",
                "EHRD 080955Z AUTO 08013KT 040V100 9999 NSC 01/M02 Q1025 NOSIG",
                "EHRD 080925Z AUTO 08013KT 050V110 9999 NCD 01/M02 Q1025 NOSIG",
                "EHRD 080855Z AUTO 07012KT 040V100 9999 NCD 01/M02 Q1025 NOSIG",
                "EHRD 080825Z AUTO 07013KT 050V110 9999 NCD 00/M02 Q1025 NOSIG",
                "EHRD 080755Z AUTO 07015KT 050V110 9999 OVC025 01/M02 Q1025 NOSIG",
                "EHRD 080725Z AUTO 07012KT 040V110 9999 OVC024 01/M02 Q1025 NOSIG",
                "EHRD 080655Z AUTO 08013KT 050V110 9999 OVC021/// 01/M02 Q1025 NOSIG",
                "EHRD 080625Z AUTO 08012KT 050V110 9999 BKN015 OVC019 00/M02 Q1025 NOSIG",
                "EHRD 080555Z AUTO 07010KT 040V110 9999 OVC017 00/M03 Q1025 NOSIG",
                "EHRD 080525Z AUTO 07014KT 040V110 9999 OVC016 00/M03 Q1025 NOSIG",
                "EHRD 080455Z AUTO 07012KT 040V110 9999 SCT018 OVC021 M00/M03 Q1026 NOSIG",
                "EHRD 080425Z AUTO 07013KT 040V100 9999 SCT020 OVC023 M00/M03 Q1026 NOSIG",
                "EHRD 080355Z AUTO 07014KT 040V100 9999 BKN018 OVC021 M00/M03 Q1026 NOSIG",
                "EHRD 080325Z AUTO 07015KT 030V090 9999 OVC019 00/M02 Q1026 NOSIG",
                "EHRD 080255Z AUTO 07012KT 040V100 9999 OVC016 M00/M03 Q1026 NOSIG",
                "EHRD 080225Z AUTO 06014KT 030V090 9999 OVC016 M00/M03 Q1026 NOSIG",
                "EHRD 080155Z AUTO 06016KT 9999 OVC016 M00/M03 Q1026 NOSIG",
                "EHRD 080125Z AUTO 06016KT 9999 OVC015 M00/M03 Q1026 NOSIG",
                "EHRD 080055Z AUTO 06017KT 9999 OVC014 M00/M03 Q1026 NOSIG",
                "EHRD 080025Z AUTO 06017KT 9999 OVC016 00/M03 Q1027 NOSIG",
                "EHRD 072355Z AUTO 06018KT 030V090 9999 OVC015 M00/M03 Q1027 NOSIG",
                "EHRD 072325Z AUTO 06014KT 9999 SCT014 OVC017 M00/M03 Q1027 NOSIG",
                "EHRD 072255Z AUTO 07013KT 9999 FEW017 M01/M04 Q1027 NOSIG",
                "EHRD 072055Z AUTO 07012KT 040V110 9999 NCD M00/M03 Q1027 NOSIG",
                "EHRD 071655Z AUTO 05015KT 020V080 9999 NCD 01/M02 Q1027 NOSIG",
                "EHRD 071625Z AUTO 05015KT 020V080 9999 NCD 01/M02 Q1027 NOSIG",
                "EHRD 071525Z AUTO 05016KT 020V080 9999 NCD 02/M02 Q1026 NOSIG",
                "EHRD 071425Z AUTO 05017KT 360V070 9999 NCD 02/M02 Q1026 NOSIG",
                "EHRD 071355Z AUTO 05018KT 020V080 9999 NCD 02/M02 Q1026 NOSIG",
                "EHRD 071255Z AUTO 05016KT 020V080 9999 NCD 03/M02 Q1027 NOSIG",
                "EHRD 071225Z AUTO 05015KT 010V070 9999 NCD 03/M02 Q1027 NOSIG",
                "EHRD 071125Z AUTO 05016KT 010V070 9999 NCD 02/M02 Q1027 NOSIG",
                "EHRD 071025Z AUTO 05014KT 020V080 9999 NCD 02/M02 Q1027 NOSIG",
                "EHRD 070955Z AUTO 05015KT 010V070 9999 NCD 01/M02 Q1027 NOSIG",
                "EHRD 070855Z AUTO 05012KT 020V080 9999 NCD 01/M02 Q1026 NOSIG",
                "EHRD 070825Z AUTO 04013KT 010V080 9999 FEW015 01/M02 Q1026 NOSIG",
                "EHRD 070725Z AUTO 05012KT 010V080 9999 FEW015 01/M01 Q1025 NOSIG",
                "EHRD 070625Z AUTO 04013KT 010V090 9999 NSC 01/M01 Q1024 NOSIG",
                "EHRD 070455Z AUTO 05013KT 010V070 9999 NSC 02/M01 Q1023 NOSIG",
                "EHRD 070425Z AUTO 05014KT 010V070 9999 NSC 02/M01 Q1022 NOSIG",
                "EHRD 070355Z AUTO 05015KT 020V090 9999 OVC016 02/M00 Q1022 NOSIG",
                "EHRD 070325Z AUTO 05014KT 020V080 9999 FEW016 02/M00 Q1022 NOSIG",
                "EHRD 070255Z AUTO 05013KT 020V080 9999 FEW015 02/M00 Q1021 NOSIG",
                "EHRD 070225Z AUTO 05016KT 010V080 9999 SCT012/// BKN015/// 02/M00 Q1021 NOSIG",
                "EHRD 070155Z AUTO 05015KT 020V080 9999 BKN012 BKN014 02/00 Q1021 BECMG OVC015",
                "EHRD 070125Z AUTO 04012KT 020V080 9999 NSC 03/01 Q1020 BECMG OVC015 TEMPO BKN013",
                "COR EHRD 070055Z AUTO 04013KT 360V090 9999 NSC 03/01 Q1020 BECMG OVC015 TEMPO BKN013",
                "EHRD 070025Z AUTO 04009KT 010V070 9999 NSC 03/01 Q1019 NOSIG",
                "EHRD 062355Z AUTO 04009KT 010V070 9999 NSC 03/01 Q1019 NOSIG",
                "EHRD 062225Z AUTO 04010KT 010V070 9999 NSC 03/01 Q1018 NOSIG",
                "EHRD 062125Z AUTO 04009KT 010V070 9999 NSC 04/01 Q1017 NOSIG",
                "EHRD 062055Z AUTO 04009KT 360V060 9999 NSC 04/01 Q1017 NOSIG",
                "EHRD 062025Z AUTO 04009KT 010V070 9999 NSC 04/01 Q1016 NOSIG",
                "EHRD 061925Z AUTO 04009KT 010V070 9999 NSC 04/02 Q1015 NOSIG",
                "EHRD 061855Z AUTO 04010KT 360V070 9999 NSC 05/02 Q1014 NOSIG",
                "EHRD 061825Z AUTO 04011KT 360V070 9999 SCT040 05/02 Q1014 NOSIG",
                "EHRD 061755Z AUTO 03011KT 360V070 9999 FEW032 05/03 Q1013 NOSIG",
                "EHRD 061725Z AUTO 04012KT 360V070 9999 NSC 05/03 Q1013 NOSIG",
                "EHRD 061655Z AUTO 04010KT 010V080 9999 OVC042 06/04 Q1012 NOSIG",
                "EHRD 061625Z AUTO 03009KT 350V060 9999 SCT016 OVC041 06/04 Q1012 NOSIG",
                "EHRD 061555Z AUTO 02008KT 350V050 9999 FEW011 SCT014 BKN016 06/04 Q1011 NOSIG",
                "EHRD 061525Z AUTO 03006KT 360V070 9999 FEW037 SCT041 06/04 Q1011 NOSIG",
                "EHRD 061455Z AUTO 03007KT 350V060 9999 NSC 07/04 Q1010 NOSIG",
                "EHRD 061425Z AUTO 03006KT 350V060 9999 NSC 07/04 Q1010 NOSIG",
                "EHRD 061325Z AUTO 01003KT 340V040 9999 FEW043 07/05 Q1009 NOSIG",
                "EHRD 061055Z AUTO 15002KT 9999 OVC045 06/05 Q1007 BECMG 9999",
                "EHRD 061025Z AUTO VRB01KT 9999 OVC043 06/05 Q1007 BECMG 9999",
                "EHRD 060955Z AUTO VRB01KT 9000 OVC042 06/05 Q1007 BECMG 9999",
                "EHRD 060925Z AUTO 22002KT 7000 OVC039 05/05 Q1006 BECMG 9999",
                "EHRD 060855Z AUTO 17002KT 8000 OVC040 04/04 Q1006 TEMPO 5000 BR",
                "EHRD 060825Z AUTO 16003KT 150V230 8000 OVC040 04/04 Q1005 TEMPO 5000 BR",
                "EHRD 060755Z AUTO VRB02KT 8000 OVC042 04/04 Q1005 TEMPO 5000 BR",
                "EHRD 060725Z AUTO 17003KT 7000 OVC044 04/04 Q1004 TEMPO 5000 BR",
                "EHRD 060625Z AUTO 16003KT 110V220 9999 BKN034 04/04 Q1003 NOSIG",
                "EHRD 060525Z AUTO 17006KT 9999 BKN025 BKN029 OVC039 05/04 Q1003 NOSIG",
                "EHRD 060455Z AUTO 19004KT 9999 BKN022 BKN035 BKN044 05/04 Q1002 NOSIG",
                "EHRD 060425Z AUTO 19005KT 9999 BKN023 OVC026 05/04 Q1002 NOSIG",
                "EHRD 060355Z AUTO 20004KT 9999 FEW024 OVC032 05/04 Q1002 NOSIG",
                "EHRD 060325Z AUTO 21004KT 9999 FEW027 BKN033 04/03 Q1002 NOSIG",
                "EHRD 060255Z AUTO 25005KT 220V290 9999 BKN030 OVC036 06/05 Q1002 NOSIG",
                "EHRD 060225Z AUTO 24006KT 9999 FEW011 SCT016 BKN021 06/05 Q1001 NOSIG",
                "EHRD 060155Z AUTO 23008KT 9999 FEW012 BKN021 OVC026 06/04 Q1001 NOSIG",
                "EHRD 052325Z AUTO 22015KT 9999 FEW022 SCT029 06/04 Q0999 NOSIG",
                "EHRD 052255Z AUTO 22014KT 190V250 9999 FEW032 06/04 Q0999 NOSIG",
                "EHRD 052225Z AUTO 21012G22KT 190V250 9999 FEW035 06/04 Q0999 NOSIG",
                "EHRD 052155Z AUTO 22013KT 190V250 9999 NCD 06/04 Q0998 NOSIG",
                "EHRD 052125Z AUTO 22013KT 9999 FEW033 SCT037 06/04 Q0998 NOSIG",
                "EHRD 052055Z AUTO 22016KT 190V250 9999 NCD 07/04 Q0998 NOSIG",
                "EHRD 052025Z AUTO 21013KT 9999 FEW039 SCT046 06/04 Q0997 NOSIG",
                "EHRD 051955Z AUTO 21012KT 190V250 9999 FEW032 07/04 Q0997 NOSIG",
                "EHRD 051825Z AUTO 21012KT 180V250 9999 NCD 07/05 Q0996 NOSIG",
                "EHRD 051755Z AUTO 22011KT 180V240 9999 FEW020 SCT024 BKN027 07/05 Q0996 NOSIG",
                "EHRD 051625Z AUTO 22008KT 190V250 9999 NCD 06/05 Q0995 NOSIG",
                "EHRD 051555Z AUTO 19006KT 160V230 9999 NSC 06/05 Q0995 BECMG 22012KT 9999 NSW SCT020",
                "EHRD 051225Z AUTO 20010KT 160V230 9999 FEW014/// 08/06 Q0995 TEMPO 7000 RA SHRA SCT020CB",
                "EHRD 051155Z AUTO 20010KT 9999 NSC 08/06 Q0995 TEMPO 7000 RA SHRA SCT020CB",
                "COR EHRD 051125Z AUTO 22010KT 9999 NSC 08/06 Q0995 BECMG FM1200 7000 RA SHRA SCT020CB",
                "EHRD 051055Z AUTO 22008KT 190V250 9999 NSC 08/06 Q0995 NOSIG",
                "EHRD 051025Z AUTO 19007KT 9999 FEW023 SCT027 07/06 Q0995 NOSIG",
                "EHRD 050955Z AUTO 22008KT 9999 FEW016 SCT021 07/06 Q0995 NOSIG",
                "EHRD 050925Z AUTO 23008KT 200V270 9999 FEW021 SCT036 BKN044 07/05 Q0995 NOSIG",
                "EHRD 050855Z AUTO 23009KT 9999 BKN032 BKN038 OVC042 07/06 Q0995 NOSIG",
                "EHRD 050825Z AUTO 22008KT 190V250 9999 FEW016 BKN020 OVC024 07/06 Q0995 NOSIG",
                "EHRD 050755Z AUTO 22008KT 9999 -DZ FEW022 BKN029 OVC033 07/06 Q0994 REDZ NOSIG",
                "EHRD 050655Z AUTO 22010KT 9999 -RADZ FEW020 SCT029 BKN035 07/05 Q0994 NOSIG",
                "EHRD 050625Z AUTO 23009KT 200V260 9999 BKN038 BKN044 06/04 Q0993 NOSIG",
                "EHRD 050525Z AUTO 23009KT 9999 FEW030 OVC048 06/04 Q0993 NOSIG",
                "EHRD 050455Z AUTO 22007KT 9999 OVC035 05/04 Q0993 REDZ NOSIG",
                "EHRD 050425Z AUTO 24007KT 9999 DZ FEW015CB SCT027 OVC030 05/04 Q0993 NOSIG",
                "EHRD 050255Z AUTO 26009KT 230V300 9999 DZ FEW015CB BKN026 BKN041 06/03 Q0993 NOSIG",
                "EHRD 050225Z AUTO 25011KT 220V290 9999 -DZ FEW015CB SCT025 OVC028 06/03 Q0993 REDZ NOSIG",
                "EHRD 050155Z AUTO 26017KT 220V300 9999 -SHRA FEW015CB SCT026 BKN031 07/03 Q0994 REDZ NOSIG",
                "EHRD 050125Z AUTO 24015KT 200V270 9999 FEW015CB 08/04 Q0993 NOSIG",
                "EHRD 050055Z AUTO 24015KT 210V280 9999 NSC 08/04 Q0993 NOSIG",
                "EHRD 042355Z AUTO 24020KT 210V270 9999 NSC 08/03 Q0993 NOSIG",
                "EHRD 042325Z AUTO 24018G30KT 200V270 9999 NSC 08/03 Q0993 NOSIG",
                "EHRD 042255Z AUTO 24020G32KT 210V280 9999 FEW028 07/03 Q0993 NOSIG",
                "EHRD 042225Z AUTO 24019KT 210V270 9999 NCD 07/04 Q0993 NOSIG",
                "EHRD 042155Z AUTO 24018KT 210V270 9999 FEW030 08/04 Q0993 NOSIG",
                "EHRD 042055Z AUTO 26020KT 220V300 9999 FEW026 SCT030 08/03 Q0992 NOSIG",
                "EHRD 042025Z AUTO 27023G34KT 230V300 9999 BKN030 08/03 Q0992 NOSIG",
                "EHRD 041955Z AUTO 26025G38KT 220V300 9999 OVC034 09/03 Q0991 NOSIG",
                "EHRD 041925Z AUTO 26025G39KT 210V310 9999 BKN029 OVC033 09/05 Q0990 NOSIG",
                "EHRD 041855Z AUTO 25026G38KT 220V280 9999 SCT034 OVC038 10/05 Q0990 TEMPO 24024G39KT",
                "EHRD 041825Z AUTO 25024G38KT 220V290 9999 SCT040 OVC044 10/05 Q0989 TEMPO 24024G39KT",
                "EHRD 041755Z AUTO 24020KT 210V280 9000 FEW037 OVC042 10/07 Q0989 TEMPO 24024G39KT",
                "EHRD 041725Z AUTO 24021KT 210V280 6000 -UP FEW016 SCT024 BKN032 10/08 Q0988 BECMG BKN018",
                "EHRD 041655Z AUTO 23022KT 200V260 6000 FEW015 SCT033 BKN046 10/08 Q0988 BECMG BKN018",
                "EHRD 041625Z AUTO 23020G30KT 7000 FEW013 10/08 Q0988 BECMG BKN018",
                "EHRD 041555Z AUTO 24020KT 200V260 7000 SCT011 BKN013 BKN030 11/09 Q0988 BECMG BKN018",
                "EHRD 041225Z AUTO 16008KT 110V190 2700 DZ FEW004 BKN005 BKN006 08/07 Q0991 BECMG 4000 RADZ",
                "EHRD 041125Z AUTO 19009KT 150V210 9000 DZ SCT007 SCT008 BKN019 08/06 Q0993 BECMG 7000 BKN008",
                "EHRD 041055Z AUTO 19008KT 160V220 9999 OVC034 08/05 Q0993 BECMG 7000 -RADZ BKN012",
                "EHRD 041025Z AUTO 19009KT 9999 SCT040 BKN045 08/06 Q0994 BECMG 7000 -RADZ BKN012",
                "EHRD 040955Z AUTO 19010KT 9999 NSC 07/06 Q0994 BECMG 7000 -RADZ BKN012",
                "EHRD 040925Z AUTO 20009KT 170V230 9999 -DZ NSC 08/06 Q0995 NOSIG",
                "EHRD 040855Z AUTO 22009KT 9999 FEW039/// BKN044/// 08/06 Q0995 NOSIG",
                "EHRD 040725Z AUTO 23011KT 200V260 9000 FEW042 07/06 Q0996 NOSIG",
                "EHRD 040525Z AUTO 25012KT 210V280 9000 NSC 08/05 Q0997 NOSIG",
                "EHRD 040355Z AUTO 24013KT 9000 FEW043/// 08/05 Q0997 NOSIG",
                "EHRD 040325Z AUTO 25014KT 220V280 9000 NSC 08/05 Q0997 NOSIG",
                "EHRD 040255Z AUTO 25014G25KT 220V280 9000 NSC 08/05 Q0997 NOSIG",
                "EHRD 040225Z AUTO 25017KT 210V280 9000 SCT037 BKN043 BKN048 08/05 Q0997 NOSIG",
                "EHRD 040155Z AUTO 24017KT 210V270 9999 SCT038 SCT047 08/05 Q0998 NOSIG",
                "EHRD 040125Z AUTO 25017G30KT 210V270 9999 FEW046 08/04 Q0998 NOSIG",
                "EHRD 040025Z AUTO 25018KT 220V290 9999 NSC 08/04 Q0997 NOSIG",
                "EHRD 032355Z AUTO 25018KT 220V290 9999 NSC 09/04 Q0998 NOSIG",
                "EHRD 032325Z AUTO 25021KT 210V270 9999 FEW033/// 09/04 Q0997 NOSIG",
                "EHRD 032255Z AUTO 25017G27KT 210V280 9999 SCT031 BKN035 BKN042 09/05 Q0998 NOSIG",
                "EHRD 032225Z AUTO 25018G28KT 220V290 9999 FEW031 SCT038 OVC046 09/05 Q0997 NOSIG",
                "EHRD 032155Z AUTO 25017KT 220V300 9999 FEW027/// SCT031/// OVC048/// 09/05 Q0998 NOSIG",
                "EHRD 032125Z AUTO 25018G31KT 220V290 9999 FEW030 BKN048 09/04 Q0997 NOSIG",
                "EHRD 032055Z AUTO 24017KT 9999 FEW030 BKN037 OVC044 09/04 Q0997 NOSIG",
                "EHRD 032025Z AUTO 25018KT 220V290 9999 FEW033 OVC038 09/04 Q0998 NOSIG",
                "EHRD 031955Z AUTO 26019KT 210V290 9999 BKN034 OVC038 09/04 Q0997 NOSIG",
                "EHRD 031925Z AUTO 26022G34KT 220V300 9999 FEW034 SCT039 BKN043 09/04 Q0997 NOSIG",
                "EHRD 031855Z AUTO 26017G30KT 230V290 9999 BKN032/// OVC039/// 09/04 Q0997 NOSIG",
                "EHRD 031825Z AUTO 25018G28KT 220V290 9999 BKN036 BKN042 09/04 Q0997 NOSIG",
                "EHRD 031755Z AUTO 25018KT 230V300 9999 NSC 09/04 Q0996 NOSIG",
                "EHRD 031725Z AUTO 26020G33KT 210V290 9999 SCT045 09/04 Q0996 NOSIG",
                "EHRD 031655Z AUTO 26023G34KT 220V300 9999 FEW029 BKN043 09/04 Q0996 NOSIG",
                "EHRD 031625Z AUTO 26022G33KT 220V300 9999 SCT033 OVC037 09/04 Q0995 NOSIG",
                "EHRD 031555Z AUTO 26019G29KT 210V300 9999 BKN036 OVC040 09/04 Q0995 NOSIG",
                "EHRD 031525Z AUTO 26020G35KT 230V290 9999 BKN033 OVC037 09/04 Q0995 NOSIG",
                "EHRD 031455Z AUTO 26023G38KT 220V290 9999 FEW029 SCT036 BKN041 09/04 Q0994 NOSIG",
                "EHRD 031425Z AUTO 26023G34KT 220V300 9999 FEW027 BKN036 OVC041 09/04 Q0993 REDZ NOSIG",
                "EHRD 031355Z AUTO 26023G34KT 230V300 9999 FEW028 OVC031 09/04 Q0993 NOSIG",
                "EHRD 031225Z AUTO 26027G37KT 220V290 9999 FEW027 BKN031 OVC037 09/04 Q0991 TEMPO 27036G45KT",
                "EHRD 031155Z AUTO 26027G40KT 220V300 9999 -DZ SCT027 OVC031 09/04 Q0990 TEMPO 27036G49KT",
                "EHRD 031125Z AUTO 26025G38KT 220V300 9999 BKN026 OVC030 09/04 Q0989 TEMPO 27036G49KT",
                "EHRD 031055Z AUTO 26027G41KT 230V300 9999 SCT029 OVC032 09/03 Q0989 BECMG 26036G50KT",
                "EHRD 030855Z AUTO 25027G40KT 220V300 9999 BKN033 OVC038 08/03 Q0986 BECMG 26033G45KT",
                "EHRD 030825Z AUTO 26024G39KT 220V290 9999 FEW033 SCT037 BKN042 08/03 Q0986 BECMG 26033G45KT",
                "EHRD 030755Z AUTO 25025G35KT 220V290 9999 FEW034 SCT038 08/03 Q0986 BECMG 26027G40KT",
                "EHRD 030725Z AUTO 26020G35KT 220V310 9999 FEW033 SCT040 08/03 Q0985 BECMG 26027G40KT",
                "EHRD 030655Z AUTO 25021G33KT 220V290 9999 NSC 07/03 Q0985 BECMG 26027G40KT",
                "EHRD 030625Z AUTO 25018KT 220V300 9999 FEW015CB 07/03 Q0985 BECMG 26027G40KT",
                "EHRD 030425Z AUTO 24020KT 210V280 9999 SCT023 10/06 Q0985 TEMPO 26028G42KT 6000 SHRA",
                "EHRD 030355Z AUTO 25019KT 210V290 9999 SCT034 10/07 Q0984 TEMPO 26028G42KT 6000 SHRA",
                "EHRD 030325Z AUTO 25021G33KT 220V280 9999 NSC 11/07 Q0985 TEMPO 26028G42KT 6000 SHRA",
                "EHRD 030255Z AUTO 26019G29KT 220V290 9999 SCT017CB 10/06 Q0983 RERAGR TEMPO 6000 SHRA",
                "EHRD 030025Z AUTO 18019KT 150V210 3400 -SHRA FEW006 BKN007 OVC009 09/09 Q0990 TEMPO 6000",
                "EHRD 022025Z AUTO 20013KT 170V240 9999 -RA BKN006 OVC008 08/07 Q1000 NOSIG",
                "EHRD 021955Z AUTO 20014KT 170V230 9999 SCT006 BKN007 OVC008 07/06 Q1001 NOSIG",
                "EHRD 021925Z AUTO 19017KT 160V220 9999 FEW006 BKN007 OVC008 07/06 Q1001 BECMG 9999",
                "EHRD 021855Z AUTO 18016KT 150V210 3200 -RA FEW005 BKN006 OVC008 06/06 Q1002 BECMG 6000",
                "EHRD 021825Z AUTO 17016KT 140V200 3200 -RA FEW005 BKN007 BKN008 06/05 Q1003 BECMG 6000",
                "EHRD 021625Z AUTO 19016KT 160V220 9999 FEW039 07/05 Q1006 NOSIG",
                "EHRD 021555Z AUTO 19012KT 140V230 9999 FEW015 SCT046 07/04 Q1006 NOSIG",
                "EHRD 021525Z AUTO 18011KT 150V220 9999 FEW039 06/03 Q1007 NOSIG",
                "EHRD 021455Z AUTO 19011KT 160V240 9999 NSC 07/03 Q1008 NOSIG",
                "EHRD 021425Z AUTO 20012KT 160V230 9999 NSC 06/03 Q1008 NOSIG",
                "EHRD 021355Z AUTO 20010KT 170V230 9999 NSC 06/04 Q1009 NOSIG",
                "EHRD 021155Z AUTO 24012KT 9999 FEW015 SCT030 07/04 Q1010 NOSIG",
                "EHRD 021125Z AUTO 24007KT 210V270 9999 FEW015 OVC030 07/04 Q1010 NOSIG",
                "EHRD 021055Z AUTO 25010KT 220V290 9999 SCT025 BKN028 OVC032 07/04 Q1011 NOSIG",
                "EHRD 021025Z AUTO 25009KT 200V290 9999 SCT015 BKN021 OVC026 07/04 Q1011 NOSIG",
                "EHRD 020955Z AUTO 25010KT 230V300 9999 NSC 07/04 Q1010 NOSIG",
                "EHRD 020925Z AUTO 26010KT 220V290 9999 FEW016 BKN032 06/04 Q1010 NOSIG",
                "EHRD 020855Z AUTO 26009KT 230V290 9999 BKN036 OVC040 07/04 Q1010 NOSIG",
                "EHRD 020825Z AUTO 26012KT 220V290 9999 SCT016 BKN019 OVC035 07/04 Q1010 NOSIG",
                "EHRD 020755Z AUTO 26010KT 9999 FEW017 SCT024 OVC027 07/04 Q1010 NOSIG",
                "EHRD 020725Z AUTO 26011KT 230V290 9999 BKN032 OVC037 07/04 Q1009 NOSIG",
                "EHRD 020655Z AUTO 27010KT 230V300 9999 BKN031 OVC035 06/03 Q1008 NOSIG",
                "EHRD 020625Z AUTO 27010KT 240V310 9999 SCT020 BKN024 OVC028 06/03 Q1008 NOSIG",
                "EHRD 020555Z AUTO 28011KT 240V310 9999 SCT020 OVC023 06/03 Q1008 NOSIG",
                "EHRD 020525Z AUTO 28010KT 240V320 9999 SCT018 OVC025 06/04 Q1007 NOSIG",
                "EHRD 020455Z AUTO 29014KT 250V320 9999 BKN024 BKN028 07/04 Q1007 NOSIG",
                "EHRD 020425Z AUTO 28015KT 250V320 9999 FEW015CB BKN021 BKN025 06/04 Q1006 NOSIG",
                "EHRD 020355Z AUTO 28012KT 250V320 9999 -RA FEW012 SCT014 FEW015CB BKN018 07/05 Q1005 NOSIG",
                "EHRD 020325Z AUTO 29012KT 260V330 9999 DZ FEW010 FEW015CB SCT017 BKN020 06/05 Q1005 TEMPO 7000",
                "EHRD 020255Z AUTO 29008KT 9999 FEW014 FEW015CB BKN017 BKN023 07/05 Q1004 NOSIG",
                "EHRD 020155Z AUTO 27005KT 230V300 9999 -UP FEW015CB OVC032 06/05 Q1003 NOSIG",
                "EHRD 020055Z AUTO 27006KT 230V310 9999 FEW010 SCT013 BKN018 06/05 Q1002 NOSIG",
                "EHRD 012355Z AUTO 24008KT 9999 FEW015CB SCT017 BKN028 06/05 Q1001 NOSIG",
                "EHRD 012325Z AUTO 25006KT 9999 FEW023 SCT026 06/05 Q1001 NOSIG",
                "EHRD 012255Z AUTO 25009KT 210V290 9999 SCT021 OVC025 06/05 Q1001 NOSIG",
                "EHRD 012225Z AUTO 25008KT 9999 FEW010 BKN012 BKN015CB 06/05 Q1001 REDZ NOSIG",
                "EHRD 012155Z AUTO 24008KT 210V270 9999 FEW039/// SCT044/// 06/04 Q1000 REDZ NOSIG",
                "EHRD 012125Z AUTO 25008KT 220V280 9999 BKN036 OVC040 06/05 Q1000 NOSIG",
                "EHRD 012055Z AUTO 25007KT 220V290 9999 FEW016 SCT025 BKN029 06/05 Q0999 REDZ NOSIG",
                "EHRD 012025Z AUTO 25008KT 230V290 9999 FEW032 SCT039 BKN045 06/04 Q0999 NOSIG",
                "EHRD 011955Z AUTO 25004KT 9999 FEW037 SCT041 BKN048 06/05 Q0998 NOSIG",
                "EHRD 011925Z AUTO 26004KT 9999 FEW040 06/05 Q0998 REDZ NOSIG",
                "EHRD 312125Z AUTO 26011KT 230V290 9999 -RA FEW019CB SCT031 BKN045 05/00 Q0999 TEMPO 7000 -SHRA SCT020CB",
                "EHRD 311955Z AUTO 24012G23KT 210V280 9999 RA FEW015CB BKN027 BKN036 04/01 Q0999 TEMPO 7000 -SHRA SCT020CB",
                "EHRD 311755Z AUTO 26013KT 230V300 9999 FEW022CB SCT032 BKN044 06/01 Q0999 TEMPO 7000 -SHRA SCT020CB",
                "EHRD 311655Z AUTO 24012KT 220V280 9999 BKN025 BKN028 OVC032 06/03 Q0999 TEMPO 7000 -SHRA SCT020CB",
                "EHRD 311525Z AUTO 22009KT 190V250 9999 FEW038 SCT042 BKN048 06/03 Q0999 REDZ TEMPO 7000 -SHRA SCT020CB",
                "EHRD 311455Z AUTO 24009KT 9999 FEW034/// BKN041/// BKN049/// 06/03 Q1000 REDZ TEMPO 7000 -SHRA SCT020CB",
                "EHRD 311425Z AUTO 28014KT 220V320 9999 DZRA FEW020 SCT029 BKN033 06/02 Q1001 TEMPO 7000 -SHRA SCT020CB",
                "EHRD 311355Z AUTO 29011KT 260V330 9999 FEW015CB BKN029 OVC032 06/04 Q1001 RERA TEMPO 7000 -SHRA",
                "EHRD 311325Z AUTO 24019G33KT 210V310 9999 +RA FEW012/// SCT014/// BKN016/// 08/06 Q1000 TEMPO 28025G38KT 3000 SHRA",
                "EHRD 311255Z AUTO 24016KT 200V270 9999 FEW014 FEW015CB BKN024 OVC028 08/06 Q1001 TEMPO FM1315 28020G35KT 6000 SHRA SCT015CB",
                "EHRD 311225Z AUTO 23020G30KT 200V270 9999 FEW010 SCT012 BKN015 08/07 Q1001 TEMPO 6000 SHRA SCT015CB",
                "EHRD 311055Z AUTO 23020KT 200V260 9999 -RA FEW015CB SCT039 BKN043 08/06 Q1003 RERA REDZ NOSIG",
                "EHRD 310955Z AUTO 25021KT 220V290 7000 -SHRA SCT015CB SCT029 BKN034 OVC039 08/06 Q1004 REDZ BECMG 9999",
                "EHRD 310925Z AUTO 24019KT 210V280 8000 -RA FEW011 SCT027 BKN042 09/07 Q1005 RERA REDZ TEMPO 7000",
                "EHRD 310855Z AUTO 23019G31KT 200V260 9999 SCT012 BKN014 BKN048 09/07 Q1005 TEMPO 7000 -RA BECMG BKN030",
                "EHRD 310825Z AUTO 23022KT 200V260 9999 SCT012 BKN015 BKN027 09/07 Q1005 TEMPO 7000 -RA BECMG BKN030",
                "EHRD 310755Z AUTO 23019G32KT 200V260 9999 SCT012 BKN014 BKN017 09/07 Q1005 TEMPO 7000 -RA BECMG BKN030",
                "EHRD 310725Z AUTO 23020KT 200V260 9999 SCT013 SCT016 BKN030 09/07 Q1006 TEMPO 7000 -RA BKN009",
                "EHRD 310655Z AUTO 23020KT 200V260 9999 FEW011 BKN014 BKN016 09/08 Q1006 TEMPO 5000 RA BKN009",
                "EHRD 310625Z AUTO 23019KT 200V260 9999 SCT010 BKN014 BKN016 10/08 Q1007 TEMPO 5000 RA BKN009",
                "EHRD 310555Z AUTO 23023G35KT 200V260 9999 FEW012 SCT014 BKN032 10/08 Q1007 TEMPO 5000 RA BKN009",
                "EHRD 310455Z AUTO 23020KT 200V260 4100 -RA FEW007 SCT008 BKN010 09/08 Q1008 RERA REDZ TEMPO 2000 DZ",
                "COR EHRD 310355Z AUTO 23021KT 200V260 7000 -RA FEW005 BKN007 BKN008 FEW015CB 09/09 Q1009 NOSIG",
                "EHRD 310325Z AUTO 22019G29KT 190V270 4100 SHRA FEW005 BKN007 BKN008 09/09 Q1010 BECMG 9999 NSW BKN008",
                "EHRD 310255Z AUTO 22017KT 3000 -RA FEW004 BKN006 OVC008 09/09 Q1010 RERA REDZ BECMG 9999 NSW BKN008",
                "EHRD 310225Z AUTO 21016KT 180V240 3400 -RA SCT004/// BKN006/// OVC007/// 09/08 Q1011 RERA REDZ BECMG 9999 NSW BKN008",
                "EHRD 291755Z AUTO 30010KT 260V340 9999 FEW008 SCT010 FEW015CB BKN046 08/07 Q1024 REDZ BECMG BKN020",
                "EHRD 291725Z AUTO 30012KT 260V330 9999 DZRA SCT008 BKN010 FEW015CB OVC018 08/07 Q1023 BECMG BKN020",
                "COR EHRD 291625Z AUTO 27019G29KT 230V310 3500 -SHRA DZ FEW006 SCT009 BKN010 09/08 Q1022 REDZ BECMG 30015KT 9999 BKN020",
                "EHRD 291555Z AUTO 25024G36KT 4600 -RADZ FEW008 SCT014 BKN016 10/08 Q1021 TEMPO 2500 BKN008 BECMG FM1630 30015KT 9999 BKN020",
                "EHRD 291525Z AUTO 25023KT 3800 -RA FEW009 SCT011 BKN014 SCT015CB 10/08 Q1021 BECMG FM1600 30015KT 9999 BKN020",
                "COR EHRD 291455Z AUTO 24022KT 210V290 6000 RA BKN015CB OVC021 10/08 Q1021 TEMPO 3000 BKN010 BECMG FM1600 30015KT 9999",
                "EHRD 272125Z AUTO 22018KT 190V250 6000 -RA SCT007 BKN008 OVC009 06/05 Q1024 RERA REDZ TEMPO 2500",
                "EHRD 271955Z AUTO 21018G30KT 180V240 4500 -RA FEW009 BKN012 BKN015 06/04 Q1025 RERA REDZ BECMG BKN012 TEMPO 6000",
                "EHRD 271825Z AUTO 20019KT 160V230 7000 -SHRA FEW011 SCT015CB OVC024 05/04 Q1025 REDZ NOSIG",
                "EHRD 251025Z AUTO 21012KT 170V250 9999 -RA FEW015 SCT040 BKN046 08/06 Q1011 TEMPO 7000 SHRA SCT015CB",
                "EHRD 242055Z AUTO 25009KT 220V280 5000 -RA FEW006 FEW015CB BKN041 OVC045 07/07 Q1008 BECMG 8000 BKN030",
                "EHRD 242025Z AUTO 27011KT 240V300 6000 -RA FEW008 FEW015CB OVC027 07/07 Q1008 RERA REDZ BECMG 8000 BKN030",
                "EHRD 241955Z AUTO 28009KT 230V320 4000 +DZ FEW006 SCT008 BKN010 08/07 Q1008 BECMG 8000 -RA BKN030 TEMPO 5000",
                "EHRD 241725Z AUTO 20022KT 170V240 9999 SCT027/// OVC030/// 13/08 Q1006 TEMPO 4500 RADZ TEMPO FM1830 27013KT 2000 SHRA BKN004 FEW018TCU",
                "EHRD 241625Z AUTO 20020G30KT 160V230 9999 SCT023/// OVC027/// 13/09 Q1006 TEMPO 4500 RADZ",
                "EHRD 240455Z AUTO 20016KT 170V240 9999 SCT006/// BKN007/// OVC009/// 12/11 Q1013 TEMPO 5000 -DZ BR",
                "EHRD 232225Z AUTO 23016KT 200V270 3200 -RA FEW005 BKN007 BKN009 11/10 Q1015 TEMPO 5000 SCT007 BKN008",
                "EHRD 232125Z AUTO 22016G28KT 180V250 4300 -DZ FEW005 BKN006 BKN007 10/10 Q1015 REDZ TEMPO 5000",
                "EHRD 232055Z AUTO 21017KT 180V250 4500 BR SCT005/// OVC006/// 10/10 Q1015 REDZ TEMPO 3000",
                "EHRD 231955Z AUTO 21019G29KT 170V240 5000 BR BKN006/// BKN007/// OVC008/// 10/09 Q1015 TEMPO 3000",
                "EHRD 231925Z AUTO 20018G29KT 160V230 4100 -RADZ FEW005 BKN006 BKN008 10/09 Q1015 RERA REDZ TEMPO 6000",
                "EHRD 231755Z AUTO 20017G27KT 170V230 3900 BR SCT005 BKN006 OVC008 09/09 Q1015 TEMPO 3000 DZRA",
                "EHRD 231425Z AUTO 19015KT 4300 BR FEW007 BKN008 BKN009 08/07 Q1016 BECMG BKN006 TEMPO 3000 DZRA",
                "COR EHRD 231355Z AUTO 19013KT 160V230 9999 -DZ FEW007 SCT014 OVC016 09/07 Q1016 REDZ BECMG 6000 BKN006 TEMPO 3000 DZRA",
                "EHRD 231325Z AUTO 19014KT 160V230 9999 -UP OVC016/// 09/07 Q1017 BECMG BKN013 TEMPO 5000 RADZ",
                "EHRD 231255Z AUTO 19015KT 160V220 9999 -RADZ FEW022 BKN027 OVC030 08/07 Q1017 BECMG BKN013 TEMPO 5000 RADZ",
                "EHRD 231225Z AUTO 19015KT 160V220 5000 -RA FEW018 BKN031 OVC040 09/06 Q1017 BECMG BKN013 TEMPO 5000 RADZ",
                "EHRD 220455Z AUTO 27009KT 240V300 8000 SCT007 BKN008 BKN009 07/07 Q1004 BECMG 8000 NSW BKN008",
                "EHRD 220425Z AUTO 20005KT 180V250 3800 BR BKN002 BKN004 OVC005 05/05 Q1004 BECMG 27010KT 6000 NSW BKN004",
                "EHRD 212225Z AUTO 15012KT 130V190 9999 -RA SCT008/// BKN009/// OVC010/// 03/02 Q1008 BECMG 7000",
                "EHRD 212155Z AUTO 15014KT 110V180 9999 -RA SCT008 BKN009 BKN011 03/02 Q1008 RERA REDZ BECMG 7000",
                "EHRD 212055Z AUTO 15013KT 120V180 9999 -RA FEW008 BKN009 OVC011 03/02 Q1010 RERA REDZ BECMG BKN009",
                "EHRD 211955Z AUTO 17012KT 130V190 9000 -RA FEW010 BKN015 BKN021 04/02 Q1011 RERA REDZ BECMG BKN009",
                "EHRD 211925Z AUTO 17012KT 140V200 9000 -RA FEW016 BKN024 OVC029 04/02 Q1012 RERA REDZ BECMG 7000 BKN009",
                "EHRD 201955Z AUTO 30005KT 280V340 9999 DZ SCT007 BKN009 BKN011 FEW015CB 03/03 Q1002 BECMG 9999 NSW",
                "EHRD 201925Z AUTO 32004KT 270V360 4000 +DZ SCT007 BKN008 BKN010 FEW015CB 03/03 Q1001 BECMG 9999 NSW",
                "EHRD 192225Z AUTO 21012KT 180V240 9999 FEW015CB SCT025 BKN028 OVC036 04/01 Q1007 TEMPO 7000 -SHRAGS SCT020CB",
                "EHRD 192025Z AUTO 24008KT 220V280 9999 FEW015CB SCT038 04/00 Q1007 REDZ TEMPO 7000 -SHRAGS SCT020CB",
                "EHRD 191925Z AUTO 26008KT 230V300 9999 -UP FEW016CB BKN029 BKN033 05/01 Q1007 TEMPO 7000 -SHRAGS FEW020CB",
                "EHRD 191455Z AUTO 25011KT 210V290 9999 SCT023 BKN026 BKN033 06/01 Q1007 TEMPO 7000 -SHRA FEW020CB",
                "EHRD 190225Z AUTO 29009KT 250V320 9999 FEW012 FEW015CB BKN027 BKN032 04/03 Q1003 REDZ TEMPO 6000 -SHRAGS SCT020CB",
                "EHRD 190155Z AUTO 28004KT 250V320 9999 FEW015CB BKN016 BKN020 BKN024 04/03 Q1003 TEMPO 6000 -SHRAGSSN SCT020CB",
                "EHRD 190125Z AUTO 28008KT 240V310 9999 -RADZ FEW009 BKN013 FEW015CB BKN016 04/03 Q1003 TEMPO 6000 -SHRAGSSN SCT020CB",
                "EHRD 190055Z AUTO 29007KT 240V330 9999 -RA FEW015CB BKN021 BKN025 04/03 Q1002 TEMPO 6000 -SHRAGSSN SCT020CB",
                "EHRD 190025Z AUTO 28005KT 240V340 9999 -RA SCT012 BKN014 FEW015CB OVC016 04/03 Q1002 TEMPO 6000 -SHRAGSSN SCT020CB",
                "EHRD 182355Z AUTO 22005KT 9999 FEW015CB SCT025 BKN029 04/03 Q1002 TEMPO 29012KT 6000 -SHRAGSSN SCT020CB",
                "EHRD 182325Z AUTO 22004KT 9999 FEW014 SCT017 BKN020 03/03 Q1002 REDZ TEMPO 29012KT 6000 -SHRAGSSN SCT020CB",
                "EHRD 182255Z AUTO 22003KT 9999 FEW020/// SCT031/// 01/01 Q1002 TEMPO 29012G22KT 6000 -SHRAGSSN SCT020CB",
                "EHRD 182225Z AUTO 34005KT 310V010 9999 SCT015CB SCT031 03/02 Q1002 TEMPO 29012G22KT 6000 -SHRAGSSN SCT020CB",
                "EHRD 182155Z AUTO 31003KT 260V350 6000 RA FEW009 SCT011 BKN014 FEW015CB 04/03 Q1001 REUPRA TEMPO 28012G22KT 9999 -SHRAGS SCT020CB",
                "EHRD 182125Z AUTO VRB04KT 9999 SCT010 FEW015CB SCT017 BKN023 05/03 Q1001 REDZ TEMPO 28015G25KT 4000 SHRAGS SCT020CB",
                "EHRD 182055Z AUTO 20004KT 9999 FEW015CB SCT020 BKN024 BKN027 04/03 Q1001 REDZ TEMPO 28015G25KT 4000 SHRAGS SCT020CB",
                "EHRD 182025Z AUTO 28007KT 250V330 9999 -RA FEW004 FEW015CB BKN020 OVC023 04/03 Q1001 TEMPO 28015G25KT 4000 SHRAGS SCT020CB",
                "EHRD 181955Z AUTO 24008KT 220V280 9999 FEW030 SCT047 04/02 Q1001 TEMPO 28015G25KT 4000 SHRAGS SCT020CB",
                "EHRD 181925Z AUTO 24004KT 210V270 9999 FEW015CB SCT026 OVC030 04/02 Q1001 TEMPO 28015G25KT 4000 SHRAGS SCT020CB",
                "EHRD 181855Z AUTO 25013KT 220V280 9999 -RA FEW009 FEW015CB SCT017 BKN022 05/02 Q1001 RERA REDZ TEMPO 28015G25KT 4000 SHRAGS SCT020CB",
                "EHRD 181155Z AUTO 28019G31KT 240V340 9999 FEW013/// SCT016/// BKN020/// 06/04 Q0998 REDZ TEMPO 7000 -SHRA SCT015CB",
                "EHRD 181125Z AUTO 29021G33KT 250V330 9999 FEW004 BKN030 06/03 Q0997 REDZ TEMPO 7000 -SHRA FEW020CB",
                "EHRD 181055Z AUTO 29026G40KT 260V330 9999 SCT017/// SCT021/// BKN025/// 06/03 Q0996 BECMG 30022G35KT",
                "EHRD 181025Z AUTO 29031G45KT 260V330 9999 SCT019/// BKN022/// BKN026/// 06/03 Q0994 BECMG 30025G40KT",
                "EHRD 180955Z AUTO 29034G50KT 250V320 9999 FEW018/// BKN022/// OVC027/// 06/02 Q0992 BECMG 30030G45KT",
                "EHRD 180555Z AUTO 23030G45KT 190V250 9999 -RA FEW013 FEW015CB SCT016 BKN021 10/08 Q0986 RERA REDZ BECMG BKN014",
                "EHRD 180425Z AUTO 20018KT 160V230 3900 -RA FEW005 BKN006 BKN007 FEW015CB 05/05 Q0989 BECMG 6000",
                "EHRD 180355Z AUTO 18021KT 150V210 2500 -RA FEW006 SCT007 BKN008 FEW015CB 05/04 Q0991 BECMG BKN008",
                "EHRD 180255Z AUTO 19016KT 150V220 8000 SHRA SCT009 BKN010 OVC013 04/02 Q0995 BECMG 4000 BKN008",
                "EHRD 180225Z AUTO 19017KT 150V230 6000 -SHRA FEW008 BKN009 BKN010 FEW015CB 04/02 Q0997 BECMG 5000 RA",
                "EHRD 171225Z AUTO 28025G39KT 250V320 9999 FEW029 SCT033 BKN046 06/00 Q1001 TEMPO 7000 -SHRA FEW020CB",
                "EHRD 170855Z AUTO 28020G31KT 250V310 9999 SCT025 BKN028 BKN036 05/00 Q0998 TEMPO 7000 -SHRAGS SCT020CB",
                "EHRD 170825Z AUTO 28016KT 240V310 9999 -UP FEW015CB SCT030 BKN037 04/00 Q0997 TEMPO 7000 -SHRAGS SCT020CB",
                "EHRD 170755Z AUTO 28015KT 240V310 9999 SCT025 BKN029 BKN034 04/M00 Q0997 TEMPO 7000 -SHRA SCT020CB",
                "EHRD 170725Z AUTO 27017KT 230V310 9999 -UP FEW015CB SCT025 BKN029 04/00 Q0996 TEMPO 7000 -SHRA SCT020CB",
                "EHRD 170655Z AUTO 28020G30KT 230V310 9999 FEW028 SCT040 BKN045 04/M01 Q0996 TEMPO 7000 -SHRA SCT020CB",
                "EHRD 170525Z AUTO 28019G32KT 240V310 9999 -RA FEW012/// SCT028/// BKN032/// 03/M01 Q0994 RERA REDZ TEMPO 7000 -SHRA",
                "EHRD 170455Z AUTO 28017KT 230V320 9999 FEW008 FEW018CB SCT030 BKN035 04/M01 Q0994 TEMPO 7000 -SHRA",
                "EHRD 170225Z AUTO 28017G28KT 240V320 9999 -UP FEW026 SCT031 BKN036 04/M00 Q0992 REDZUP TEMPO 7000 -SHRA",
                "EHRD 162255Z AUTO 26014KT 230V290 9999 FEW024/// SCT029/// BKN047/// 05/02 Q0991 TEMPO 7000 -SHRA",
                "EHRD 162125Z AUTO 25009KT 220V280 9999 DZRA FEW016CB BKN029 BKN033 05/01 Q0991 REUPDZ NOSIG",
                "EHRD 161555Z AUTO 26013KT 220V290 9999 -RA SCT030/// SCT038/// BKN049/// 05/01 Q0993 TEMPO 6000 SHRAGS",
                "EHRD 161125Z AUTO 28018KT 230V320 9999 -RA FEW015CB SCT037 BKN044 05/01 Q0993 RERA REDZ NOSIG",
                "EHRD 160855Z AUTO 28018G32KT 250V320 9999 -RA FEW011 FEW015CB SCT020 BKN028 04/02 Q0991 TEMPO 6000 SHRAGS SCT020CB",
                "EHRD 160825Z AUTO 28014KT 250V320 9999 -DZ FEW006 FEW015CB BKN031 BKN037 04/02 Q0991 REDZ TEMPO 27020G30KT 6000 SHRAGS SCT020CB",
                "EHRD 160725Z AUTO 30021G36KT 260V330 9999 -RA FEW014 FEW015CB BKN024 BKN028 04/02 Q0990 RERA REDZ TEMPO 6000 SHRAGS",
                "COR EHRD 160655Z AUTO 28009G21KT 220V310 9999 DZRA FEW015CB SCT018 BKN028 06/03 Q0989 TEMPO 29020G30KT 6000 SHRAGS",
                "EHRD 160625Z AUTO 27015G26KT 230V300 9999 -DZ FEW015CB BKN023 BKN035 07/04 Q0989 TEMPO 7000 -SHRA",
                "EHRD 160555Z AUTO 26014G24KT 230V300 9999 FEW015CB SCT023 BKN042 07/04 Q0989 RETS TEMPO 7000 -SHRA",
                "EHRD 160525Z AUTO 24016KT 200V280 9999 -RA FEW015CB SCT037 BKN043 07/04 Q0989 TEMPO 7000 -SHRA",
                "EHRD 160355Z AUTO 25016G26KT 220V280 9999 SCT017/// BKN022/// OVC026/// 07/04 Q0990 TEMPO 7000 -SHRA",
                "EHRD 160055Z AUTO 24014KT 9999 FEW015CB SCT018 BKN023 BKN028 07/04 Q0991 REDZ TEMPO 7000 -SHRA",
                "EHRD 160025Z AUTO 24016KT 210V280 9999 -DZ FEW015CB SCT038 BKN044 07/04 Q0992 TEMPO 7000 -SHRA FEW015CB",
                "EHRD 152055Z AUTO 27014KT 240V300 9999 FEW015CB SCT043 08/05 Q0991 REDZ TEMPO 6000 -SHRA SCT020TCU",
                "EHRD 152025Z AUTO 26015KT 220V310 9999 FEW015CB BKN026 BKN031 08/06 Q0990 TEMPO 6000 -SHRA SCT020TCU",
                "EHRD 151955Z AUTO 25012KT 210V280 9999 FEW015CB BKN016 OVC020 08/06 Q0990 TEMPO 6000 -SHRA SCT020TCU",
                "COR EHRD 151925Z AUTO 26010KT 9999 FEW015CB SCT021 BKN042 08/07 Q0990 REDZ TEMPO 6000 -SHRA SCT020TCU",
                "EHRD 151855Z AUTO 24019G33KT 210V270 9999 +DZRA FEW008 SCT009 BKN013 FEW015CB 08/07 Q0989 BECMG 26015G25KT TEMPO 6000 -SHRA",
                "EHRD 151825Z AUTO 22017KT 190V250 9999 FEW009 SCT011 FEW015CB OVC016 08/07 Q0989 REDZ TEMPO 6000 -SHRA",
                "COR EHRD 151755Z AUTO 21019KT 180V250 9999 -RA FEW007 SCT008 BKN010 FEW015CB 08/07 Q0989 BECMG NSW SCT020 TEMPO 6000 -SHRA",
                "EHRD 151725Z AUTO 19020KT 160V220 9000 -RA FEW007 BKN008 BKN009 FEW015CB 07/06 Q0990 TEMPO 4000 RA BECMG NSW SCT020",
                "EHRD 151655Z AUTO 18020G31KT 150V220 4300 -SHRA SCT008 BKN009 BKN010 SCT015CB 06/05 Q0990 TEMPO RA BECMG 9999 NSW SCT020",
                "EHRD 151625Z AUTO 18021KT 150V230 9000 SHRA SCT011 BKN014 BKN015CB 06/05 Q0991 TEMPO 3500 BKN012",
                "EHRD 151555Z AUTO 18022G33KT 150V210 9999 -RA FEW011 BKN014 BKN015CB 06/05 Q0992 TEMPO 3000 BKN008",
                "EHRD 151525Z AUTO 19021G31KT 150V220 9000 -SHRA FEW010 SCT013 BKN015CB 06/05 Q0993 TEMPO 3000 BKN008",
                "EHRD 151455Z AUTO 19020KT 150V230 7000 -SHRA FEW009 BKN011 BKN014 FEW015CB 07/05 Q0994 TEMPO 4000 BKN008",
                "EHRD 151425Z AUTO 19021G32KT 150V240 9999 -RA FEW008 BKN010 BKN012 SCT015CB 06/05 Q0994 TEMPO 4000 BKN008",
                "COR EHRD 151355Z AUTO 19023G38KT 150V220 4800 -SHRA SCT008 BKN009 BKN012 FEW015CB 06/05 Q0995 TEMPO 6000",
                "COR EHRD 151325Z AUTO 19021KT 160V220 7000 -RA FEW007 BKN008 OVC010 06/05 Q0996 RERA REDZ TEMPO 4000",
                "EHRD 151255Z AUTO 18020G30KT 150V220 8000 -RA FEW007 BKN008 BKN009 FEW015CB 06/05 Q0997 TEMPO 6000 BKN012",
                "EHRD 151225Z AUTO 18019KT 150V220 7000 -SHRA FEW008 BKN010 BKN012 BKN015CB 06/05 Q0999 TEMPO 8000",
                "EHRD 151155Z AUTO 19021G32KT 150V220 5000 -SHRA FEW012 BKN014 SCT015CB OVC017 06/05 Q1000 TEMPO 4000 RA BKN015",
                "EHRD 151125Z AUTO 18019KT 150V230 7000 -SHRA FEW012 SCT015CB BKN036 06/05 Q1001 TEMPO 4000 RA BKN012",
                "EHRD 151055Z AUTO 18017KT 140V220 9000 -SHRA SCT010 BKN012 BKN015CB 06/04 Q1002 TEMPO 6000 RA BKN015",
                "EHRD 151025Z AUTO 18017KT 150V220 7000 -RA SCT010 BKN012 SCT015CB BKN020 06/04 Q1003 TEMPO 8000",
                "EHRD 150525Z AUTO 19014KT 150V220 5000 BR SCT009/// BKN010/// OVC012/// 04/02 Q1010 BECMG 4000 BKN008",
                "EHRD 131455Z AUTO 11007KT 070V140 5000 BR SCT010 BKN013 BKN015 06/04 Q1022 BECMG 8000 NSW BKN025",
                "EHRD 130725Z AUTO 13006KT 090V160 1000 R06/1800U BR OVC001 03/03 Q1024 TEMPO 1200 BR BKN002",
                "COR EHRD 130525Z AUTO 11007KT 080V140 1100 R06/1200D BR OVC001 04/04 Q1024 BECMG 0800 FG",
                "COR EHRD 121125Z AUTO 07004KT 030V090 0600 R06/1200D FG VV001 06/05 Q1027 BECMG 1500 BR BKN003",
                "EHRD 120855Z AUTO 03004KT 360V060 2700 BR BKN003/// OVC004/// 06/05 Q1026 TEMPO 3500 BKN004",
                "EHRD 111555Z AUTO 35003KT 300V010 1900 BR SCT002/// BKN003/// OVC004/// 06/06 Q1020 TEMPO SCT002 BKN003",
                "EHRD 051525Z AUTO 22004KT 180V250 9999 SCT023 BKN036 05/05 Q0995 BECMG 22012KT 9999 NSW SCT020",
                "EHRD 051455Z AUTO 26003KT 230V300 9000 RA FEW015CB SCT016 BKN020 OVC026 05/05 Q0995 BECMG 22012KT 9999 NSW SCT020",
                "EHRD 051425Z AUTO 28013KT 240V320 7000 -SHRA FEW013 SCT015CB BKN021 06/04 Q0995 REDZ TEMPO 4000 SHRA",
                "EHRD 051355Z AUTO 19008KT 150V230 9999 SCT016/// BKN019/// OVC024/// 08/06 Q0994 TEMPO 25016G28KT 4000 SHRA SCT020CB",
                "EHRD 051325Z AUTO 21008KT 9999 SCT016/// SCT021/// BKN025/// 08/05 Q0995 TEMPO 25016G28KT 6000 SHRA SCT020CB",
                "EHRD 051255Z AUTO 21010KT 180V240 9999 -RA FEW015CB BKN033 BKN038 08/06 Q0995 TEMPO 7000 SHRA SCT020CB",
                "EHRD 050725Z AUTO 23007KT 9999 -RA SCT007 SCT008 BKN010 FEW015CB 07/06 Q0994 RERA REDZ BECMG SCT015",
                "EHRD 050355Z AUTO 28007KT 250V310 9999 -RADZ BKN015CB SCT023 BKN026 OVC037 05/04 Q0993 NOSIG",
                "EHRD 050325Z AUTO 26007KT 230V300 9999 -RA FEW015CB BKN041 OVC045 06/04 Q0993 RERA REDZ NOSIG",
                "EHRD 041525Z AUTO 23019KT 200V270 7000 FEW008 BKN010 OVC012 11/09 Q0988 BECMG 24018G28KT BKN012 TEMPO 7000",
                "EHRD 041455Z AUTO 23018G28KT 200V280 9000 FEW007 SCT009 BKN010 11/10 Q0989 BECMG 24018G28KT BKN012 TEMPO 7000",
                "EHRD 041425Z AUTO 23016KT 210V270 8000 BKN003 BKN004 OVC006 10/10 Q0989 BECMG 24018G28KT BKN012 TEMPO 7000",
                "EHRD 041355Z AUTO 21009KT 9999 BKN006 OVC007 09/09 Q0989 BECMG 24018G28KT BKN012 TEMPO 7000",
                "COR EHRD 041325Z AUTO 18010KT 150V220 9000 FEW005 BKN006 BKN007 08/08 Q0989 BECMG 24018G28KT BKN012 TEMPO 7000",
                "EHRD 041255Z AUTO 16008KT 2600 DZ SCT003/// BKN004/// OVC006/// 08/08 Q0990 BECMG 4000 RADZ BKN006",
                "EHRD 041155Z AUTO 16007KT 140V200 9999 FEW007 SCT009 BKN016 08/06 Q0992 REDZ BECMG 7000 RADZ BKN008",
                "EHRD 031325Z AUTO 26023G37KT 230V290 9999 SCT028 BKN032 BKN039 09/04 Q0992 TEMPO 7000 -SHRA SCT025CB",
                "EHRD 031255Z AUTO 26023G33KT 230V300 9999 FEW025/// BKN028/// OVC033/// 09/04 Q0992 TEMPO 7000 -SHRA SCT025CB",
                "EHRD 031025Z AUTO 25028G45KT 220V280 9999 SCT030 BKN037 09/03 Q0988 BECMG 26036G50KT 6000 RA",
                "EHRD 030955Z AUTO 26028G43KT 220V290 9999 SCT028 OVC032 08/03 Q0987 BECMG 26036G50KT 6000 RA",
                "EHRD 030925Z AUTO 25026G39KT 220V280 9999 FEW031 BKN036 BKN041 08/03 Q0987 BECMG 26036G50KT 6000 RA",
                "EHRD 030555Z AUTO 28021G33KT 250V320 9999 -DZ FEW015CB BKN032 OVC040 06/04 Q0986 REDZ BECMG 26027G40KT NSW",
                "EHRD 030525Z AUTO 24024KT 220V280 9999 FEW040 SCT044 BKN048 10/05 Q0984 TEMPO 26028G42KT 6000 SHRA",
                "EHRD 030455Z AUTO 24023KT 9999 -RA FEW009 SCT039 BKN043 10/06 Q0984 TEMPO 26028G42KT 6000 SHRA",
                "EHRD 030225Z AUTO 22024G38KT 190V250 2000 +SHRA SCT007 BKN008 BKN009 BKN015CB 11/10 Q0984 TEMPO 23037G50KT 7000 -SHRA SCT015",
                "COR EHRD 030155Z AUTO 21025G42KT 180V250 3300 SHRA SCT007 BKN008 BKN010 FEW015CB 11/10 Q0984 TEMPO 23037G50KT",
                "EHRD 030125Z AUTO 19022G37KT 160V230 6000 -RA SCT006 BKN007 BKN010 BKN015CB 10/09 Q0987 RERAGRRA TEMPO 4000 RADZ BKN012",
                "EHRD 030055Z AUTO 19020G34KT 150V220 3800 -RA FEW005 BKN006 BKN008 FEW015CB 10/09 Q0988 TEMPO 6000",
                "EHRD 022355Z AUTO 18017KT 150V210 4000 -RA SCT006 SCT008 BKN010 FEW015CB 09/08 Q0992 TEMPO 9999",
                "EHRD 022325Z AUTO 20016G26KT 170V230 8000 -RA FEW007 SCT008 BKN009 BKN015CB 09/08 Q0995 RERA BECMG BKN015",
                "EHRD 022255Z AUTO 20018KT 170V230 6000 -SHRA FEW006 BKN007 BKN008 BKN015CB 09/09 Q0996 REDZ BECMG BKN015",
                "EHRD 022225Z AUTO 20017G27KT 170V230 7000 -RA FEW006 BKN007 BKN008 FEW015CB 09/09 Q0997 BECMG BKN015",
                "EHRD 022155Z AUTO 20016KT 160V230 8000 -RA SCT005 BKN006 BKN007 SCT015CB 09/08 Q0998 RERA REDZ BECMG BKN015",
                "EHRD 022125Z AUTO 20013KT 170V230 9000 DZ BKN006 BKN007 BKN008 FEW015CB 09/08 Q0998 BECMG BKN015 TEMPO 6000",
                "EHRD 022055Z AUTO 21015KT 170V240 9999 -DZ BKN006 BKN008 FEW015CB 09/08 Q0999 BECMG BKN015 TEMPO 6000",
                "EHRD 021755Z AUTO 17014KT 140V200 3100 -RA SCT006 BKN008 BKN010 FEW015CB 06/05 Q1003 RERA REDZ NOSIG",
                "EHRD 021725Z AUTO 17015KT 150V210 5000 -RADZ FEW015CB BKN019 BKN025 06/05 Q1005 BECMG 4500 BKN007",
                "COR EHRD 021655Z AUTO 19014KT 150V220 9999 -DZ BKN044 BKN049 07/05 Q1005 REDZ BECMG 4500 BKN007",
                "EHRD 020225Z AUTO 29008KT 250V330 9999 FEW009 SCT011 FEW015CB BKN028 06/06 Q1004 REDZ NOSIG",
                "EHRD 020125Z AUTO 27006KT 240V300 9999 -RA FEW015CB BKN036 OVC040 06/05 Q1003 RERA REDZ NOSIG",
                "EHRD 020025Z AUTO 26009KT 230V290 9999 -RADZ FEW015CB SCT019 BKN023 BKN027 06/05 Q1002 RERA REDZ NOSIG",
                "EHRD 241925Z AUTO 29008KT 260V330 4200 +DZ FEW006 BKN011 BKN014 FEW015CB 08/07 Q1007 RERA REDZ TEMPO 2000 SCT004 FEW018TCU BECMG 28013KT 6000 -RA BKN030",
                "EHRD 241855Z AUTO 27016KT 240V300 6000 SHRA +DZ FEW005 SCT007 BKN008 FEW015CB 09/08 Q1006 TEMPO 2000 SCT004 FEW018TCU BECMG 28013KT 9999 NSW BKN030",
                "EHRD 241825Z AUTO 20023G35KT 170V230 9999 -DZ BKN025/// OVC028/// 12/08 Q1005 TEMPO FM1830 1200 +SHRA BKN004 FEW018TCU BECMG 28013KT",
                "EHRD 241755Z AUTO 20020KT 160V240 9999 FEW028 BKN031 BKN037 13/08 Q1005 TEMPO 4500 RADZ TEMPO FM1830 27013KT 2000 SHRA BKN004 FEW018TCU"
            };
    }
}
